{
"type": "FeatureCollection",
"name": "state_69_tracts_simplified",
"crs": { "type": "name", "properties": { "name": "urn:ogc:def:crs:OGC:1.3:CRS84" } },
"features": [
{ "type": "Feature", "properties": { "GEOIDFQ": "1400000US69085950100", "NAME": "9501", "NAMELSAD": "Census Tract 9501" }, "geometry": { "type": "MultiPolygon", "coordinates": [ [ [ [ 146.0143, 16.0574 ], [ 146.0304, 16.0772 ], [ 146.0508, 16.0934 ], [ 146.094, 16.0973 ], [ 146.125, 16.0855 ], [ 146.1382, 16.0747 ], [ 146.1519, 16.0519 ], [ 146.1544, 16.0228 ], [ 146.1507, 16.0063 ], [ 146.1469, 16.0 ], [ 146.1332, 15.981 ], [ 146.1271, 15.9776 ], [ 146.0882, 15.953 ], [ 146.0444, 15.9479 ], [ 146.0107, 15.9707 ], [ 146.0032, 16.0 ], [ 146.002, 16.0288 ], [ 146.0143, 16.0574 ] ] ], [ [ [ 145.7691, 17.3527 ], [ 145.7744, 17.3598 ], [ 145.7807, 17.3672 ], [ 145.788, 17.375 ], [ 145.7906, 17.3768 ], [ 145.7946, 17.381 ], [ 145.8016, 17.387 ], [ 145.817, 17.3921 ], [ 145.8236, 17.3932 ], [ 145.8285, 17.3962 ], [ 145.8443, 17.4004 ], [ 145.8505, 17.4012 ], [ 145.8564, 17.3995 ], [ 145.8603, 17.397 ], [ 145.8691, 17.394 ], [ 145.875, 17.3916 ], [ 145.88, 17.3918 ], [ 145.8928, 17.3896 ], [ 145.8964, 17.3884 ], [ 145.9006, 17.3832 ], [ 145.9045, 17.375 ], [ 145.9161, 17.3721 ], [ 145.9215, 17.3667 ], [ 145.9273, 17.358 ], [ 145.9308, 17.35 ], [ 145.9366, 17.3404 ], [ 145.926, 17.3333 ], [ 145.9272, 17.3213 ], [ 145.9268, 17.3039 ], [ 145.9258, 17.2971 ], [ 145.9232, 17.2886 ], [ 145.9183, 17.2798 ], [ 145.9121, 17.2708 ], [ 145.9037, 17.2608 ], [ 145.8956, 17.2564 ], [ 145.8922, 17.25 ], [ 145.8907, 17.2433 ], [ 145.8826, 17.2392 ], [ 145.8787, 17.2365 ], [ 145.8656, 17.2307 ], [ 145.8564, 17.2277 ], [ 145.8468, 17.2253 ], [ 145.8274, 17.2287 ], [ 145.8141, 17.2371 ], [ 145.8055, 17.2411 ], [ 145.8004, 17.2455 ], [ 145.7936, 17.25 ], [ 145.7915, 17.2549 ], [ 145.7876, 17.259 ], [ 145.7863, 17.2597 ], [ 145.7819, 17.2653 ], [ 145.7742, 17.2731 ], [ 145.7708, 17.2817 ], [ 145.7661, 17.2906 ], [ 145.7634, 17.3059 ], [ 145.7624, 17.3247 ], [ 145.7648, 17.3297 ], [ 145.7613, 17.3363 ], [ 145.7644, 17.3444 ], [ 145.7691, 17.3527 ] ] ], [ [ [ 145.75, 17.6086 ], [ 145.7606, 17.625 ], [ 145.7715, 17.645 ], [ 145.7854, 17.6685 ], [ 145.8001, 17.6841 ], [ 145.8281, 17.6908 ], [ 145.8569, 17.6905 ], [ 145.8939, 17.6803 ], [ 145.9108, 17.6677 ], [ 145.9177, 17.6546 ], [ 145.9232, 17.625 ], [ 145.9244, 17.5991 ], [ 145.9183, 17.5672 ], [ 145.9096, 17.548 ], [ 145.8967, 17.5335 ], [ 145.875, 17.5205 ], [ 145.8677, 17.5177 ], [ 145.8481, 17.5158 ], [ 145.8324, 17.5129 ], [ 145.8178, 17.5145 ], [ 145.8011, 17.5205 ], [ 145.7767, 17.536 ], [ 145.7588, 17.5519 ], [ 145.75, 17.5643 ], [ 145.7488, 17.5676 ], [ 145.7485, 17.5717 ], [ 145.7468, 17.5768 ], [ 145.7471, 17.5882 ], [ 145.7467, 17.5994 ], [ 145.75, 17.6086 ] ] ], [ [ [ 145.7022, 16.7357 ], [ 145.7083, 16.75 ], [ 145.7201, 16.7588 ], [ 145.7222, 16.764 ], [ 145.7307, 16.7699 ], [ 145.75, 16.779 ], [ 145.7698, 16.7877 ], [ 145.7924, 16.792 ], [ 145.8232, 16.7821 ], [ 145.8435, 16.7659 ], [ 145.858, 16.7513 ], [ 145.8583, 16.75 ], [ 145.8679, 16.7418 ], [ 145.8685, 16.7251 ], [ 145.8676, 16.6905 ], [ 145.8615, 16.673 ], [ 145.8549, 16.6601 ], [ 145.8421, 16.6479 ], [ 145.8219, 16.6371 ], [ 145.8027, 16.6324 ], [ 145.7812, 16.6305 ], [ 145.763, 16.6322 ], [ 145.75, 16.6392 ], [ 145.7383, 16.641 ], [ 145.7218, 16.6518 ], [ 145.7117, 16.6657 ], [ 145.7044, 16.6882 ], [ 145.7, 16.7109 ], [ 145.7022, 16.7357 ] ] ], [ [ [ 145.6514, 18.0822 ], [ 145.6547, 18.0909 ], [ 145.6545, 18.0977 ], [ 145.6586, 18.1092 ], [ 145.6603, 18.1192 ], [ 145.6685, 18.1372 ], [ 145.6855, 18.1536 ], [ 145.6848, 18.1711 ], [ 145.6869, 18.1792 ], [ 145.6889, 18.1844 ], [ 145.6913, 18.189 ], [ 145.6953, 18.1949 ], [ 145.7, 18.1997 ], [ 145.7164, 18.2127 ], [ 145.7323, 18.2242 ], [ 145.7397, 18.2302 ], [ 145.7595, 18.2411 ], [ 145.767, 18.2422 ], [ 145.7768, 18.2419 ], [ 145.794, 18.2431 ], [ 145.806, 18.2396 ], [ 145.8181, 18.2396 ], [ 145.8249, 18.2382 ], [ 145.84, 18.2338 ], [ 145.856, 18.2232 ], [ 145.8597, 18.216 ], [ 145.8647, 18.2093 ], [ 145.8803, 18.1864 ], [ 145.8871, 18.1685 ], [ 145.8907, 18.1551 ], [ 145.8877, 18.1479 ], [ 145.8878, 18.1382 ], [ 145.8852, 18.132 ], [ 145.8852, 18.125 ], [ 145.8835, 18.1093 ], [ 145.875, 18.0866 ], [ 145.8642, 18.0686 ], [ 145.8442, 18.0455 ], [ 145.8398, 18.0442 ], [ 145.8325, 18.041 ], [ 145.8204, 18.0347 ], [ 145.8092, 18.0295 ], [ 145.8016, 18.0228 ], [ 145.784, 18.0096 ], [ 145.7779, 18.0034 ], [ 145.7699, 18.0 ], [ 145.7441, 17.986 ], [ 145.7216, 17.986 ], [ 145.6954, 17.9898 ], [ 145.6779, 18.0 ], [ 145.6696, 18.0061 ], [ 145.664, 18.0093 ], [ 145.6614, 18.0136 ], [ 145.6575, 18.0189 ], [ 145.6563, 18.0247 ], [ 145.6527, 18.03 ], [ 145.6498, 18.0386 ], [ 145.6456, 18.0457 ], [ 145.6457, 18.0527 ], [ 145.6438, 18.0579 ], [ 145.6514, 18.0822 ] ] ], [ [ [ 145.5641, 18.7924 ], [ 145.5754, 18.8204 ], [ 145.5981, 18.8568 ], [ 145.6078, 18.8659 ], [ 145.625, 18.875 ], [ 145.6397, 18.8784 ], [ 145.6468, 18.8796 ], [ 145.6622, 18.881 ], [ 145.6761, 18.8805 ], [ 145.7042, 18.875 ], [ 145.71, 18.8724 ], [ 145.7257, 18.8598 ], [ 145.75, 18.8271 ], [ 145.7649, 18.7956 ], [ 145.7689, 18.7781 ], [ 145.7707, 18.7607 ], [ 145.7698, 18.75 ], [ 145.7643, 18.7316 ], [ 145.75, 18.7102 ], [ 145.7366, 18.6879 ], [ 145.729, 18.6821 ], [ 145.7003, 18.6643 ], [ 145.6846, 18.6578 ], [ 145.6827, 18.6575 ], [ 145.6721, 18.6592 ], [ 145.6612, 18.6592 ], [ 145.6544, 18.6604 ], [ 145.6376, 18.6678 ], [ 145.625, 18.6727 ], [ 145.6086, 18.6823 ], [ 145.5923, 18.7025 ], [ 145.5769, 18.7297 ], [ 145.5707, 18.75 ], [ 145.5698, 18.7515 ], [ 145.5631, 18.7788 ], [ 145.5641, 18.7924 ] ] ], [ [ [ 145.5713, 16.402 ], [ 145.5976, 16.4235 ], [ 145.625, 16.4425 ], [ 145.6546, 16.4511 ], [ 145.6757, 16.4523 ], [ 145.7208, 16.4483 ], [ 145.75, 16.4377 ], [ 145.7648, 16.4224 ], [ 145.7709, 16.4123 ], [ 145.7801, 16.3835 ], [ 145.7814, 16.375 ], [ 145.7828, 16.3599 ], [ 145.7819, 16.3559 ], [ 145.7725, 16.334 ], [ 145.7676, 16.324 ], [ 145.75, 16.308 ], [ 145.7329, 16.2933 ], [ 145.7023, 16.2766 ], [ 145.6932, 16.274 ], [ 145.6776, 16.2735 ], [ 145.6499, 16.2738 ], [ 145.625, 16.2805 ], [ 145.6038, 16.2894 ], [ 145.5751, 16.3058 ], [ 145.5601, 16.3412 ], [ 145.5588, 16.3742 ], [ 145.5713, 16.402 ] ] ], [ [ [ 145.3159, 19.714 ], [ 145.3412, 19.7407 ], [ 145.3597, 19.7564 ], [ 145.3672, 19.7594 ], [ 145.385, 19.7641 ], [ 145.3969, 19.7647 ], [ 145.4101, 19.7632 ], [ 145.4243, 19.7602 ], [ 145.4353, 19.7556 ], [ 145.4479, 19.7449 ], [ 145.4727, 19.7267 ], [ 145.4788, 19.7156 ], [ 145.4898, 19.7036 ], [ 145.4932, 19.6955 ], [ 145.4956, 19.6799 ], [ 145.4906, 19.6707 ], [ 145.4884, 19.657 ], [ 145.482, 19.6481 ], [ 145.476, 19.638 ], [ 145.4676, 19.627 ], [ 145.455, 19.6049 ], [ 145.4275, 19.591 ], [ 145.4, 19.5884 ], [ 145.375, 19.5948 ], [ 145.3691, 19.5967 ], [ 145.3564, 19.6025 ], [ 145.3431, 19.6077 ], [ 145.3303, 19.615 ], [ 145.3277, 19.625 ], [ 145.3253, 19.6276 ], [ 145.3214, 19.6352 ], [ 145.313, 19.6537 ], [ 145.3104, 19.6691 ], [ 145.3049, 19.6845 ], [ 145.3063, 19.6984 ], [ 145.3159, 19.714 ] ] ], [ [ [ 145.1362, 20.056 ], [ 145.1462, 20.0764 ], [ 145.1609, 20.0862 ], [ 145.1787, 20.0965 ], [ 145.2032, 20.1018 ], [ 145.2336, 20.1027 ], [ 145.2651, 20.0954 ], [ 145.2856, 20.0819 ], [ 145.2997, 20.0658 ], [ 145.3089, 20.0483 ], [ 145.315, 20.033 ], [ 145.3101, 20.0165 ], [ 145.3042, 20.0036 ], [ 145.3057, 20.0 ], [ 145.3022, 19.9928 ], [ 145.2925, 19.9793 ], [ 145.2822, 19.9688 ], [ 145.2722, 19.9615 ], [ 145.2612, 19.9555 ], [ 145.25, 19.9485 ], [ 145.2481, 19.9481 ], [ 145.2309, 19.9483 ], [ 145.2121, 19.9473 ], [ 145.2001, 19.9483 ], [ 145.1831, 19.9519 ], [ 145.1727, 19.9591 ], [ 145.1659, 19.9672 ], [ 145.1552, 19.9776 ], [ 145.1426, 19.9863 ], [ 145.1399, 20.0 ], [ 145.136, 20.0149 ], [ 145.1319, 20.0396 ], [ 145.1362, 20.056 ] ] ], [ [ [ 144.8211, 20.5781 ], [ 144.8334, 20.5951 ], [ 144.8461, 20.6052 ], [ 144.8633, 20.613 ], [ 144.875, 20.6145 ], [ 144.8991, 20.6166 ], [ 144.923, 20.6144 ], [ 144.9414, 20.6083 ], [ 144.9593, 20.5944 ], [ 144.9711, 20.5812 ], [ 144.9775, 20.5623 ], [ 144.9794, 20.5474 ], [ 144.9791, 20.5259 ], [ 144.9714, 20.5105 ], [ 144.9638, 20.5 ], [ 144.953, 20.49 ], [ 144.934, 20.4754 ], [ 144.9264, 20.4701 ], [ 144.8987, 20.4641 ], [ 144.8871, 20.4629 ], [ 144.8785, 20.4635 ], [ 144.875, 20.4656 ], [ 144.8625, 20.4671 ], [ 144.8535, 20.4723 ], [ 144.8451, 20.4741 ], [ 144.8384, 20.4789 ], [ 144.8314, 20.4849 ], [ 144.8268, 20.4918 ], [ 144.8261, 20.5 ], [ 144.8222, 20.5076 ], [ 144.816, 20.5233 ], [ 144.8133, 20.5448 ], [ 144.8154, 20.5628 ], [ 144.8211, 20.5781 ] ] ] ] } },
{ "type": "Feature", "properties": { "GEOIDFQ": "1400000US69110000500", "NAME": "5", "NAMELSAD": "Census Tract 5" }, "geometry": { "type": "Polygon", "coordinates": [ [ [ 145.7201, 15.2044 ], [ 145.7209, 15.2072 ], [ 145.7223, 15.2099 ], [ 145.7243, 15.2125 ], [ 145.7256, 15.2101 ], [ 145.7294, 15.2084 ], [ 145.7313, 15.2091 ], [ 145.7328, 15.2102 ], [ 145.7342, 15.2105 ], [ 145.7353, 15.2117 ], [ 145.7377, 15.2125 ], [ 145.7438, 15.2116 ], [ 145.7457, 15.2121 ], [ 145.7464, 15.2132 ], [ 145.747, 15.2127 ], [ 145.7464, 15.2084 ], [ 145.7428, 15.2072 ], [ 145.7412, 15.2049 ], [ 145.7414, 15.2018 ], [ 145.7422, 15.1998 ], [ 145.7417, 15.1855 ], [ 145.7307, 15.185 ], [ 145.7285, 15.1853 ], [ 145.7292, 15.1879 ], [ 145.7284, 15.1904 ], [ 145.7285, 15.1932 ], [ 145.7295, 15.1948 ], [ 145.7302, 15.1974 ], [ 145.7332, 15.2007 ], [ 145.7271, 15.2016 ], [ 145.7253, 15.201 ], [ 145.7198, 15.2013 ], [ 145.7201, 15.2044 ] ] ] } },
{ "type": "Feature", "properties": { "GEOIDFQ": "1400000US69100950100", "NAME": "9501", "NAMELSAD": "Census Tract 9501" }, "geometry": { "type": "MultiPolygon", "coordinates": [ [ [ [ 145.1426, 14.1471 ], [ 145.1433, 14.1475 ], [ 145.1431, 14.1464 ], [ 145.1426, 14.1465 ], [ 145.1426, 14.1471 ] ] ], [ [ [ 145.1219, 14.1214 ], [ 145.1214, 14.1227 ], [ 145.1226, 14.1244 ], [ 145.1228, 14.1251 ], [ 145.1224, 14.1248 ], [ 145.1224, 14.1259 ], [ 145.1231, 14.1272 ], [ 145.1237, 14.1274 ], [ 145.1239, 14.1283 ], [ 145.1253, 14.1291 ], [ 145.1255, 14.1297 ], [ 145.1274, 14.1304 ], [ 145.1272, 14.1308 ], [ 145.1325, 14.1342 ], [ 145.1321, 14.1352 ], [ 145.1305, 14.1356 ], [ 145.1314, 14.1358 ], [ 145.1324, 14.1369 ], [ 145.1331, 14.1369 ], [ 145.1323, 14.1352 ], [ 145.133, 14.1344 ], [ 145.1338, 14.1359 ], [ 145.1368, 14.1381 ], [ 145.1397, 14.1419 ], [ 145.1423, 14.1442 ], [ 145.1426, 14.1459 ], [ 145.1432, 14.1462 ], [ 145.1456, 14.1517 ], [ 145.1476, 14.1533 ], [ 145.1574, 14.1637 ], [ 145.1582, 14.1641 ], [ 145.1579, 14.165 ], [ 145.1582, 14.1666 ], [ 145.1598, 14.1682 ], [ 145.1647, 14.1686 ], [ 145.1687, 14.1678 ], [ 145.1722, 14.1677 ], [ 145.1738, 14.167 ], [ 145.1867, 14.1714 ], [ 145.191, 14.1737 ], [ 145.1965, 14.1741 ], [ 145.2045, 14.1777 ], [ 145.2049, 14.1791 ], [ 145.2069, 14.1811 ], [ 145.2191, 14.1894 ], [ 145.2231, 14.1913 ], [ 145.2285, 14.1948 ], [ 145.2342, 14.1971 ], [ 145.237, 14.199 ], [ 145.2413, 14.2003 ], [ 145.2471, 14.2003 ], [ 145.258, 14.1991 ], [ 145.2616, 14.1991 ], [ 145.2662, 14.1973 ], [ 145.2705, 14.1972 ], [ 145.2728, 14.1965 ], [ 145.2756, 14.1963 ], [ 145.2779, 14.1948 ], [ 145.2799, 14.1948 ], [ 145.2819, 14.194 ], [ 145.2836, 14.194 ], [ 145.2884, 14.1919 ], [ 145.2903, 14.1894 ], [ 145.2905, 14.1877 ], [ 145.29, 14.1863 ], [ 145.2854, 14.1791 ], [ 145.2844, 14.176 ], [ 145.2843, 14.1732 ], [ 145.2839, 14.1727 ], [ 145.2847, 14.1693 ], [ 145.2842, 14.1666 ], [ 145.2835, 14.1664 ], [ 145.2834, 14.166 ], [ 145.2842, 14.1652 ], [ 145.2841, 14.1632 ], [ 145.2823, 14.16 ], [ 145.2776, 14.1576 ], [ 145.276, 14.1573 ], [ 145.2742, 14.1561 ], [ 145.271, 14.1529 ], [ 145.2682, 14.1518 ], [ 145.2671, 14.1518 ], [ 145.2623, 14.1544 ], [ 145.2581, 14.1547 ], [ 145.2524, 14.1544 ], [ 145.2497, 14.1527 ], [ 145.2468, 14.1525 ], [ 145.2454, 14.1519 ], [ 145.2427, 14.1521 ], [ 145.241, 14.1514 ], [ 145.2364, 14.1471 ], [ 145.2346, 14.1461 ], [ 145.2327, 14.143 ], [ 145.232, 14.1424 ], [ 145.2298, 14.142 ], [ 145.2292, 14.1411 ], [ 145.2297, 14.1392 ], [ 145.2292, 14.1389 ], [ 145.2294, 14.1379 ], [ 145.2287, 14.1359 ], [ 145.2294, 14.133 ], [ 145.2309, 14.131 ], [ 145.2303, 14.131 ], [ 145.2303, 14.1306 ], [ 145.2277, 14.1292 ], [ 145.2276, 14.1288 ], [ 145.2249, 14.1275 ], [ 145.224, 14.1275 ], [ 145.2216, 14.1261 ], [ 145.2218, 14.1258 ], [ 145.2209, 14.1253 ], [ 145.2194, 14.1218 ], [ 145.2188, 14.1214 ], [ 145.2189, 14.12 ], [ 145.217, 14.1189 ], [ 145.2146, 14.1161 ], [ 145.2125, 14.1153 ], [ 145.2096, 14.1164 ], [ 145.2047, 14.1159 ], [ 145.2036, 14.1146 ], [ 145.2019, 14.1149 ], [ 145.2014, 14.1141 ], [ 145.2016, 14.1137 ], [ 145.1995, 14.1134 ], [ 145.1984, 14.1126 ], [ 145.1978, 14.1132 ], [ 145.1967, 14.1135 ], [ 145.1966, 14.1141 ], [ 145.1955, 14.1152 ], [ 145.1901, 14.1147 ], [ 145.188, 14.1158 ], [ 145.1857, 14.1157 ], [ 145.1854, 14.1161 ], [ 145.1841, 14.1162 ], [ 145.1817, 14.1153 ], [ 145.181, 14.1145 ], [ 145.1789, 14.1147 ], [ 145.1778, 14.1136 ], [ 145.1782, 14.1125 ], [ 145.1769, 14.1121 ], [ 145.1757, 14.111 ], [ 145.1734, 14.1104 ], [ 145.1699, 14.1105 ], [ 145.1679, 14.1113 ], [ 145.1671, 14.1121 ], [ 145.1678, 14.1141 ], [ 145.1691, 14.1151 ], [ 145.1694, 14.1187 ], [ 145.1686, 14.1198 ], [ 145.1689, 14.12 ], [ 145.169, 14.1213 ], [ 145.1673, 14.1235 ], [ 145.1674, 14.1245 ], [ 145.1671, 14.1245 ], [ 145.1682, 14.1259 ], [ 145.1663, 14.129 ], [ 145.1653, 14.1293 ], [ 145.1646, 14.1302 ], [ 145.1607, 14.1328 ], [ 145.1598, 14.1331 ], [ 145.1587, 14.1328 ], [ 145.1518, 14.1378 ], [ 145.148, 14.1386 ], [ 145.1462, 14.1385 ], [ 145.1442, 14.1396 ], [ 145.1439, 14.139 ], [ 145.1431, 14.1391 ], [ 145.1405, 14.1375 ], [ 145.1374, 14.1346 ], [ 145.1348, 14.1296 ], [ 145.1298, 14.1222 ], [ 145.1269, 14.1198 ], [ 145.1246, 14.1194 ], [ 145.1227, 14.1173 ], [ 145.122, 14.1175 ], [ 145.1222, 14.1179 ], [ 145.1214, 14.119 ], [ 145.1219, 14.1214 ] ] ] ] } },
{ "type": "Feature", "properties": { "GEOIDFQ": "1400000US69120990000", "NAME": "9900", "NAMELSAD": "Census Tract 9900" }, "geometry": { "type": "Polygon", "coordinates": [ [ [ 145.4702, 14.8649 ], [ 145.4744, 14.875 ], [ 145.4761, 14.8784 ], [ 145.4894, 14.8987 ], [ 145.5024, 14.9074 ], [ 145.5273, 14.9194 ], [ 145.5522, 14.9327 ], [ 145.5629, 14.9343 ], [ 145.541, 14.9496 ], [ 145.5248, 14.9715 ], [ 145.5156, 14.9915 ], [ 145.5132, 15.0 ], [ 145.5136, 15.0268 ], [ 145.5183, 15.0563 ], [ 145.535, 15.0892 ], [ 145.5726, 15.125 ], [ 145.6269, 15.1104 ], [ 145.6426, 15.1069 ], [ 145.6555, 15.0988 ], [ 145.6637, 15.0844 ], [ 145.7442, 15.0229 ], [ 145.7435, 15.0213 ], [ 145.7427, 15.0142 ], [ 145.7431, 15.0 ], [ 145.7462, 14.9917 ], [ 145.7458, 14.9904 ], [ 145.7476, 14.9814 ], [ 145.7477, 14.9712 ], [ 145.7308, 14.9173 ], [ 145.7093, 14.8927 ], [ 145.6947, 14.8731 ], [ 145.6837, 14.8642 ], [ 145.6712, 14.86 ], [ 145.6571, 14.8583 ], [ 145.6531, 14.8574 ], [ 145.6491, 14.8496 ], [ 145.6414, 14.8323 ], [ 145.6327, 14.8191 ], [ 145.6266, 14.8135 ], [ 145.6165, 14.8008 ], [ 145.5917, 14.7814 ], [ 145.5621, 14.7738 ], [ 145.5326, 14.7727 ], [ 145.5077, 14.7794 ], [ 145.5, 14.7876 ], [ 145.4939, 14.7902 ], [ 145.4827, 14.7992 ], [ 145.4726, 14.8191 ], [ 145.4678, 14.8371 ], [ 145.4682, 14.8533 ], [ 145.4702, 14.8649 ] ], [ [ 145.5329, 14.8348 ], [ 145.5326, 14.8346 ], [ 145.5327, 14.8338 ], [ 145.5337, 14.835 ], [ 145.5331, 14.8353 ], [ 145.5325, 14.835 ], [ 145.5329, 14.8348 ] ], [ [ 145.5377, 14.8438 ], [ 145.5382, 14.8437 ], [ 145.5394, 14.8418 ], [ 145.5405, 14.8416 ], [ 145.5404, 14.8414 ], [ 145.5409, 14.8411 ], [ 145.5421, 14.8414 ], [ 145.5424, 14.8407 ], [ 145.5455, 14.8404 ], [ 145.5479, 14.8409 ], [ 145.5507, 14.8424 ], [ 145.5515, 14.8422 ], [ 145.5531, 14.8429 ], [ 145.5531, 14.8426 ], [ 145.5535, 14.8431 ], [ 145.5541, 14.8427 ], [ 145.5555, 14.844 ], [ 145.5559, 14.8436 ], [ 145.5568, 14.8441 ], [ 145.5582, 14.8439 ], [ 145.5583, 14.8444 ], [ 145.5592, 14.8445 ], [ 145.5627, 14.8439 ], [ 145.5647, 14.8447 ], [ 145.5687, 14.8479 ], [ 145.5735, 14.851 ], [ 145.5749, 14.8526 ], [ 145.5753, 14.8542 ], [ 145.5756, 14.8535 ], [ 145.5763, 14.8535 ], [ 145.5775, 14.8549 ], [ 145.5782, 14.8573 ], [ 145.5781, 14.8587 ], [ 145.5777, 14.8587 ], [ 145.5785, 14.8601 ], [ 145.579, 14.8602 ], [ 145.5781, 14.8637 ], [ 145.5772, 14.8649 ], [ 145.573, 14.8665 ], [ 145.5731, 14.8658 ], [ 145.572, 14.8658 ], [ 145.5714, 14.865 ], [ 145.5704, 14.8649 ], [ 145.5695, 14.8643 ], [ 145.5667, 14.8643 ], [ 145.5653, 14.8623 ], [ 145.5643, 14.8617 ], [ 145.5578, 14.8602 ], [ 145.5554, 14.8586 ], [ 145.5527, 14.8577 ], [ 145.5503, 14.8563 ], [ 145.5451, 14.8552 ], [ 145.5434, 14.854 ], [ 145.5404, 14.8527 ], [ 145.5388, 14.8501 ], [ 145.5373, 14.8456 ], [ 145.5377, 14.8438 ] ], [ [ 145.5824, 15.0163 ], [ 145.5838, 15.0137 ], [ 145.5845, 15.0132 ], [ 145.5865, 15.0129 ], [ 145.5875, 15.0119 ], [ 145.5875, 15.0108 ], [ 145.5881, 15.0105 ], [ 145.5886, 15.0094 ], [ 145.5883, 15.0081 ], [ 145.5876, 15.008 ], [ 145.5878, 15.0077 ], [ 145.5866, 15.0066 ], [ 145.587, 15.006 ], [ 145.5868, 15.0049 ], [ 145.5872, 15.0044 ], [ 145.5866, 15.0034 ], [ 145.5865, 15.001 ], [ 145.5858, 15.0003 ], [ 145.5847, 14.9975 ], [ 145.5847, 14.9968 ], [ 145.585, 14.9968 ], [ 145.5846, 14.9957 ], [ 145.5852, 14.9947 ], [ 145.5871, 14.9938 ], [ 145.5876, 14.994 ], [ 145.5879, 14.9934 ], [ 145.5885, 14.9937 ], [ 145.5882, 14.9932 ], [ 145.5888, 14.9933 ], [ 145.5894, 14.9926 ], [ 145.5898, 14.9927 ], [ 145.5895, 14.9922 ], [ 145.5904, 14.9916 ], [ 145.59, 14.9913 ], [ 145.5903, 14.9907 ], [ 145.5927, 14.9898 ], [ 145.5937, 14.9905 ], [ 145.5946, 14.9898 ], [ 145.5967, 14.9897 ], [ 145.5974, 14.9903 ], [ 145.5979, 14.9902 ], [ 145.5984, 14.9911 ], [ 145.5996, 14.9918 ], [ 145.6006, 14.992 ], [ 145.6016, 14.9916 ], [ 145.6029, 14.9923 ], [ 145.6038, 14.992 ], [ 145.6047, 14.9924 ], [ 145.6086, 14.9904 ], [ 145.6091, 14.9872 ], [ 145.6079, 14.9862 ], [ 145.6083, 14.9856 ], [ 145.6097, 14.9853 ], [ 145.6103, 14.9845 ], [ 145.6101, 14.9838 ], [ 145.6114, 14.9834 ], [ 145.613, 14.9815 ], [ 145.612, 14.9766 ], [ 145.6126, 14.9744 ], [ 145.6118, 14.9744 ], [ 145.6114, 14.9735 ], [ 145.6123, 14.9694 ], [ 145.6135, 14.9667 ], [ 145.6161, 14.963 ], [ 145.6212, 14.9588 ], [ 145.629, 14.9545 ], [ 145.6295, 14.9544 ], [ 145.6303, 14.9549 ], [ 145.6316, 14.9532 ], [ 145.6313, 14.9502 ], [ 145.6284, 14.9425 ], [ 145.6284, 14.9406 ], [ 145.6293, 14.9403 ], [ 145.6298, 14.939 ], [ 145.6293, 14.9383 ], [ 145.63, 14.9372 ], [ 145.6293, 14.9359 ], [ 145.6293, 14.934 ], [ 145.6299, 14.9321 ], [ 145.631, 14.9306 ], [ 145.6305, 14.9293 ], [ 145.6306, 14.9279 ], [ 145.6316, 14.927 ], [ 145.6316, 14.9263 ], [ 145.6324, 14.9256 ], [ 145.6321, 14.925 ], [ 145.6353, 14.9228 ], [ 145.6388, 14.9226 ], [ 145.6413, 14.9235 ], [ 145.6433, 14.9248 ], [ 145.6445, 14.9263 ], [ 145.6453, 14.9264 ], [ 145.6453, 14.9272 ], [ 145.6468, 14.929 ], [ 145.649, 14.9336 ], [ 145.6499, 14.9342 ], [ 145.6502, 14.9353 ], [ 145.6523, 14.9371 ], [ 145.6525, 14.9385 ], [ 145.6521, 14.9396 ], [ 145.6515, 14.9398 ], [ 145.6515, 14.9413 ], [ 145.6531, 14.9437 ], [ 145.6538, 14.9441 ], [ 145.6546, 14.9459 ], [ 145.6554, 14.9462 ], [ 145.6563, 14.946 ], [ 145.6588, 14.9484 ], [ 145.6593, 14.9483 ], [ 145.6599, 14.9488 ], [ 145.662, 14.948 ], [ 145.6627, 14.9487 ], [ 145.664, 14.948 ], [ 145.6655, 14.9482 ], [ 145.6651, 14.9487 ], [ 145.6659, 14.9496 ], [ 145.666, 14.9504 ], [ 145.6648, 14.9506 ], [ 145.6642, 14.9511 ], [ 145.6644, 14.9527 ], [ 145.6635, 14.9534 ], [ 145.6634, 14.9546 ], [ 145.663, 14.9548 ], [ 145.6628, 14.9559 ], [ 145.6617, 14.9573 ], [ 145.6613, 14.9585 ], [ 145.6623, 14.9629 ], [ 145.6617, 14.9635 ], [ 145.6621, 14.9647 ], [ 145.6616, 14.9652 ], [ 145.6629, 14.9666 ], [ 145.6637, 14.9687 ], [ 145.6654, 14.9701 ], [ 145.6656, 14.9728 ], [ 145.6639, 14.9758 ], [ 145.6643, 14.9764 ], [ 145.6635, 14.9771 ], [ 145.6642, 14.9772 ], [ 145.6646, 14.978 ], [ 145.6663, 14.9793 ], [ 145.6667, 14.9808 ], [ 145.6681, 14.9827 ], [ 145.6683, 14.9846 ], [ 145.6691, 14.986 ], [ 145.6691, 14.9877 ], [ 145.6698, 14.9891 ], [ 145.6696, 14.9898 ], [ 145.6705, 14.995 ], [ 145.6712, 14.9958 ], [ 145.6709, 14.9971 ], [ 145.6716, 14.9978 ], [ 145.6717, 14.9995 ], [ 145.6737, 15.0047 ], [ 145.6735, 15.0055 ], [ 145.6738, 15.0059 ], [ 145.6735, 15.0074 ], [ 145.6711, 15.0093 ], [ 145.6711, 15.0115 ], [ 145.668, 15.0165 ], [ 145.6654, 15.0184 ], [ 145.6622, 15.0185 ], [ 145.6594, 15.018 ], [ 145.6595, 15.0184 ], [ 145.6573, 15.0189 ], [ 145.6561, 15.02 ], [ 145.6554, 15.0215 ], [ 145.6537, 15.0235 ], [ 145.6536, 15.0254 ], [ 145.653, 15.026 ], [ 145.6533, 15.0267 ], [ 145.652, 15.0274 ], [ 145.6521, 15.028 ], [ 145.6506, 15.0304 ], [ 145.6501, 15.0327 ], [ 145.6486, 15.0339 ], [ 145.6479, 15.0383 ], [ 145.6474, 15.039 ], [ 145.6479, 15.0394 ], [ 145.6476, 15.0397 ], [ 145.6478, 15.0411 ], [ 145.6471, 15.0417 ], [ 145.6474, 15.043 ], [ 145.6469, 15.0444 ], [ 145.6474, 15.0445 ], [ 145.6474, 15.0451 ], [ 145.648, 15.0457 ], [ 145.6477, 15.0466 ], [ 145.6492, 15.047 ], [ 145.649, 15.0476 ], [ 145.6502, 15.048 ], [ 145.6515, 15.0498 ], [ 145.6526, 15.0504 ], [ 145.6528, 15.0511 ], [ 145.654, 15.0516 ], [ 145.6557, 15.0531 ], [ 145.6562, 15.0543 ], [ 145.6585, 15.0569 ], [ 145.659, 15.0588 ], [ 145.6583, 15.0608 ], [ 145.6565, 15.0617 ], [ 145.6551, 15.0669 ], [ 145.6551, 15.0704 ], [ 145.6569, 15.0783 ], [ 145.6573, 15.0819 ], [ 145.6563, 15.0865 ], [ 145.6538, 15.0909 ], [ 145.6503, 15.0953 ], [ 145.6493, 15.0959 ], [ 145.6487, 15.0976 ], [ 145.6453, 15.1011 ], [ 145.6432, 15.1004 ], [ 145.6375, 15.0948 ], [ 145.6332, 15.0897 ], [ 145.6325, 15.0882 ], [ 145.6328, 15.0874 ], [ 145.6323, 15.0875 ], [ 145.63, 15.0858 ], [ 145.6273, 15.0846 ], [ 145.6227, 15.0791 ], [ 145.6202, 15.0772 ], [ 145.618, 15.0764 ], [ 145.6164, 15.0743 ], [ 145.6158, 15.0721 ], [ 145.6129, 15.0697 ], [ 145.6117, 15.0683 ], [ 145.6117, 15.0678 ], [ 145.6067, 15.0628 ], [ 145.6027, 15.0577 ], [ 145.5964, 15.0533 ], [ 145.5967, 15.0522 ], [ 145.5983, 15.0517 ], [ 145.5988, 15.0504 ], [ 145.5987, 15.0492 ], [ 145.5976, 15.0473 ], [ 145.5968, 15.0408 ], [ 145.5949, 15.0384 ], [ 145.5932, 15.0378 ], [ 145.5918, 15.0368 ], [ 145.5887, 15.0381 ], [ 145.5883, 15.0363 ], [ 145.5885, 15.036 ], [ 145.5877, 15.0337 ], [ 145.5878, 15.0318 ], [ 145.5869, 15.0303 ], [ 145.5872, 15.0297 ], [ 145.5864, 15.0274 ], [ 145.5857, 15.0269 ], [ 145.5841, 15.0234 ], [ 145.5847, 15.023 ], [ 145.5848, 15.0221 ], [ 145.5831, 15.0208 ], [ 145.5822, 15.0175 ], [ 145.5824, 15.0163 ] ] ] } },
{ "type": "Feature", "properties": { "GEOIDFQ": "1400000US69100990000", "NAME": "9900", "NAMELSAD": "Census Tract 9900" }, "geometry": { "type": "Polygon", "coordinates": [ [ [ 145.063, 14.1379 ], [ 145.0752, 14.1591 ], [ 145.0915, 14.1687 ], [ 145.0894, 14.179 ], [ 145.0919, 14.1936 ], [ 145.103, 14.2068 ], [ 145.1143, 14.2169 ], [ 145.1261, 14.2228 ], [ 145.1284, 14.2243 ], [ 145.1431, 14.2313 ], [ 145.157, 14.2352 ], [ 145.1783, 14.235 ], [ 145.1871, 14.2428 ], [ 145.2014, 14.2538 ], [ 145.2168, 14.2619 ], [ 145.2356, 14.2666 ], [ 145.2489, 14.2669 ], [ 145.2638, 14.2662 ], [ 145.2711, 14.2623 ], [ 145.2766, 14.2543 ], [ 145.2862, 14.2555 ], [ 145.3045, 14.2563 ], [ 145.3192, 14.2539 ], [ 145.3298, 14.2494 ], [ 145.3517, 14.2444 ], [ 145.365, 14.2266 ], [ 145.3745, 14.2008 ], [ 145.3725, 14.1775 ], [ 145.3714, 14.1701 ], [ 145.3492, 14.1364 ], [ 145.3515, 14.125 ], [ 145.3499, 14.1213 ], [ 145.3396, 14.1083 ], [ 145.3256, 14.0989 ], [ 145.312, 14.0942 ], [ 145.2991, 14.0919 ], [ 145.2958, 14.0844 ], [ 145.2846, 14.0711 ], [ 145.2739, 14.064 ], [ 145.2607, 14.0587 ], [ 145.2437, 14.0552 ], [ 145.233, 14.0525 ], [ 145.2231, 14.0545 ], [ 145.2196, 14.056 ], [ 145.1973, 14.0427 ], [ 145.178, 14.0366 ], [ 145.1597, 14.043 ], [ 145.1514, 14.0428 ], [ 145.1394, 14.0392 ], [ 145.1333, 14.0393 ], [ 145.1273, 14.0441 ], [ 145.0969, 14.0471 ], [ 145.0777, 14.0604 ], [ 145.0654, 14.0786 ], [ 145.0645, 14.0817 ], [ 145.0644, 14.083 ], [ 145.0596, 14.0991 ], [ 145.0581, 14.1144 ], [ 145.059, 14.125 ], [ 145.063, 14.1379 ] ], [ [ 145.1222, 14.1179 ], [ 145.122, 14.1175 ], [ 145.1227, 14.1173 ], [ 145.1246, 14.1194 ], [ 145.1269, 14.1198 ], [ 145.1298, 14.1222 ], [ 145.1348, 14.1296 ], [ 145.1374, 14.1346 ], [ 145.1405, 14.1375 ], [ 145.1431, 14.1391 ], [ 145.1439, 14.139 ], [ 145.1442, 14.1396 ], [ 145.1462, 14.1385 ], [ 145.148, 14.1386 ], [ 145.1518, 14.1378 ], [ 145.1587, 14.1328 ], [ 145.1598, 14.1331 ], [ 145.1607, 14.1328 ], [ 145.1646, 14.1302 ], [ 145.1653, 14.1293 ], [ 145.1663, 14.129 ], [ 145.1682, 14.1259 ], [ 145.1671, 14.1245 ], [ 145.1674, 14.1245 ], [ 145.1673, 14.1235 ], [ 145.169, 14.1213 ], [ 145.1689, 14.12 ], [ 145.1686, 14.1198 ], [ 145.1694, 14.1187 ], [ 145.1691, 14.1151 ], [ 145.1678, 14.1141 ], [ 145.1671, 14.1121 ], [ 145.1679, 14.1113 ], [ 145.1699, 14.1105 ], [ 145.1734, 14.1104 ], [ 145.1757, 14.111 ], [ 145.1769, 14.1121 ], [ 145.1782, 14.1125 ], [ 145.1778, 14.1136 ], [ 145.1789, 14.1147 ], [ 145.181, 14.1145 ], [ 145.1817, 14.1153 ], [ 145.1841, 14.1162 ], [ 145.1854, 14.1161 ], [ 145.1857, 14.1157 ], [ 145.188, 14.1158 ], [ 145.1901, 14.1147 ], [ 145.1955, 14.1152 ], [ 145.1966, 14.1141 ], [ 145.1967, 14.1135 ], [ 145.1978, 14.1132 ], [ 145.1984, 14.1126 ], [ 145.1995, 14.1134 ], [ 145.2016, 14.1137 ], [ 145.2014, 14.1141 ], [ 145.2019, 14.1149 ], [ 145.2036, 14.1146 ], [ 145.2047, 14.1159 ], [ 145.2096, 14.1164 ], [ 145.2125, 14.1153 ], [ 145.2146, 14.1161 ], [ 145.217, 14.1189 ], [ 145.2189, 14.12 ], [ 145.2188, 14.1214 ], [ 145.2194, 14.1218 ], [ 145.2209, 14.1253 ], [ 145.2218, 14.1258 ], [ 145.2216, 14.1261 ], [ 145.224, 14.1275 ], [ 145.2249, 14.1275 ], [ 145.2276, 14.1288 ], [ 145.2277, 14.1292 ], [ 145.2303, 14.1306 ], [ 145.2303, 14.131 ], [ 145.2309, 14.131 ], [ 145.2294, 14.133 ], [ 145.2287, 14.1359 ], [ 145.2294, 14.1379 ], [ 145.2292, 14.1389 ], [ 145.2297, 14.1392 ], [ 145.2292, 14.1411 ], [ 145.2298, 14.142 ], [ 145.232, 14.1424 ], [ 145.2327, 14.143 ], [ 145.2346, 14.1461 ], [ 145.2364, 14.1471 ], [ 145.241, 14.1514 ], [ 145.2427, 14.1521 ], [ 145.2454, 14.1519 ], [ 145.2468, 14.1525 ], [ 145.2497, 14.1527 ], [ 145.2524, 14.1544 ], [ 145.2581, 14.1547 ], [ 145.2623, 14.1544 ], [ 145.2671, 14.1518 ], [ 145.2682, 14.1518 ], [ 145.271, 14.1529 ], [ 145.2742, 14.1561 ], [ 145.276, 14.1573 ], [ 145.2776, 14.1576 ], [ 145.2823, 14.16 ], [ 145.2841, 14.1632 ], [ 145.2842, 14.1652 ], [ 145.2834, 14.166 ], [ 145.2835, 14.1664 ], [ 145.2842, 14.1666 ], [ 145.2847, 14.1693 ], [ 145.2839, 14.1727 ], [ 145.2843, 14.1732 ], [ 145.2844, 14.176 ], [ 145.2854, 14.1791 ], [ 145.29, 14.1863 ], [ 145.2905, 14.1877 ], [ 145.2903, 14.1894 ], [ 145.2884, 14.1919 ], [ 145.2836, 14.194 ], [ 145.2819, 14.194 ], [ 145.2799, 14.1948 ], [ 145.2779, 14.1948 ], [ 145.2756, 14.1963 ], [ 145.2728, 14.1965 ], [ 145.2705, 14.1972 ], [ 145.2662, 14.1973 ], [ 145.2616, 14.1991 ], [ 145.258, 14.1991 ], [ 145.2471, 14.2003 ], [ 145.2413, 14.2003 ], [ 145.237, 14.199 ], [ 145.2342, 14.1971 ], [ 145.2285, 14.1948 ], [ 145.2231, 14.1913 ], [ 145.2191, 14.1894 ], [ 145.2069, 14.1811 ], [ 145.2049, 14.1791 ], [ 145.2045, 14.1777 ], [ 145.1965, 14.1741 ], [ 145.191, 14.1737 ], [ 145.1867, 14.1714 ], [ 145.1738, 14.167 ], [ 145.1722, 14.1677 ], [ 145.1687, 14.1678 ], [ 145.1647, 14.1686 ], [ 145.1598, 14.1682 ], [ 145.1582, 14.1666 ], [ 145.1579, 14.165 ], [ 145.1582, 14.1641 ], [ 145.1574, 14.1637 ], [ 145.1476, 14.1533 ], [ 145.1456, 14.1517 ], [ 145.1432, 14.1462 ], [ 145.1426, 14.1459 ], [ 145.1423, 14.1442 ], [ 145.1397, 14.1419 ], [ 145.1368, 14.1381 ], [ 145.1338, 14.1359 ], [ 145.133, 14.1344 ], [ 145.1323, 14.1352 ], [ 145.1331, 14.1369 ], [ 145.1324, 14.1369 ], [ 145.1314, 14.1358 ], [ 145.1305, 14.1356 ], [ 145.1321, 14.1352 ], [ 145.1325, 14.1342 ], [ 145.1272, 14.1308 ], [ 145.1274, 14.1304 ], [ 145.1255, 14.1297 ], [ 145.1253, 14.1291 ], [ 145.1239, 14.1283 ], [ 145.1237, 14.1274 ], [ 145.1231, 14.1272 ], [ 145.1224, 14.1259 ], [ 145.1224, 14.1248 ], [ 145.1228, 14.1251 ], [ 145.1226, 14.1244 ], [ 145.1214, 14.1227 ], [ 145.1219, 14.1214 ], [ 145.1213, 14.1189 ], [ 145.1222, 14.1179 ] ], [ [ 145.1431, 14.1464 ], [ 145.1433, 14.1475 ], [ 145.1426, 14.1471 ], [ 145.1426, 14.1464 ], [ 145.1431, 14.1464 ] ] ] } },
{ "type": "Feature", "properties": { "GEOIDFQ": "1400000US69110000100", "NAME": "1", "NAMELSAD": "Census Tract 1" }, "geometry": { "type": "MultiPolygon", "coordinates": [ [ [ [ 145.8135, 15.2582 ], [ 145.8142, 15.258 ], [ 145.814, 15.2568 ], [ 145.8133, 15.2569 ], [ 145.8135, 15.2575 ], [ 145.8131, 15.2581 ], [ 145.8135, 15.2582 ] ] ], [ [ [ 145.7694, 15.2502 ], [ 145.7746, 15.2517 ], [ 145.7772, 15.253 ], [ 145.7816, 15.2571 ], [ 145.7823, 15.2591 ], [ 145.7824, 15.2612 ], [ 145.7849, 15.2635 ], [ 145.7864, 15.2671 ], [ 145.7912, 15.2714 ], [ 145.7934, 15.2725 ], [ 145.7939, 15.2736 ], [ 145.7939, 15.2752 ], [ 145.7959, 15.2766 ], [ 145.7989, 15.2779 ], [ 145.8014, 15.2815 ], [ 145.8037, 15.2827 ], [ 145.8061, 15.2852 ], [ 145.8081, 15.2882 ], [ 145.8103, 15.2901 ], [ 145.8116, 15.29 ], [ 145.8127, 15.2894 ], [ 145.8133, 15.2889 ], [ 145.8138, 15.2874 ], [ 145.8148, 15.2869 ], [ 145.8165, 15.2863 ], [ 145.8174, 15.2866 ], [ 145.8181, 15.2862 ], [ 145.8188, 15.2866 ], [ 145.8209, 15.2843 ], [ 145.8268, 15.2745 ], [ 145.8279, 15.2736 ], [ 145.8284, 15.2738 ], [ 145.8302, 15.273 ], [ 145.8305, 15.2705 ], [ 145.8294, 15.2642 ], [ 145.8285, 15.2627 ], [ 145.8288, 15.2624 ], [ 145.8267, 15.2594 ], [ 145.8244, 15.2593 ], [ 145.8245, 15.259 ], [ 145.8221, 15.2592 ], [ 145.8214, 15.2594 ], [ 145.8213, 15.2599 ], [ 145.8204, 15.2595 ], [ 145.8201, 15.2598 ], [ 145.8182, 15.2597 ], [ 145.8158, 15.2612 ], [ 145.8137, 15.2603 ], [ 145.8126, 15.2591 ], [ 145.8105, 15.258 ], [ 145.8105, 15.2572 ], [ 145.8108, 15.2572 ], [ 145.8109, 15.2568 ], [ 145.8106, 15.2565 ], [ 145.8105, 15.2554 ], [ 145.8122, 15.252 ], [ 145.8117, 15.2523 ], [ 145.8113, 15.2513 ], [ 145.8091, 15.2499 ], [ 145.8085, 15.2485 ], [ 145.8085, 15.2455 ], [ 145.8077, 15.2455 ], [ 145.8074, 15.2443 ], [ 145.808, 15.2432 ], [ 145.8095, 15.243 ], [ 145.8104, 15.2415 ], [ 145.8095, 15.2401 ], [ 145.8085, 15.2395 ], [ 145.8081, 15.2384 ], [ 145.8063, 15.2369 ], [ 145.8049, 15.2366 ], [ 145.8035, 15.237 ], [ 145.8035, 15.2364 ], [ 145.802, 15.2362 ], [ 145.8021, 15.2357 ], [ 145.8025, 15.2358 ], [ 145.8027, 15.2343 ], [ 145.8007, 15.2321 ], [ 145.7985, 15.2286 ], [ 145.7966, 15.2285 ], [ 145.7937, 15.2274 ], [ 145.7929, 15.2283 ], [ 145.7925, 15.2269 ], [ 145.7918, 15.2266 ], [ 145.7918, 15.2262 ], [ 145.7904, 15.2258 ], [ 145.7903, 15.2254 ], [ 145.7898, 15.2257 ], [ 145.7869, 15.2282 ], [ 145.7839, 15.2321 ], [ 145.7732, 15.2424 ], [ 145.7683, 15.248 ], [ 145.7694, 15.2502 ] ] ] ] } },
{ "type": "Feature", "properties": { "GEOIDFQ": "1400000US69110001300", "NAME": "13", "NAMELSAD": "Census Tract 13" }, "geometry": { "type": "Polygon", "coordinates": [ [ [ 145.6934, 15.1227 ], [ 145.6938, 15.1246 ], [ 145.6942, 15.1246 ], [ 145.695, 15.122 ], [ 145.6965, 15.1207 ], [ 145.697, 15.1233 ], [ 145.6976, 15.1242 ], [ 145.6998, 15.1251 ], [ 145.7031, 15.1256 ], [ 145.7103, 15.1287 ], [ 145.7124, 15.1302 ], [ 145.7149, 15.129 ], [ 145.7175, 15.1286 ], [ 145.7196, 15.1239 ], [ 145.7186, 15.1222 ], [ 145.7189, 15.1212 ], [ 145.7195, 15.1208 ], [ 145.7213, 15.1209 ], [ 145.7245, 15.127 ], [ 145.7261, 15.1289 ], [ 145.7283, 15.1299 ], [ 145.7286, 15.1317 ], [ 145.7298, 15.1322 ], [ 145.7319, 15.1315 ], [ 145.7326, 15.1299 ], [ 145.7347, 15.128 ], [ 145.7382, 15.1302 ], [ 145.7393, 15.1303 ], [ 145.7437, 15.1241 ], [ 145.7481, 15.1257 ], [ 145.7491, 15.1247 ], [ 145.7496, 15.1247 ], [ 145.7521, 15.1233 ], [ 145.7549, 15.1235 ], [ 145.7563, 15.1213 ], [ 145.757, 15.121 ], [ 145.757, 15.1192 ], [ 145.756, 15.1163 ], [ 145.756, 15.1142 ], [ 145.7566, 15.1122 ], [ 145.7555, 15.1106 ], [ 145.7547, 15.108 ], [ 145.754, 15.1078 ], [ 145.7526, 15.1061 ], [ 145.7528, 15.1039 ], [ 145.752, 15.1024 ], [ 145.7526, 15.1015 ], [ 145.7519, 15.0989 ], [ 145.7515, 15.0987 ], [ 145.7517, 15.0972 ], [ 145.7511, 15.096 ], [ 145.7511, 15.0948 ], [ 145.7494, 15.0922 ], [ 145.7478, 15.0919 ], [ 145.7462, 15.094 ], [ 145.745, 15.1001 ], [ 145.7424, 15.1038 ], [ 145.7406, 15.1051 ], [ 145.7387, 15.1059 ], [ 145.7332, 15.1064 ], [ 145.7325, 15.1063 ], [ 145.732, 15.1053 ], [ 145.7314, 15.1051 ], [ 145.7232, 15.1073 ], [ 145.7195, 15.1073 ], [ 145.7171, 15.1078 ], [ 145.7162, 15.1077 ], [ 145.7153, 15.1064 ], [ 145.7109, 15.1056 ], [ 145.7088, 15.1061 ], [ 145.7082, 15.1058 ], [ 145.7071, 15.1064 ], [ 145.7075, 15.1082 ], [ 145.7066, 15.1105 ], [ 145.7021, 15.1144 ], [ 145.6961, 15.1181 ], [ 145.6916, 15.1192 ], [ 145.6896, 15.1202 ], [ 145.6934, 15.1227 ] ] ] } },
{ "type": "Feature", "properties": { "GEOIDFQ": "1400000US69110001200", "NAME": "12", "NAMELSAD": "Census Tract 12" }, "geometry": { "type": "Polygon", "coordinates": [ [ [ 145.6933, 15.1328 ], [ 145.6963, 15.1371 ], [ 145.6986, 15.1363 ], [ 145.6974, 15.1336 ], [ 145.7043, 15.1263 ], [ 145.7029, 15.1256 ], [ 145.6998, 15.1251 ], [ 145.6976, 15.1242 ], [ 145.697, 15.1233 ], [ 145.6965, 15.1207 ], [ 145.695, 15.122 ], [ 145.6942, 15.1246 ], [ 145.6938, 15.1246 ], [ 145.6923, 15.1303 ], [ 145.6933, 15.1328 ] ] ] } },
{ "type": "Feature", "properties": { "GEOIDFQ": "1400000US69110001700", "NAME": "17", "NAMELSAD": "Census Tract 17" }, "geometry": { "type": "Polygon", "coordinates": [ [ [ 145.7428, 15.2072 ], [ 145.7463, 15.2082 ], [ 145.7466, 15.2087 ], [ 145.747, 15.2122 ], [ 145.7464, 15.2132 ], [ 145.7485, 15.2173 ], [ 145.7494, 15.2172 ], [ 145.7492, 15.2186 ], [ 145.7466, 15.2221 ], [ 145.748, 15.2231 ], [ 145.7495, 15.2276 ], [ 145.7513, 15.23 ], [ 145.7534, 15.2312 ], [ 145.7552, 15.2331 ], [ 145.7605, 15.2372 ], [ 145.7716, 15.2441 ], [ 145.7839, 15.2321 ], [ 145.7869, 15.2282 ], [ 145.7905, 15.2253 ], [ 145.7902, 15.2236 ], [ 145.7897, 15.2234 ], [ 145.7898, 15.2228 ], [ 145.7892, 15.2224 ], [ 145.7892, 15.2219 ], [ 145.7882, 15.2211 ], [ 145.7876, 15.2211 ], [ 145.7878, 15.2204 ], [ 145.7867, 15.2198 ], [ 145.7867, 15.2194 ], [ 145.7858, 15.22 ], [ 145.7859, 15.2193 ], [ 145.7854, 15.2191 ], [ 145.7855, 15.2188 ], [ 145.7841, 15.2183 ], [ 145.7849, 15.217 ], [ 145.7848, 15.2163 ], [ 145.7843, 15.2164 ], [ 145.7835, 15.2156 ], [ 145.7826, 15.2161 ], [ 145.7815, 15.2162 ], [ 145.7811, 15.2156 ], [ 145.7823, 15.2151 ], [ 145.7825, 15.2139 ], [ 145.7814, 15.213 ], [ 145.7811, 15.2114 ], [ 145.78, 15.211 ], [ 145.7795, 15.2101 ], [ 145.7785, 15.2101 ], [ 145.7784, 15.2097 ], [ 145.7791, 15.2095 ], [ 145.7788, 15.209 ], [ 145.7793, 15.2073 ], [ 145.7803, 15.2056 ], [ 145.7808, 15.2057 ], [ 145.782, 15.2041 ], [ 145.7822, 15.2029 ], [ 145.7812, 15.2017 ], [ 145.7819, 15.2005 ], [ 145.7814, 15.1983 ], [ 145.7807, 15.1973 ], [ 145.7785, 15.1963 ], [ 145.7787, 15.196 ], [ 145.778, 15.1956 ], [ 145.7775, 15.1943 ], [ 145.7786, 15.1933 ], [ 145.7788, 15.1917 ], [ 145.778, 15.191 ], [ 145.7786, 15.1903 ], [ 145.7781, 15.1894 ], [ 145.7796, 15.1878 ], [ 145.7793, 15.1875 ], [ 145.7797, 15.1865 ], [ 145.7765, 15.1838 ], [ 145.7735, 15.1839 ], [ 145.7721, 15.1847 ], [ 145.772, 15.1843 ], [ 145.7727, 15.1831 ], [ 145.7696, 15.1815 ], [ 145.77, 15.1806 ], [ 145.7682, 15.1791 ], [ 145.7668, 15.1789 ], [ 145.7647, 15.1773 ], [ 145.7628, 15.1805 ], [ 145.7594, 15.1829 ], [ 145.7584, 15.1841 ], [ 145.7558, 15.1839 ], [ 145.7523, 15.1846 ], [ 145.7507, 15.1855 ], [ 145.7417, 15.1855 ], [ 145.7422, 15.1998 ], [ 145.7414, 15.2018 ], [ 145.7412, 15.2049 ], [ 145.7428, 15.2072 ] ] ] } },
{ "type": "Feature", "properties": { "GEOIDFQ": "1400000US69110000200", "NAME": "2", "NAMELSAD": "Census Tract 2" }, "geometry": { "type": "Polygon", "coordinates": [ [ [ 145.7456, 15.2261 ], [ 145.7492, 15.231 ], [ 145.7479, 15.2351 ], [ 145.7469, 15.2365 ], [ 145.747, 15.2371 ], [ 145.7489, 15.2386 ], [ 145.751, 15.2394 ], [ 145.7525, 15.2405 ], [ 145.7527, 15.2402 ], [ 145.7534, 15.241 ], [ 145.7534, 15.2422 ], [ 145.7543, 15.243 ], [ 145.7556, 15.2436 ], [ 145.7627, 15.2451 ], [ 145.7682, 15.2479 ], [ 145.7716, 15.2441 ], [ 145.7605, 15.2372 ], [ 145.7552, 15.2331 ], [ 145.7534, 15.2312 ], [ 145.7513, 15.23 ], [ 145.7495, 15.2276 ], [ 145.7481, 15.2233 ], [ 145.7473, 15.2225 ], [ 145.7462, 15.2221 ], [ 145.744, 15.2255 ], [ 145.7456, 15.2261 ] ] ] } },
{ "type": "Feature", "properties": { "GEOIDFQ": "1400000US69110000300", "NAME": "3", "NAMELSAD": "Census Tract 3" }, "geometry": { "type": "MultiPolygon", "coordinates": [ [ [ [ 145.7229, 15.2176 ], [ 145.7236, 15.2186 ], [ 145.7234, 15.2174 ], [ 145.7213, 15.2178 ], [ 145.7229, 15.2176 ] ] ], [ [ [ 145.7174, 15.2197 ], [ 145.7209, 15.2198 ], [ 145.722, 15.2188 ], [ 145.7214, 15.2188 ], [ 145.7213, 15.2181 ], [ 145.7205, 15.2184 ], [ 145.7209, 15.2174 ], [ 145.7218, 15.217 ], [ 145.7237, 15.2169 ], [ 145.7241, 15.2188 ], [ 145.7234, 15.2225 ], [ 145.7242, 15.2203 ], [ 145.7263, 15.2214 ], [ 145.7262, 15.222 ], [ 145.7265, 15.2215 ], [ 145.7265, 15.2204 ], [ 145.7264, 15.2209 ], [ 145.7259, 15.2202 ], [ 145.7243, 15.22 ], [ 145.7246, 15.2182 ], [ 145.7259, 15.2199 ], [ 145.7248, 15.2178 ], [ 145.7249, 15.2175 ], [ 145.7294, 15.2186 ], [ 145.7315, 15.2202 ], [ 145.7302, 15.2221 ], [ 145.7323, 15.2243 ], [ 145.7319, 15.2247 ], [ 145.7351, 15.2272 ], [ 145.7365, 15.2274 ], [ 145.7368, 15.2262 ], [ 145.7372, 15.2263 ], [ 145.7372, 15.2271 ], [ 145.7375, 15.2259 ], [ 145.7381, 15.2255 ], [ 145.7377, 15.226 ], [ 145.7395, 15.2276 ], [ 145.7395, 15.2282 ], [ 145.7387, 15.2287 ], [ 145.7392, 15.229 ], [ 145.7398, 15.2285 ], [ 145.7402, 15.2292 ], [ 145.74, 15.2297 ], [ 145.7404, 15.2299 ], [ 145.7389, 15.2299 ], [ 145.7389, 15.2302 ], [ 145.7399, 15.2305 ], [ 145.7396, 15.2306 ], [ 145.7397, 15.2312 ], [ 145.7387, 15.2312 ], [ 145.7387, 15.2316 ], [ 145.7418, 15.2319 ], [ 145.7444, 15.233 ], [ 145.7463, 15.235 ], [ 145.7469, 15.2365 ], [ 145.7479, 15.2351 ], [ 145.7492, 15.231 ], [ 145.7456, 15.2261 ], [ 145.744, 15.2254 ], [ 145.7461, 15.2222 ], [ 145.7474, 15.2213 ], [ 145.7492, 15.2186 ], [ 145.7494, 15.2172 ], [ 145.7485, 15.2173 ], [ 145.7457, 15.2121 ], [ 145.7438, 15.2116 ], [ 145.7377, 15.2125 ], [ 145.7353, 15.2117 ], [ 145.7342, 15.2105 ], [ 145.7292, 15.2084 ], [ 145.7256, 15.2101 ], [ 145.7245, 15.2124 ], [ 145.7161, 15.2178 ], [ 145.7174, 15.2197 ] ] ], [ [ [ 145.7115, 15.2408 ], [ 145.7109, 15.2426 ], [ 145.7111, 15.2431 ], [ 145.7123, 15.2429 ], [ 145.7137, 15.2415 ], [ 145.7131, 15.2398 ], [ 145.7106, 15.2407 ], [ 145.7115, 15.2408 ] ] ] ] } },
{ "type": "Feature", "properties": { "GEOIDFQ": "1400000US69110001500", "NAME": "15", "NAMELSAD": "Census Tract 15" }, "geometry": { "type": "Polygon", "coordinates": [ [ [ 145.7226, 15.16 ], [ 145.7246, 15.1588 ], [ 145.7271, 15.1625 ], [ 145.7282, 15.1653 ], [ 145.7294, 15.1668 ], [ 145.7289, 15.1676 ], [ 145.7314, 15.1707 ], [ 145.7386, 15.1822 ], [ 145.7412, 15.1855 ], [ 145.7507, 15.1855 ], [ 145.7523, 15.1846 ], [ 145.7558, 15.1839 ], [ 145.7584, 15.1841 ], [ 145.7594, 15.1829 ], [ 145.7628, 15.1805 ], [ 145.7651, 15.1765 ], [ 145.761, 15.1753 ], [ 145.7631, 15.1717 ], [ 145.762, 15.1713 ], [ 145.7636, 15.1684 ], [ 145.7649, 15.1667 ], [ 145.7678, 15.1681 ], [ 145.7701, 15.1637 ], [ 145.7676, 15.1615 ], [ 145.766, 15.1625 ], [ 145.7611, 15.1634 ], [ 145.7597, 15.1631 ], [ 145.7592, 15.1615 ], [ 145.7586, 15.1619 ], [ 145.755, 15.1615 ], [ 145.7513, 15.1603 ], [ 145.7494, 15.1584 ], [ 145.7486, 15.1537 ], [ 145.7477, 15.1528 ], [ 145.747, 15.1527 ], [ 145.7466, 15.1516 ], [ 145.7469, 15.1513 ], [ 145.7466, 15.1498 ], [ 145.7453, 15.1487 ], [ 145.7451, 15.1465 ], [ 145.7444, 15.1465 ], [ 145.7445, 15.1458 ], [ 145.7434, 15.1448 ], [ 145.7434, 15.1437 ], [ 145.7409, 15.1443 ], [ 145.7401, 15.1451 ], [ 145.7374, 15.1459 ], [ 145.7369, 15.1451 ], [ 145.7359, 15.1456 ], [ 145.7355, 15.1453 ], [ 145.7327, 15.1479 ], [ 145.732, 15.1481 ], [ 145.7319, 15.1488 ], [ 145.7314, 15.1489 ], [ 145.7311, 15.1509 ], [ 145.7298, 15.1515 ], [ 145.7232, 15.153 ], [ 145.7201, 15.1567 ], [ 145.7226, 15.16 ] ] ] } },
{ "type": "Feature", "properties": { "GEOIDFQ": "1400000US69110000400", "NAME": "4", "NAMELSAD": "Census Tract 4" }, "geometry": { "type": "Polygon", "coordinates": [ [ [ 145.7161, 15.2027 ], [ 145.7163, 15.2044 ], [ 145.7153, 15.2141 ], [ 145.7156, 15.2166 ], [ 145.7161, 15.2178 ], [ 145.7243, 15.2125 ], [ 145.722, 15.2095 ], [ 145.7203, 15.2054 ], [ 145.7199, 15.202 ], [ 145.7199, 15.194 ], [ 145.7194, 15.1942 ], [ 145.7187, 15.1937 ], [ 145.7167, 15.195 ], [ 145.7168, 15.1994 ], [ 145.7165, 15.2 ], [ 145.7157, 15.2001 ], [ 145.7165, 15.2004 ], [ 145.7162, 15.2022 ], [ 145.7149, 15.2025 ], [ 145.7161, 15.2027 ] ] ] } },
{ "type": "Feature", "properties": { "GEOIDFQ": "1400000US69110000600", "NAME": "6", "NAMELSAD": "Census Tract 6" }, "geometry": { "type": "Polygon", "coordinates": [ [ [ 145.7167, 15.195 ], [ 145.7187, 15.1937 ], [ 145.7194, 15.1942 ], [ 145.7199, 15.194 ], [ 145.7198, 15.2011 ], [ 145.7253, 15.201 ], [ 145.7271, 15.2016 ], [ 145.7332, 15.2007 ], [ 145.7302, 15.1974 ], [ 145.7295, 15.1948 ], [ 145.7285, 15.1932 ], [ 145.7284, 15.1904 ], [ 145.7292, 15.1879 ], [ 145.7285, 15.1853 ], [ 145.7301, 15.1766 ], [ 145.7261, 15.1767 ], [ 145.7243, 15.1776 ], [ 145.7222, 15.1776 ], [ 145.7222, 15.1844 ], [ 145.7143, 15.1847 ], [ 145.7167, 15.195 ] ] ] } },
{ "type": "Feature", "properties": { "GEOIDFQ": "1400000US69110000700", "NAME": "7", "NAMELSAD": "Census Tract 7" }, "geometry": { "type": "Polygon", "coordinates": [ [ [ 145.713, 15.1785 ], [ 145.7143, 15.1847 ], [ 145.7222, 15.1844 ], [ 145.7222, 15.1776 ], [ 145.7243, 15.1776 ], [ 145.7261, 15.1767 ], [ 145.7301, 15.1766 ], [ 145.7285, 15.1853 ], [ 145.7307, 15.185 ], [ 145.7412, 15.1855 ], [ 145.7386, 15.1822 ], [ 145.7314, 15.1707 ], [ 145.7289, 15.1676 ], [ 145.7294, 15.1668 ], [ 145.7282, 15.1653 ], [ 145.7271, 15.1625 ], [ 145.7246, 15.1588 ], [ 145.7226, 15.16 ], [ 145.7201, 15.1567 ], [ 145.7225, 15.1536 ], [ 145.7214, 15.1527 ], [ 145.7185, 15.1548 ], [ 145.7182, 15.1546 ], [ 145.7135, 15.1612 ], [ 145.7123, 15.1621 ], [ 145.712, 15.1648 ], [ 145.7087, 15.1663 ], [ 145.713, 15.1785 ] ] ] } },
{ "type": "Feature", "properties": { "GEOIDFQ": "1400000US69110000800", "NAME": "8", "NAMELSAD": "Census Tract 8" }, "geometry": { "type": "Polygon", "coordinates": [ [ [ 145.7001, 15.1516 ], [ 145.7005, 15.1525 ], [ 145.6999, 15.1555 ], [ 145.7002, 15.1568 ], [ 145.7064, 15.1625 ], [ 145.7087, 15.1663 ], [ 145.712, 15.1648 ], [ 145.7123, 15.1621 ], [ 145.7135, 15.1612 ], [ 145.7182, 15.1546 ], [ 145.7136, 15.1491 ], [ 145.7109, 15.1503 ], [ 145.7102, 15.1528 ], [ 145.7041, 15.1516 ], [ 145.6992, 15.1514 ], [ 145.7001, 15.1516 ] ] ] } },
{ "type": "Feature", "properties": { "GEOIDFQ": "1400000US69110000900", "NAME": "9", "NAMELSAD": "Census Tract 9" }, "geometry": { "type": "Polygon", "coordinates": [ [ [ 145.7003, 15.1482 ], [ 145.7, 15.1504 ], [ 145.6996, 15.1513 ], [ 145.6992, 15.1513 ], [ 145.7041, 15.1516 ], [ 145.7102, 15.1528 ], [ 145.7108, 15.1504 ], [ 145.7122, 15.1497 ], [ 145.71, 15.1462 ], [ 145.7118, 15.1452 ], [ 145.7076, 15.1395 ], [ 145.7068, 15.1367 ], [ 145.7007, 15.142 ], [ 145.7011, 15.1444 ], [ 145.6991, 15.1447 ], [ 145.7003, 15.1482 ] ] ] } },
{ "type": "Feature", "properties": { "GEOIDFQ": "1400000US69110001600", "NAME": "16", "NAMELSAD": "Census Tract 16" }, "geometry": { "type": "MultiPolygon", "coordinates": [ [ [ [ 145.7917, 15.1508 ], [ 145.7928, 15.1495 ], [ 145.7904, 15.1499 ], [ 145.7896, 15.1508 ], [ 145.7917, 15.1508 ] ] ], [ [ [ 145.7651, 15.1765 ], [ 145.7647, 15.1773 ], [ 145.7668, 15.1789 ], [ 145.7682, 15.1791 ], [ 145.77, 15.1806 ], [ 145.7696, 15.1815 ], [ 145.7727, 15.1831 ], [ 145.772, 15.1843 ], [ 145.7721, 15.1847 ], [ 145.7735, 15.1839 ], [ 145.7765, 15.1838 ], [ 145.7797, 15.1865 ], [ 145.7818, 15.183 ], [ 145.7834, 15.1832 ], [ 145.7844, 15.1825 ], [ 145.7847, 15.1809 ], [ 145.7843, 15.1792 ], [ 145.7849, 15.1769 ], [ 145.787, 15.1732 ], [ 145.7892, 15.1717 ], [ 145.7899, 15.1718 ], [ 145.7903, 15.1712 ], [ 145.7908, 15.1714 ], [ 145.791, 15.1706 ], [ 145.792, 15.1702 ], [ 145.7923, 15.1697 ], [ 145.7932, 15.1695 ], [ 145.7953, 15.1675 ], [ 145.7976, 15.1667 ], [ 145.7922, 15.1635 ], [ 145.7915, 15.1617 ], [ 145.7918, 15.1589 ], [ 145.791, 15.1576 ], [ 145.7914, 15.1565 ], [ 145.7911, 15.1559 ], [ 145.7901, 15.1561 ], [ 145.7894, 15.1557 ], [ 145.7883, 15.1544 ], [ 145.7892, 15.1504 ], [ 145.7877, 15.1504 ], [ 145.7859, 15.1514 ], [ 145.7844, 15.1512 ], [ 145.7826, 15.1519 ], [ 145.7821, 15.1517 ], [ 145.7815, 15.1502 ], [ 145.7791, 15.1509 ], [ 145.7794, 15.1513 ], [ 145.7767, 15.1508 ], [ 145.776, 15.1512 ], [ 145.7766, 15.1517 ], [ 145.7763, 15.1518 ], [ 145.7746, 15.1515 ], [ 145.7732, 15.1529 ], [ 145.7723, 15.1532 ], [ 145.771, 15.1553 ], [ 145.7699, 15.1554 ], [ 145.7704, 15.1577 ], [ 145.7675, 15.1614 ], [ 145.7701, 15.1637 ], [ 145.7689, 15.1664 ], [ 145.7678, 15.1681 ], [ 145.7651, 15.1667 ], [ 145.7647, 15.1668 ], [ 145.762, 15.1713 ], [ 145.7631, 15.1717 ], [ 145.761, 15.1753 ], [ 145.7651, 15.1765 ] ] ] ] } },
{ "type": "Feature", "properties": { "GEOIDFQ": "1400000US69110001100", "NAME": "11", "NAMELSAD": "Census Tract 11" }, "geometry": { "type": "Polygon", "coordinates": [ [ [ 145.6991, 15.1447 ], [ 145.7011, 15.1444 ], [ 145.7007, 15.142 ], [ 145.7057, 15.1379 ], [ 145.7076, 15.1352 ], [ 145.7124, 15.1302 ], [ 145.7103, 15.1287 ], [ 145.7043, 15.1263 ], [ 145.6974, 15.1336 ], [ 145.6986, 15.1363 ], [ 145.6963, 15.1371 ], [ 145.6991, 15.1447 ] ] ] } },
{ "type": "Feature", "properties": { "GEOIDFQ": "1400000US69110001000", "NAME": "10", "NAMELSAD": "Census Tract 10" }, "geometry": { "type": "Polygon", "coordinates": [ [ [ 145.707, 15.1368 ], [ 145.7076, 15.1395 ], [ 145.7118, 15.1452 ], [ 145.71, 15.1462 ], [ 145.7122, 15.1497 ], [ 145.7138, 15.1492 ], [ 145.7185, 15.1548 ], [ 145.7214, 15.1527 ], [ 145.7225, 15.1536 ], [ 145.7234, 15.1529 ], [ 145.7298, 15.1515 ], [ 145.722, 15.142 ], [ 145.7201, 15.1363 ], [ 145.7124, 15.1302 ], [ 145.7066, 15.1366 ], [ 145.707, 15.1368 ] ] ] } },
{ "type": "Feature", "properties": { "GEOIDFQ": "1400000US69110990000", "NAME": "9900", "NAMELSAD": "Census Tract 9900" }, "geometry": { "type": "Polygon", "coordinates": [ [ [ 145.6483, 15.1387 ], [ 145.6487, 15.1404 ], [ 145.6693, 15.162 ], [ 145.677, 15.1759 ], [ 145.6846, 15.1938 ], [ 145.687, 15.1974 ], [ 145.6869, 15.2166 ], [ 145.6875, 15.2322 ], [ 145.6917, 15.247 ], [ 145.6951, 15.252 ], [ 145.7085, 15.2753 ], [ 145.7354, 15.3127 ], [ 145.7521, 15.327 ], [ 145.7643, 15.3346 ], [ 145.7818, 15.3483 ], [ 145.793, 15.3547 ], [ 145.8029, 15.3578 ], [ 145.8191, 15.3554 ], [ 145.8335, 15.3553 ], [ 145.8528, 15.3519 ], [ 145.876, 15.3345 ], [ 145.8906, 15.3146 ], [ 145.8963, 15.3087 ], [ 145.9012, 15.2948 ], [ 145.9073, 15.2839 ], [ 145.9094, 15.2741 ], [ 145.9055, 15.2578 ], [ 145.9021, 15.25 ], [ 145.8919, 15.2199 ], [ 145.8829, 15.1974 ], [ 145.8805, 15.1952 ], [ 145.8799, 15.1933 ], [ 145.88, 15.1779 ], [ 145.8788, 15.1761 ], [ 145.8786, 15.1673 ], [ 145.875, 15.1502 ], [ 145.8792, 15.1451 ], [ 145.876, 15.1354 ], [ 145.8649, 15.1302 ], [ 145.8598, 15.1238 ], [ 145.8477, 15.1205 ], [ 145.8374, 15.1201 ], [ 145.8387, 15.116 ], [ 145.8366, 15.1074 ], [ 145.8339, 15.1019 ], [ 145.8295, 15.0973 ], [ 145.8258, 15.0924 ], [ 145.8087, 15.079 ], [ 145.8027, 15.0756 ], [ 145.796, 15.0736 ], [ 145.7877, 15.0721 ], [ 145.7764, 15.0703 ], [ 145.753, 15.0672 ], [ 145.7514, 15.0673 ], [ 145.7501, 15.0666 ], [ 145.7451, 15.0246 ], [ 145.7442, 15.0229 ], [ 145.6637, 15.0844 ], [ 145.6555, 15.0988 ], [ 145.6426, 15.1069 ], [ 145.6269, 15.1104 ], [ 145.5726, 15.125 ], [ 145.6483, 15.1387 ] ], [ [ 145.6916, 15.1192 ], [ 145.6961, 15.1181 ], [ 145.7021, 15.1144 ], [ 145.7066, 15.1105 ], [ 145.7075, 15.1082 ], [ 145.7071, 15.1064 ], [ 145.7082, 15.1058 ], [ 145.7088, 15.1061 ], [ 145.7109, 15.1056 ], [ 145.7153, 15.1064 ], [ 145.7162, 15.1077 ], [ 145.7171, 15.1078 ], [ 145.7195, 15.1073 ], [ 145.7232, 15.1073 ], [ 145.7314, 15.1051 ], [ 145.732, 15.1053 ], [ 145.7325, 15.1063 ], [ 145.7332, 15.1064 ], [ 145.7387, 15.1059 ], [ 145.7406, 15.1051 ], [ 145.7424, 15.1038 ], [ 145.745, 15.1001 ], [ 145.7462, 15.094 ], [ 145.7474, 15.0921 ], [ 145.7491, 15.092 ], [ 145.7505, 15.0933 ], [ 145.7517, 15.0969 ], [ 145.7515, 15.0987 ], [ 145.7519, 15.0989 ], [ 145.7526, 15.1015 ], [ 145.752, 15.1024 ], [ 145.7528, 15.1039 ], [ 145.7526, 15.1061 ], [ 145.754, 15.1078 ], [ 145.7547, 15.108 ], [ 145.7555, 15.1106 ], [ 145.7566, 15.1122 ], [ 145.756, 15.1142 ], [ 145.756, 15.1163 ], [ 145.757, 15.1192 ], [ 145.757, 15.121 ], [ 145.7563, 15.1213 ], [ 145.7549, 15.1235 ], [ 145.7527, 15.1231 ], [ 145.7505, 15.124 ], [ 145.7483, 15.1253 ], [ 145.7472, 15.1274 ], [ 145.7457, 15.1279 ], [ 145.7448, 15.1304 ], [ 145.7426, 15.1333 ], [ 145.7412, 15.1374 ], [ 145.7414, 15.1408 ], [ 145.7425, 15.1417 ], [ 145.7427, 15.1424 ], [ 145.7423, 15.1427 ], [ 145.7434, 15.1437 ], [ 145.7434, 15.1448 ], [ 145.7445, 15.1458 ], [ 145.7444, 15.1465 ], [ 145.7451, 15.1465 ], [ 145.7453, 15.1487 ], [ 145.7466, 15.1498 ], [ 145.7469, 15.1513 ], [ 145.7466, 15.1516 ], [ 145.747, 15.1527 ], [ 145.7477, 15.1528 ], [ 145.7486, 15.1537 ], [ 145.7492, 15.1579 ], [ 145.7497, 15.1588 ], [ 145.7513, 15.1603 ], [ 145.7524, 15.1607 ], [ 145.7579, 15.1619 ], [ 145.7592, 15.1615 ], [ 145.7596, 15.163 ], [ 145.7606, 15.1633 ], [ 145.7652, 15.1627 ], [ 145.7675, 15.1618 ], [ 145.7676, 15.1612 ], [ 145.7705, 15.1575 ], [ 145.7699, 15.1554 ], [ 145.771, 15.1553 ], [ 145.7723, 15.1532 ], [ 145.7732, 15.1529 ], [ 145.7746, 15.1515 ], [ 145.7763, 15.1518 ], [ 145.7766, 15.1517 ], [ 145.776, 15.1512 ], [ 145.7771, 15.1507 ], [ 145.7779, 15.1512 ], [ 145.7794, 15.1513 ], [ 145.7791, 15.1509 ], [ 145.7815, 15.1502 ], [ 145.7821, 15.1517 ], [ 145.7826, 15.1519 ], [ 145.7844, 15.1512 ], [ 145.7859, 15.1514 ], [ 145.7877, 15.1504 ], [ 145.7892, 15.1504 ], [ 145.7883, 15.1544 ], [ 145.7894, 15.1557 ], [ 145.7901, 15.1561 ], [ 145.7911, 15.1559 ], [ 145.7914, 15.1565 ], [ 145.791, 15.1576 ], [ 145.7918, 15.1589 ], [ 145.7915, 15.1617 ], [ 145.7922, 15.1635 ], [ 145.7976, 15.1667 ], [ 145.7953, 15.1675 ], [ 145.7932, 15.1695 ], [ 145.7923, 15.1697 ], [ 145.792, 15.1702 ], [ 145.791, 15.1706 ], [ 145.7908, 15.1714 ], [ 145.7903, 15.1712 ], [ 145.7899, 15.1718 ], [ 145.7892, 15.1717 ], [ 145.787, 15.1732 ], [ 145.7849, 15.1769 ], [ 145.7843, 15.1792 ], [ 145.7847, 15.1809 ], [ 145.7845, 15.1824 ], [ 145.7834, 15.1832 ], [ 145.7818, 15.183 ], [ 145.7797, 15.1866 ], [ 145.7793, 15.1875 ], [ 145.7796, 15.1878 ], [ 145.7781, 15.1893 ], [ 145.7786, 15.1903 ], [ 145.778, 15.191 ], [ 145.7788, 15.1919 ], [ 145.7785, 15.1935 ], [ 145.7775, 15.1945 ], [ 145.778, 15.1956 ], [ 145.7787, 15.196 ], [ 145.7785, 15.1963 ], [ 145.7807, 15.1973 ], [ 145.7814, 15.1983 ], [ 145.7819, 15.2005 ], [ 145.7812, 15.2017 ], [ 145.7822, 15.2029 ], [ 145.782, 15.2041 ], [ 145.7808, 15.2057 ], [ 145.7803, 15.2056 ], [ 145.7793, 15.2073 ], [ 145.7788, 15.209 ], [ 145.7791, 15.2095 ], [ 145.7784, 15.2098 ], [ 145.7795, 15.2101 ], [ 145.78, 15.211 ], [ 145.7811, 15.2114 ], [ 145.7814, 15.213 ], [ 145.7825, 15.2139 ], [ 145.7823, 15.2151 ], [ 145.7811, 15.2156 ], [ 145.7815, 15.2162 ], [ 145.7826, 15.2161 ], [ 145.7835, 15.2156 ], [ 145.7843, 15.2164 ], [ 145.7848, 15.2163 ], [ 145.7849, 15.217 ], [ 145.7841, 15.2183 ], [ 145.7855, 15.2188 ], [ 145.7854, 15.2191 ], [ 145.7859, 15.2193 ], [ 145.7858, 15.22 ], [ 145.7867, 15.2194 ], [ 145.7867, 15.2198 ], [ 145.7878, 15.2204 ], [ 145.7876, 15.2211 ], [ 145.7882, 15.2211 ], [ 145.7892, 15.2219 ], [ 145.7892, 15.2224 ], [ 145.7898, 15.2228 ], [ 145.7897, 15.2234 ], [ 145.7902, 15.2236 ], [ 145.7903, 15.2257 ], [ 145.7918, 15.2262 ], [ 145.7918, 15.2266 ], [ 145.7925, 15.2269 ], [ 145.7929, 15.2283 ], [ 145.7937, 15.2274 ], [ 145.7966, 15.2285 ], [ 145.7985, 15.2286 ], [ 145.8007, 15.2321 ], [ 145.8027, 15.2343 ], [ 145.8025, 15.2358 ], [ 145.8021, 15.2357 ], [ 145.802, 15.2362 ], [ 145.8035, 15.2364 ], [ 145.8035, 15.237 ], [ 145.8049, 15.2366 ], [ 145.8063, 15.2369 ], [ 145.8081, 15.2384 ], [ 145.8085, 15.2395 ], [ 145.8095, 15.2401 ], [ 145.8104, 15.2416 ], [ 145.8095, 15.243 ], [ 145.8079, 15.2432 ], [ 145.8074, 15.2443 ], [ 145.8077, 15.2455 ], [ 145.8085, 15.2455 ], [ 145.8085, 15.2485 ], [ 145.8091, 15.2499 ], [ 145.8113, 15.2513 ], [ 145.8117, 15.2523 ], [ 145.8122, 15.252 ], [ 145.8105, 15.2554 ], [ 145.8106, 15.2565 ], [ 145.8109, 15.2568 ], [ 145.8108, 15.2572 ], [ 145.8105, 15.2572 ], [ 145.8107, 15.2582 ], [ 145.8126, 15.2591 ], [ 145.8138, 15.2604 ], [ 145.8158, 15.2612 ], [ 145.8182, 15.2597 ], [ 145.8201, 15.2598 ], [ 145.8204, 15.2595 ], [ 145.8213, 15.2599 ], [ 145.8214, 15.2594 ], [ 145.8221, 15.2592 ], [ 145.8245, 15.259 ], [ 145.8244, 15.2593 ], [ 145.8267, 15.2594 ], [ 145.8288, 15.2624 ], [ 145.8285, 15.2627 ], [ 145.8294, 15.2642 ], [ 145.8304, 15.2699 ], [ 145.8302, 15.273 ], [ 145.8284, 15.2738 ], [ 145.8279, 15.2736 ], [ 145.8268, 15.2745 ], [ 145.8209, 15.2843 ], [ 145.8188, 15.2866 ], [ 145.8181, 15.2862 ], [ 145.8174, 15.2866 ], [ 145.8165, 15.2863 ], [ 145.8138, 15.2874 ], [ 145.8133, 15.2889 ], [ 145.8116, 15.29 ], [ 145.8103, 15.2901 ], [ 145.8096, 15.2896 ], [ 145.8081, 15.2882 ], [ 145.8056, 15.2846 ], [ 145.8036, 15.2827 ], [ 145.8014, 15.2815 ], [ 145.7989, 15.2779 ], [ 145.7959, 15.2766 ], [ 145.7939, 15.2752 ], [ 145.7939, 15.2736 ], [ 145.7934, 15.2725 ], [ 145.7912, 15.2714 ], [ 145.7864, 15.2671 ], [ 145.7849, 15.2635 ], [ 145.7824, 15.2612 ], [ 145.7823, 15.2591 ], [ 145.7817, 15.2572 ], [ 145.7772, 15.253 ], [ 145.7746, 15.2517 ], [ 145.7694, 15.2502 ], [ 145.7687, 15.2484 ], [ 145.7651, 15.2461 ], [ 145.7627, 15.2451 ], [ 145.7555, 15.2436 ], [ 145.7537, 15.2426 ], [ 145.7534, 15.241 ], [ 145.7527, 15.2402 ], [ 145.7525, 15.2405 ], [ 145.7471, 15.2372 ], [ 145.7468, 15.2358 ], [ 145.7451, 15.2334 ], [ 145.7423, 15.232 ], [ 145.7387, 15.2316 ], [ 145.7387, 15.2312 ], [ 145.7397, 15.2312 ], [ 145.7396, 15.2306 ], [ 145.7399, 15.2305 ], [ 145.7389, 15.2302 ], [ 145.7389, 15.2299 ], [ 145.7404, 15.2299 ], [ 145.74, 15.2297 ], [ 145.7402, 15.2292 ], [ 145.7398, 15.2285 ], [ 145.7392, 15.229 ], [ 145.7387, 15.2287 ], [ 145.7395, 15.2282 ], [ 145.7395, 15.2276 ], [ 145.7377, 15.226 ], [ 145.7381, 15.2255 ], [ 145.7375, 15.2259 ], [ 145.7372, 15.2271 ], [ 145.7372, 15.2263 ], [ 145.7368, 15.2262 ], [ 145.7365, 15.2274 ], [ 145.7351, 15.2272 ], [ 145.7319, 15.2247 ], [ 145.7323, 15.2243 ], [ 145.7302, 15.2221 ], [ 145.7315, 15.2202 ], [ 145.7294, 15.2186 ], [ 145.7249, 15.2175 ], [ 145.7248, 15.2178 ], [ 145.7259, 15.2199 ], [ 145.7246, 15.2182 ], [ 145.7243, 15.22 ], [ 145.7259, 15.2202 ], [ 145.7264, 15.2209 ], [ 145.7265, 15.2204 ], [ 145.7265, 15.2215 ], [ 145.7262, 15.222 ], [ 145.7263, 15.2214 ], [ 145.7242, 15.2203 ], [ 145.7234, 15.2225 ], [ 145.7241, 15.2188 ], [ 145.7237, 15.2169 ], [ 145.7218, 15.217 ], [ 145.7209, 15.2174 ], [ 145.7205, 15.2184 ], [ 145.7213, 15.2181 ], [ 145.7214, 15.2188 ], [ 145.722, 15.2188 ], [ 145.721, 15.2197 ], [ 145.717, 15.2194 ], [ 145.7156, 15.2166 ], [ 145.7153, 15.2141 ], [ 145.7163, 15.2056 ], [ 145.7162, 15.2027 ], [ 145.7149, 15.2024 ], [ 145.7162, 15.2022 ], [ 145.7165, 15.2004 ], [ 145.7157, 15.2001 ], [ 145.7165, 15.2 ], [ 145.7168, 15.1994 ], [ 145.7167, 15.1947 ], [ 145.7156, 15.1913 ], [ 145.713, 15.1785 ], [ 145.708, 15.1647 ], [ 145.7051, 15.1612 ], [ 145.7013, 15.1581 ], [ 145.7001, 15.1567 ], [ 145.6999, 15.1555 ], [ 145.7005, 15.1525 ], [ 145.7001, 15.1516 ], [ 145.6992, 15.1514 ], [ 145.6996, 15.1513 ], [ 145.7002, 15.1498 ], [ 145.7002, 15.1474 ], [ 145.6979, 15.1419 ], [ 145.6969, 15.1382 ], [ 145.6933, 15.1328 ], [ 145.6923, 15.1304 ], [ 145.6925, 15.1287 ], [ 145.6937, 15.1252 ], [ 145.6937, 15.1234 ], [ 145.6924, 15.1218 ], [ 145.6896, 15.1201 ], [ 145.6916, 15.1192 ] ], [ [ 145.7114, 15.2407 ], [ 145.7131, 15.2398 ], [ 145.7137, 15.2415 ], [ 145.7123, 15.2429 ], [ 145.7111, 15.2431 ], [ 145.7109, 15.2426 ], [ 145.7115, 15.2408 ], [ 145.7106, 15.2406 ], [ 145.7114, 15.2407 ] ], [ [ 145.7234, 15.2174 ], [ 145.7236, 15.2186 ], [ 145.7231, 15.2177 ], [ 145.7213, 15.2177 ], [ 145.7234, 15.2174 ] ], [ [ 145.7904, 15.1499 ], [ 145.7928, 15.1495 ], [ 145.7911, 15.151 ], [ 145.7896, 15.1507 ], [ 145.7904, 15.1499 ] ], [ [ 145.8135, 15.2575 ], [ 145.8133, 15.2569 ], [ 145.814, 15.2568 ], [ 145.8142, 15.258 ], [ 145.8131, 15.258 ], [ 145.8135, 15.2575 ] ] ] } },
{ "type": "Feature", "properties": { "GEOIDFQ": "1400000US69120950102", "NAME": "9501.02", "NAMELSAD": "Census Tract 9501.02" }, "geometry": { "type": "MultiPolygon", "coordinates": [ [ [ [ 145.5388, 14.8501 ], [ 145.5404, 14.8527 ], [ 145.5434, 14.854 ], [ 145.5451, 14.8552 ], [ 145.5503, 14.8563 ], [ 145.5527, 14.8577 ], [ 145.5554, 14.8586 ], [ 145.5578, 14.8602 ], [ 145.5643, 14.8617 ], [ 145.5653, 14.8623 ], [ 145.5667, 14.8643 ], [ 145.5695, 14.8643 ], [ 145.5704, 14.8649 ], [ 145.5714, 14.865 ], [ 145.572, 14.8658 ], [ 145.5731, 14.8658 ], [ 145.573, 14.8665 ], [ 145.5772, 14.8649 ], [ 145.5781, 14.8637 ], [ 145.579, 14.8602 ], [ 145.5785, 14.8601 ], [ 145.5777, 14.8587 ], [ 145.5781, 14.8587 ], [ 145.5782, 14.8573 ], [ 145.5775, 14.8549 ], [ 145.5763, 14.8535 ], [ 145.5756, 14.8535 ], [ 145.5753, 14.8542 ], [ 145.5749, 14.8526 ], [ 145.5735, 14.851 ], [ 145.5687, 14.8479 ], [ 145.5647, 14.8447 ], [ 145.5627, 14.8439 ], [ 145.5592, 14.8445 ], [ 145.5583, 14.8444 ], [ 145.5582, 14.8439 ], [ 145.5568, 14.8441 ], [ 145.5559, 14.8436 ], [ 145.5555, 14.844 ], [ 145.5541, 14.8427 ], [ 145.5535, 14.8431 ], [ 145.5531, 14.8426 ], [ 145.5531, 14.8429 ], [ 145.5515, 14.8422 ], [ 145.5507, 14.8424 ], [ 145.5479, 14.8409 ], [ 145.5455, 14.8404 ], [ 145.5424, 14.8407 ], [ 145.5421, 14.8414 ], [ 145.5409, 14.8411 ], [ 145.5404, 14.8414 ], [ 145.5405, 14.8416 ], [ 145.5394, 14.8418 ], [ 145.5382, 14.8437 ], [ 145.5377, 14.8438 ], [ 145.5378, 14.8442 ], [ 145.5375, 14.8442 ], [ 145.5373, 14.8457 ], [ 145.5388, 14.8501 ] ] ], [ [ [ 145.5334, 14.8353 ], [ 145.5337, 14.835 ], [ 145.5327, 14.8338 ], [ 145.5326, 14.8346 ], [ 145.5329, 14.8348 ], [ 145.5325, 14.835 ], [ 145.5334, 14.8353 ] ] ] ] } },
{ "type": "Feature", "properties": { "GEOIDFQ": "1400000US69120950201", "NAME": "9502.01", "NAMELSAD": "Census Tract 9502.01" }, "geometry": { "type": "Polygon", "coordinates": [ [ [ 145.6287, 14.9441 ], [ 145.6304, 14.9475 ], [ 145.6317, 14.9517 ], [ 145.6316, 14.9532 ], [ 145.6303, 14.9549 ], [ 145.6321, 14.9548 ], [ 145.6325, 14.9571 ], [ 145.6365, 14.9568 ], [ 145.6376, 14.9681 ], [ 145.6385, 14.9681 ], [ 145.6388, 14.9687 ], [ 145.6414, 14.97 ], [ 145.6314, 14.9708 ], [ 145.6374, 15.0349 ], [ 145.6456, 15.0341 ], [ 145.646, 15.032 ], [ 145.6504, 15.0316 ], [ 145.651, 15.0294 ], [ 145.6521, 15.028 ], [ 145.652, 15.0274 ], [ 145.6533, 15.0267 ], [ 145.653, 15.026 ], [ 145.6536, 15.0254 ], [ 145.6537, 15.0235 ], [ 145.6554, 15.0215 ], [ 145.6558, 15.0204 ], [ 145.6573, 15.0189 ], [ 145.6595, 15.0184 ], [ 145.6594, 15.018 ], [ 145.6645, 15.0187 ], [ 145.6659, 15.0181 ], [ 145.6683, 15.0162 ], [ 145.6711, 15.0115 ], [ 145.6711, 15.0093 ], [ 145.6725, 15.0085 ], [ 145.6738, 15.0065 ], [ 145.6735, 15.0055 ], [ 145.6737, 15.0047 ], [ 145.6718, 14.9996 ], [ 145.6716, 14.9978 ], [ 145.6709, 14.9971 ], [ 145.6712, 14.9958 ], [ 145.6705, 14.995 ], [ 145.6696, 14.9898 ], [ 145.6698, 14.9891 ], [ 145.6691, 14.9877 ], [ 145.6691, 14.986 ], [ 145.6683, 14.9846 ], [ 145.6681, 14.9827 ], [ 145.6667, 14.9808 ], [ 145.6663, 14.9793 ], [ 145.6646, 14.978 ], [ 145.6642, 14.9772 ], [ 145.6635, 14.9771 ], [ 145.6643, 14.9764 ], [ 145.6639, 14.9758 ], [ 145.6656, 14.9728 ], [ 145.6654, 14.9701 ], [ 145.6637, 14.9687 ], [ 145.6629, 14.9666 ], [ 145.6616, 14.9652 ], [ 145.6621, 14.9647 ], [ 145.6617, 14.9635 ], [ 145.6623, 14.9629 ], [ 145.6621, 14.961 ], [ 145.6614, 14.9593 ], [ 145.6616, 14.9575 ], [ 145.6628, 14.9559 ], [ 145.663, 14.9548 ], [ 145.6634, 14.9546 ], [ 145.6635, 14.9534 ], [ 145.6644, 14.9527 ], [ 145.6642, 14.9511 ], [ 145.6648, 14.9506 ], [ 145.666, 14.9504 ], [ 145.6659, 14.9496 ], [ 145.6651, 14.9487 ], [ 145.6655, 14.9482 ], [ 145.6647, 14.9479 ], [ 145.663, 14.9487 ], [ 145.662, 14.948 ], [ 145.6599, 14.9488 ], [ 145.6593, 14.9483 ], [ 145.6588, 14.9484 ], [ 145.6563, 14.946 ], [ 145.6554, 14.9462 ], [ 145.6546, 14.9459 ], [ 145.6538, 14.9441 ], [ 145.6531, 14.9437 ], [ 145.6515, 14.9413 ], [ 145.6515, 14.9398 ], [ 145.6521, 14.9396 ], [ 145.6525, 14.9385 ], [ 145.6523, 14.9372 ], [ 145.6502, 14.9353 ], [ 145.6499, 14.9342 ], [ 145.649, 14.9336 ], [ 145.6468, 14.929 ], [ 145.6453, 14.9272 ], [ 145.6453, 14.9264 ], [ 145.6445, 14.9263 ], [ 145.6433, 14.9248 ], [ 145.6413, 14.9235 ], [ 145.6391, 14.9227 ], [ 145.6353, 14.9228 ], [ 145.6321, 14.925 ], [ 145.6324, 14.9256 ], [ 145.6316, 14.9263 ], [ 145.6316, 14.927 ], [ 145.6306, 14.9279 ], [ 145.6305, 14.9293 ], [ 145.631, 14.9306 ], [ 145.6299, 14.9321 ], [ 145.6293, 14.934 ], [ 145.6293, 14.9359 ], [ 145.63, 14.9372 ], [ 145.6293, 14.9383 ], [ 145.6298, 14.939 ], [ 145.6293, 14.9403 ], [ 145.6284, 14.9406 ], [ 145.6287, 14.9441 ] ] ] } },
{ "type": "Feature", "properties": { "GEOIDFQ": "1400000US69120950101", "NAME": "9501.01", "NAMELSAD": "Census Tract 9501.01" }, "geometry": { "type": "Polygon", "coordinates": [ [ [ 145.6118, 14.9744 ], [ 145.6126, 14.9744 ], [ 145.612, 14.9766 ], [ 145.6126, 14.9791 ], [ 145.6124, 14.9797 ], [ 145.613, 14.9807 ], [ 145.6129, 14.9817 ], [ 145.6165, 14.9817 ], [ 145.6171, 14.983 ], [ 145.6178, 14.9822 ], [ 145.6324, 14.9809 ], [ 145.6314, 14.9708 ], [ 145.6414, 14.97 ], [ 145.6388, 14.9687 ], [ 145.6385, 14.9681 ], [ 145.6376, 14.9681 ], [ 145.6365, 14.9568 ], [ 145.6325, 14.9571 ], [ 145.6321, 14.9548 ], [ 145.6303, 14.9549 ], [ 145.6295, 14.9544 ], [ 145.6212, 14.9588 ], [ 145.6161, 14.963 ], [ 145.6135, 14.9667 ], [ 145.6123, 14.9694 ], [ 145.6114, 14.9735 ], [ 145.6118, 14.9744 ] ] ] } },
{ "type": "Feature", "properties": { "GEOIDFQ": "1400000US69110001400", "NAME": "14", "NAMELSAD": "Census Tract 14" }, "geometry": { "type": "Polygon", "coordinates": [ [ [ 145.7201, 15.1363 ], [ 145.722, 15.142 ], [ 145.7298, 15.1515 ], [ 145.7313, 15.1507 ], [ 145.7314, 15.1489 ], [ 145.7319, 15.1488 ], [ 145.7321, 15.148 ], [ 145.7327, 15.1479 ], [ 145.7355, 15.1453 ], [ 145.7359, 15.1456 ], [ 145.7369, 15.1451 ], [ 145.7374, 15.1459 ], [ 145.7401, 15.1451 ], [ 145.7409, 15.1443 ], [ 145.7434, 15.1437 ], [ 145.7423, 15.1427 ], [ 145.7427, 15.1424 ], [ 145.7425, 15.1417 ], [ 145.7414, 15.1408 ], [ 145.7411, 15.1377 ], [ 145.7426, 15.1333 ], [ 145.7448, 15.1304 ], [ 145.7454, 15.1284 ], [ 145.7463, 15.1276 ], [ 145.7472, 15.1274 ], [ 145.7481, 15.1257 ], [ 145.7437, 15.1241 ], [ 145.7393, 15.1303 ], [ 145.7382, 15.1302 ], [ 145.7347, 15.128 ], [ 145.7326, 15.1299 ], [ 145.7319, 15.1315 ], [ 145.7294, 15.1322 ], [ 145.7286, 15.1317 ], [ 145.7283, 15.1299 ], [ 145.7261, 15.1289 ], [ 145.7239, 15.1262 ], [ 145.7214, 15.121 ], [ 145.7195, 15.1208 ], [ 145.7186, 15.122 ], [ 145.7196, 15.1239 ], [ 145.7176, 15.1285 ], [ 145.7149, 15.129 ], [ 145.7124, 15.1302 ], [ 145.7201, 15.1363 ] ] ] } },
{ "type": "Feature", "properties": { "GEOIDFQ": "1400000US69120950202", "NAME": "9502.02", "NAMELSAD": "Census Tract 9502.02" }, "geometry": { "type": "Polygon", "coordinates": [ [ [ 145.5831, 15.0208 ], [ 145.5848, 15.0221 ], [ 145.5847, 15.023 ], [ 145.5841, 15.0234 ], [ 145.5857, 15.0269 ], [ 145.5864, 15.0274 ], [ 145.5872, 15.0297 ], [ 145.5869, 15.0303 ], [ 145.5878, 15.0318 ], [ 145.5877, 15.0337 ], [ 145.5885, 15.036 ], [ 145.5883, 15.0363 ], [ 145.5887, 15.0381 ], [ 145.5918, 15.0368 ], [ 145.5932, 15.0378 ], [ 145.5949, 15.0384 ], [ 145.5968, 15.0408 ], [ 145.5976, 15.0473 ], [ 145.5987, 15.0492 ], [ 145.5988, 15.0504 ], [ 145.5983, 15.0517 ], [ 145.5967, 15.0522 ], [ 145.5964, 15.0533 ], [ 145.6027, 15.0577 ], [ 145.6067, 15.0628 ], [ 145.6117, 15.0678 ], [ 145.6117, 15.0683 ], [ 145.6129, 15.0697 ], [ 145.6158, 15.0721 ], [ 145.6164, 15.0743 ], [ 145.618, 15.0764 ], [ 145.6202, 15.0772 ], [ 145.6227, 15.0791 ], [ 145.6273, 15.0846 ], [ 145.63, 15.0858 ], [ 145.6323, 15.0875 ], [ 145.6328, 15.0874 ], [ 145.6325, 15.0882 ], [ 145.6332, 15.0897 ], [ 145.6375, 15.0948 ], [ 145.6432, 15.1004 ], [ 145.6453, 15.1011 ], [ 145.6487, 15.0976 ], [ 145.6493, 15.0959 ], [ 145.6503, 15.0953 ], [ 145.6538, 15.0909 ], [ 145.6563, 15.0865 ], [ 145.6573, 15.0819 ], [ 145.6569, 15.0783 ], [ 145.6551, 15.0704 ], [ 145.6551, 15.0669 ], [ 145.6565, 15.0617 ], [ 145.6583, 15.0608 ], [ 145.6589, 15.0581 ], [ 145.6582, 15.0565 ], [ 145.6553, 15.0527 ], [ 145.6528, 15.0511 ], [ 145.6526, 15.0504 ], [ 145.6515, 15.0498 ], [ 145.6502, 15.048 ], [ 145.649, 15.0476 ], [ 145.6492, 15.047 ], [ 145.6477, 15.0466 ], [ 145.648, 15.0457 ], [ 145.6474, 15.0451 ], [ 145.6474, 15.0445 ], [ 145.6469, 15.0444 ], [ 145.6474, 15.043 ], [ 145.6471, 15.0417 ], [ 145.6478, 15.0411 ], [ 145.6476, 15.0397 ], [ 145.6479, 15.0394 ], [ 145.6474, 15.039 ], [ 145.6479, 15.0383 ], [ 145.6486, 15.0339 ], [ 145.6501, 15.0327 ], [ 145.6504, 15.0316 ], [ 145.646, 15.032 ], [ 145.6456, 15.0341 ], [ 145.6374, 15.0349 ], [ 145.6324, 14.9809 ], [ 145.6178, 14.9822 ], [ 145.6171, 14.983 ], [ 145.6165, 14.9817 ], [ 145.6128, 14.9817 ], [ 145.6114, 14.9834 ], [ 145.6101, 14.9838 ], [ 145.6103, 14.9845 ], [ 145.6097, 14.9853 ], [ 145.6083, 14.9856 ], [ 145.6079, 14.9862 ], [ 145.6091, 14.9872 ], [ 145.6086, 14.9904 ], [ 145.6047, 14.9924 ], [ 145.6038, 14.992 ], [ 145.6029, 14.9923 ], [ 145.6016, 14.9916 ], [ 145.6006, 14.992 ], [ 145.5996, 14.9918 ], [ 145.5984, 14.9911 ], [ 145.5979, 14.9902 ], [ 145.5974, 14.9903 ], [ 145.5967, 14.9897 ], [ 145.5946, 14.9898 ], [ 145.5937, 14.9905 ], [ 145.5927, 14.9898 ], [ 145.5903, 14.9907 ], [ 145.59, 14.9913 ], [ 145.5904, 14.9916 ], [ 145.5895, 14.9922 ], [ 145.5898, 14.9927 ], [ 145.5894, 14.9926 ], [ 145.5888, 14.9933 ], [ 145.5882, 14.9932 ], [ 145.5885, 14.9937 ], [ 145.5879, 14.9934 ], [ 145.5876, 14.994 ], [ 145.5856, 14.9943 ], [ 145.5846, 14.9957 ], [ 145.585, 14.9968 ], [ 145.5847, 14.9968 ], [ 145.5847, 14.9975 ], [ 145.5858, 15.0003 ], [ 145.5865, 15.001 ], [ 145.5866, 15.0034 ], [ 145.5872, 15.0044 ], [ 145.5868, 15.0049 ], [ 145.587, 15.006 ], [ 145.5866, 15.0066 ], [ 145.5878, 15.0077 ], [ 145.5876, 15.008 ], [ 145.5883, 15.0081 ], [ 145.5886, 15.0094 ], [ 145.5881, 15.0105 ], [ 145.5875, 15.0108 ], [ 145.5875, 15.0119 ], [ 145.5865, 15.0129 ], [ 145.5845, 15.0132 ], [ 145.5838, 15.0137 ], [ 145.5824, 15.0163 ], [ 145.5822, 15.0176 ], [ 145.5831, 15.0208 ] ] ] } }
]
}
