{
"type": "FeatureCollection",
"name": "state_78_tracts_simplified",
"crs": { "type": "name", "properties": { "name": "urn:ogc:def:crs:OGC:1.3:CRS84" } },
"features": [
{ "type": "Feature", "properties": { "GEOIDFQ": "1400000US78020990000", "NAME": "9900", "NAMELSAD": "Census Tract 9900" }, "geometry": { "type": "Polygon", "coordinates": [ [ [ -64.8414, 18.3937 ], [ -64.8306, 18.3952 ], [ -64.8167, 18.4029 ], [ -64.8003, 18.4076 ], [ -64.785, 18.4038 ], [ -64.778, 18.3862 ], [ -64.7569, 18.3767 ], [ -64.752, 18.3774 ], [ -64.7491, 18.3771 ], [ -64.7438, 18.3781 ], [ -64.741, 18.3774 ], [ -64.7388, 18.3763 ], [ -64.7376, 18.3762 ], [ -64.7298, 18.3779 ], [ -64.727, 18.3747 ], [ -64.72, 18.3744 ], [ -64.7188, 18.3739 ], [ -64.7082, 18.3737 ], [ -64.7019, 18.3711 ], [ -64.7016, 18.3706 ], [ -64.6911, 18.3719 ], [ -64.6875, 18.3728 ], [ -64.6833, 18.3726 ], [ -64.6812, 18.372 ], [ -64.6752, 18.3675 ], [ -64.6685, 18.3656 ], [ -64.6644, 18.3657 ], [ -64.6587, 18.3647 ], [ -64.6452, 18.3645 ], [ -64.6404, 18.364 ], [ -64.6391, 18.3552 ], [ -64.6437, 18.3441 ], [ -64.639, 18.3216 ], [ -64.6377, 18.3198 ], [ -64.6512, 18.3009 ], [ -64.6639, 18.2854 ], [ -64.6613, 18.2674 ], [ -64.6643, 18.2613 ], [ -64.6712, 18.2562 ], [ -64.6782, 18.2523 ], [ -64.688, 18.2499 ], [ -64.6945, 18.2488 ], [ -64.7079, 18.2487 ], [ -64.7148, 18.2496 ], [ -64.7202, 18.2507 ], [ -64.7295, 18.2541 ], [ -64.7365, 18.2586 ], [ -64.7407, 18.2595 ], [ -64.7487, 18.2631 ], [ -64.7578, 18.2609 ], [ -64.7683, 18.2603 ], [ -64.7999, 18.3168 ], [ -64.8437, 18.3495 ], [ -64.8437, 18.3937 ], [ -64.8414, 18.3937 ] ], [ [ -64.8385, 18.3566 ], [ -64.8358, 18.3577 ], [ -64.8345, 18.3575 ], [ -64.8344, 18.357 ], [ -64.8338, 18.3571 ], [ -64.8332, 18.3579 ], [ -64.832, 18.3585 ], [ -64.8288, 18.3589 ], [ -64.8265, 18.3597 ], [ -64.8262, 18.3603 ], [ -64.8279, 18.3606 ], [ -64.832, 18.3596 ], [ -64.8327, 18.36 ], [ -64.8342, 18.3598 ], [ -64.8347, 18.3592 ], [ -64.8359, 18.3593 ], [ -64.837, 18.3578 ], [ -64.8393, 18.3577 ], [ -64.8399, 18.3569 ], [ -64.8385, 18.3566 ] ], [ [ -64.825, 18.3597 ], [ -64.8228, 18.3589 ], [ -64.8206, 18.3591 ], [ -64.8166, 18.3581 ], [ -64.8157, 18.3584 ], [ -64.815, 18.3593 ], [ -64.8155, 18.3605 ], [ -64.8207, 18.3604 ], [ -64.8232, 18.3611 ], [ -64.8254, 18.3602 ], [ -64.825, 18.3597 ] ], [ [ -64.8171, 18.3427 ], [ -64.8172, 18.343 ], [ -64.8176, 18.3426 ], [ -64.8171, 18.3427 ] ], [ [ -64.817, 18.3433 ], [ -64.8167, 18.3435 ], [ -64.817, 18.3437 ], [ -64.817, 18.3433 ] ], [ [ -64.8106, 18.3597 ], [ -64.8098, 18.3585 ], [ -64.8095, 18.3585 ], [ -64.8068, 18.3609 ], [ -64.8036, 18.361 ], [ -64.8016, 18.3603 ], [ -64.8008, 18.3614 ], [ -64.7978, 18.3636 ], [ -64.7992, 18.365 ], [ -64.8017, 18.3655 ], [ -64.8035, 18.3636 ], [ -64.8053, 18.3637 ], [ -64.8079, 18.3624 ], [ -64.8123, 18.3625 ], [ -64.8134, 18.3616 ], [ -64.8106, 18.3597 ] ], [ [ -64.8041, 18.3668 ], [ -64.7976, 18.3691 ], [ -64.8034, 18.3685 ], [ -64.8082, 18.367 ], [ -64.8041, 18.3668 ] ], [ [ -64.8075, 18.3294 ], [ -64.8068, 18.3286 ], [ -64.8072, 18.3311 ], [ -64.808, 18.3311 ], [ -64.8075, 18.3294 ] ], [ [ -64.805, 18.3284 ], [ -64.8049, 18.3285 ], [ -64.805, 18.3285 ], [ -64.805, 18.3284 ] ], [ [ -64.8025, 18.3596 ], [ -64.8025, 18.3597 ], [ -64.8027, 18.3597 ], [ -64.8025, 18.3596 ] ], [ [ -64.7959, 18.3246 ], [ -64.7955, 18.3225 ], [ -64.7944, 18.3212 ], [ -64.7947, 18.3202 ], [ -64.7919, 18.3166 ], [ -64.7912, 18.3144 ], [ -64.7891, 18.3146 ], [ -64.7847, 18.3134 ], [ -64.783, 18.3112 ], [ -64.7825, 18.3113 ], [ -64.7815, 18.3105 ], [ -64.78, 18.3109 ], [ -64.766, 18.3105 ], [ -64.7655, 18.3114 ], [ -64.7563, 18.3166 ], [ -64.7376, 18.3164 ], [ -64.7372, 18.3168 ], [ -64.7351, 18.3162 ], [ -64.7337, 18.3149 ], [ -64.7325, 18.3151 ], [ -64.7322, 18.314 ], [ -64.7217, 18.3079 ], [ -64.7213, 18.3072 ], [ -64.7202, 18.3075 ], [ -64.7118, 18.3063 ], [ -64.7054, 18.304 ], [ -64.7046, 18.3044 ], [ -64.7039, 18.3042 ], [ -64.7031, 18.3031 ], [ -64.7036, 18.2992 ], [ -64.7033, 18.2989 ], [ -64.7036, 18.2986 ], [ -64.7028, 18.2982 ], [ -64.7026, 18.2987 ], [ -64.7016, 18.2988 ], [ -64.6621, 18.3336 ], [ -64.6605, 18.3398 ], [ -64.6614, 18.3417 ], [ -64.6606, 18.3434 ], [ -64.6618, 18.3439 ], [ -64.6624, 18.345 ], [ -64.6652, 18.3456 ], [ -64.6691, 18.3487 ], [ -64.6713, 18.3486 ], [ -64.6719, 18.3498 ], [ -64.673, 18.3498 ], [ -64.6741, 18.3503 ], [ -64.6904, 18.3605 ], [ -64.691, 18.3612 ], [ -64.6943, 18.3621 ], [ -64.6991, 18.3619 ], [ -64.7011, 18.3611 ], [ -64.7079, 18.3652 ], [ -64.7101, 18.3658 ], [ -64.7116, 18.3671 ], [ -64.7204, 18.3678 ], [ -64.7358, 18.3711 ], [ -64.7367, 18.371 ], [ -64.7387, 18.3719 ], [ -64.7441, 18.3729 ], [ -64.7497, 18.3729 ], [ -64.7515, 18.3723 ], [ -64.7526, 18.3706 ], [ -64.7681, 18.3544 ], [ -64.7687, 18.3558 ], [ -64.7691, 18.3551 ], [ -64.7684, 18.3541 ], [ -64.7705, 18.3516 ], [ -64.7736, 18.3534 ], [ -64.7852, 18.354 ], [ -64.785, 18.3537 ], [ -64.7854, 18.353 ], [ -64.7869, 18.3529 ], [ -64.7885, 18.3507 ], [ -64.7882, 18.3496 ], [ -64.7877, 18.3497 ], [ -64.7871, 18.3491 ], [ -64.787, 18.3476 ], [ -64.788, 18.3463 ], [ -64.789, 18.3459 ], [ -64.7902, 18.3416 ], [ -64.7942, 18.3386 ], [ -64.7956, 18.3386 ], [ -64.7971, 18.3374 ], [ -64.799, 18.3369 ], [ -64.7982, 18.3356 ], [ -64.7986, 18.335 ], [ -64.7988, 18.3302 ], [ -64.7998, 18.3265 ], [ -64.7959, 18.3246 ] ], [ [ -64.7968, 18.3555 ], [ -64.7964, 18.3564 ], [ -64.7971, 18.356 ], [ -64.7968, 18.3555 ] ], [ [ -64.7954, 18.3642 ], [ -64.7953, 18.3643 ], [ -64.7955, 18.3643 ], [ -64.7954, 18.3642 ] ], [ [ -64.7944, 18.3695 ], [ -64.7938, 18.3698 ], [ -64.7941, 18.3699 ], [ -64.7947, 18.3695 ], [ -64.7944, 18.3695 ] ], [ [ -64.7923, 18.3519 ], [ -64.7916, 18.3521 ], [ -64.7922, 18.3539 ], [ -64.793, 18.3545 ], [ -64.7945, 18.353 ], [ -64.7923, 18.3519 ] ], [ [ -64.7893, 18.3544 ], [ -64.7887, 18.3546 ], [ -64.7892, 18.3558 ], [ -64.7902, 18.3554 ], [ -64.7893, 18.3544 ] ], [ [ -64.777, 18.3537 ], [ -64.7767, 18.354 ], [ -64.7768, 18.3544 ], [ -64.7774, 18.354 ], [ -64.777, 18.3537 ] ], [ [ -64.7556, 18.3693 ], [ -64.755, 18.3707 ], [ -64.7574, 18.3712 ], [ -64.7583, 18.3703 ], [ -64.7593, 18.3698 ], [ -64.7599, 18.3701 ], [ -64.7604, 18.3695 ], [ -64.7556, 18.3693 ] ], [ [ -64.7099, 18.3019 ], [ -64.7098, 18.3019 ], [ -64.7096, 18.3024 ], [ -64.7101, 18.3023 ], [ -64.7099, 18.3019 ] ], [ [ -64.6502, 18.324 ], [ -64.6494, 18.3271 ], [ -64.6491, 18.3269 ], [ -64.6488, 18.3272 ], [ -64.6487, 18.3282 ], [ -64.6495, 18.3286 ], [ -64.6512, 18.328 ], [ -64.6518, 18.3261 ], [ -64.6502, 18.324 ] ] ] } },
{ "type": "Feature", "properties": { "GEOIDFQ": "1400000US78030960700", "NAME": "9607", "NAMELSAD": "Census Tract 9607" }, "geometry": { "type": "MultiPolygon", "coordinates": [ [ [ [ -64.8802, 18.319 ], [ -64.8805, 18.3206 ], [ -64.88, 18.3211 ], [ -64.8802, 18.3219 ], [ -64.8786, 18.3237 ], [ -64.8765, 18.3234 ], [ -64.8736, 18.3244 ], [ -64.8668, 18.3255 ], [ -64.8669, 18.3339 ], [ -64.8613, 18.3346 ], [ -64.8616, 18.3296 ], [ -64.8527, 18.3288 ], [ -64.8529, 18.3246 ], [ -64.8507, 18.326 ], [ -64.85, 18.3262 ], [ -64.8499, 18.3259 ], [ -64.8492, 18.3266 ], [ -64.8487, 18.3265 ], [ -64.8489, 18.3268 ], [ -64.8481, 18.3279 ], [ -64.846, 18.3284 ], [ -64.8449, 18.3295 ], [ -64.8449, 18.3305 ], [ -64.8332, 18.3265 ], [ -64.8333, 18.326 ], [ -64.8318, 18.3248 ], [ -64.8261, 18.3168 ], [ -64.8229, 18.3134 ], [ -64.821, 18.3063 ], [ -64.8144, 18.296 ], [ -64.812, 18.2946 ], [ -64.8163, 18.2936 ], [ -64.8177, 18.2951 ], [ -64.8221, 18.297 ], [ -64.8292, 18.2978 ], [ -64.8364, 18.3026 ], [ -64.8459, 18.3116 ], [ -64.8623, 18.307 ], [ -64.8624, 18.3175 ], [ -64.864, 18.3175 ], [ -64.8648, 18.3167 ], [ -64.8652, 18.3156 ], [ -64.8694, 18.3188 ], [ -64.8721, 18.3189 ], [ -64.8724, 18.318 ], [ -64.8738, 18.317 ], [ -64.8748, 18.3169 ], [ -64.8754, 18.3161 ], [ -64.8763, 18.3167 ], [ -64.8786, 18.3165 ], [ -64.8805, 18.3172 ], [ -64.8815, 18.3171 ], [ -64.8802, 18.319 ] ] ] ] } },
{ "type": "Feature", "properties": { "GEOIDFQ": "1400000US78030961100", "NAME": "9611", "NAMELSAD": "Census Tract 9611" }, "geometry": { "type": "Polygon", "coordinates": [ [ [ -64.9194, 18.3346 ], [ -64.9212, 18.3367 ], [ -64.9227, 18.3374 ], [ -64.9213, 18.3399 ], [ -64.9213, 18.3415 ], [ -64.9236, 18.3423 ], [ -64.9235, 18.3433 ], [ -64.923, 18.343 ], [ -64.9214, 18.3504 ], [ -64.9182, 18.3493 ], [ -64.915, 18.3471 ], [ -64.91, 18.3465 ], [ -64.9097, 18.3446 ], [ -64.9082, 18.3442 ], [ -64.9048, 18.344 ], [ -64.9053, 18.3418 ], [ -64.9052, 18.3366 ], [ -64.9064, 18.3311 ], [ -64.9062, 18.3275 ], [ -64.9091, 18.3276 ], [ -64.9118, 18.3288 ], [ -64.9131, 18.3301 ], [ -64.9185, 18.329 ], [ -64.9215, 18.3314 ], [ -64.923, 18.33 ], [ -64.9248, 18.3312 ], [ -64.9265, 18.3303 ], [ -64.9194, 18.3346 ] ] ] } },
{ "type": "Feature", "properties": { "GEOIDFQ": "1400000US78030960200", "NAME": "9602", "NAMELSAD": "Census Tract 9602" }, "geometry": { "type": "Polygon", "coordinates": [ [ [ -64.9052, 18.3366 ], [ -64.9053, 18.3418 ], [ -64.9048, 18.344 ], [ -64.9009, 18.3435 ], [ -64.9002, 18.3448 ], [ -64.8948, 18.342 ], [ -64.8882, 18.3414 ], [ -64.8875, 18.34 ], [ -64.8867, 18.3401 ], [ -64.881, 18.343 ], [ -64.8806, 18.344 ], [ -64.8791, 18.3434 ], [ -64.8785, 18.3442 ], [ -64.8775, 18.3398 ], [ -64.8745, 18.339 ], [ -64.8718, 18.3374 ], [ -64.8715, 18.3351 ], [ -64.8693, 18.3339 ], [ -64.8669, 18.3339 ], [ -64.8668, 18.3255 ], [ -64.8736, 18.3244 ], [ -64.8765, 18.3234 ], [ -64.8786, 18.3237 ], [ -64.8814, 18.3257 ], [ -64.8831, 18.329 ], [ -64.8838, 18.328 ], [ -64.8865, 18.3263 ], [ -64.889, 18.3253 ], [ -64.8897, 18.3252 ], [ -64.8913, 18.3259 ], [ -64.8949, 18.3256 ], [ -64.8953, 18.3227 ], [ -64.9002, 18.3239 ], [ -64.8995, 18.3255 ], [ -64.9019, 18.3272 ], [ -64.9062, 18.3275 ], [ -64.9064, 18.3305 ], [ -64.9052, 18.3366 ] ] ] } },
{ "type": "Feature", "properties": { "GEOIDFQ": "1400000US78030960900", "NAME": "9609", "NAMELSAD": "Census Tract 9609" }, "geometry": { "type": "MultiPolygon", "coordinates": [ [ [ [ -64.8519, 18.2325 ], [ -64.851, 18.2314 ], [ -64.8508, 18.2305 ], [ -64.8528, 18.2308 ], [ -64.8537, 18.2323 ], [ -64.8519, 18.2325 ] ] ], [ [ [ -64.8972, 18.2777 ], [ -64.8968, 18.2783 ], [ -64.8937, 18.2798 ], [ -64.8856, 18.2763 ], [ -64.8867, 18.274 ], [ -64.8964, 18.2742 ], [ -64.8989, 18.2772 ], [ -64.8972, 18.2777 ] ] ], [ [ [ -64.908, 18.3094 ], [ -64.9078, 18.3094 ], [ -64.9081, 18.3092 ], [ -64.908, 18.3094 ] ] ], [ [ [ -64.9083, 18.3101 ], [ -64.9079, 18.3102 ], [ -64.9081, 18.3096 ], [ -64.9083, 18.3101 ] ] ], [ [ [ -64.9181, 18.3132 ], [ -64.9181, 18.3131 ], [ -64.9182, 18.3131 ], [ -64.9181, 18.3132 ] ] ], [ [ [ -64.9248, 18.3312 ], [ -64.923, 18.33 ], [ -64.9218, 18.3313 ], [ -64.9213, 18.3313 ], [ -64.9185, 18.329 ], [ -64.9131, 18.3301 ], [ -64.9118, 18.3288 ], [ -64.9085, 18.3274 ], [ -64.9019, 18.3272 ], [ -64.8995, 18.3255 ], [ -64.9002, 18.3239 ], [ -64.8953, 18.3227 ], [ -64.8949, 18.3256 ], [ -64.8913, 18.3259 ], [ -64.8897, 18.3252 ], [ -64.889, 18.3253 ], [ -64.8865, 18.3263 ], [ -64.8838, 18.328 ], [ -64.8831, 18.329 ], [ -64.8814, 18.3257 ], [ -64.8786, 18.3237 ], [ -64.8802, 18.3219 ], [ -64.88, 18.3211 ], [ -64.8805, 18.3206 ], [ -64.8802, 18.319 ], [ -64.8815, 18.3171 ], [ -64.8805, 18.3172 ], [ -64.8786, 18.3165 ], [ -64.8763, 18.3167 ], [ -64.8754, 18.3161 ], [ -64.8748, 18.3169 ], [ -64.8738, 18.317 ], [ -64.8724, 18.318 ], [ -64.8721, 18.3189 ], [ -64.8694, 18.3188 ], [ -64.8652, 18.3156 ], [ -64.8648, 18.3167 ], [ -64.864, 18.3175 ], [ -64.8624, 18.3174 ], [ -64.8622, 18.307 ], [ -64.8639, 18.3065 ], [ -64.8645, 18.3068 ], [ -64.8699, 18.3043 ], [ -64.8749, 18.3038 ], [ -64.8757, 18.3042 ], [ -64.8763, 18.3035 ], [ -64.8785, 18.3027 ], [ -64.8789, 18.3029 ], [ -64.8786, 18.305 ], [ -64.8794, 18.306 ], [ -64.8837, 18.308 ], [ -64.8843, 18.3087 ], [ -64.8852, 18.3083 ], [ -64.8857, 18.3091 ], [ -64.8865, 18.3091 ], [ -64.887, 18.3103 ], [ -64.8876, 18.3107 ], [ -64.8947, 18.3116 ], [ -64.8983, 18.3097 ], [ -64.9061, 18.3109 ], [ -64.9103, 18.315 ], [ -64.9113, 18.3153 ], [ -64.9116, 18.3162 ], [ -64.9127, 18.3167 ], [ -64.9132, 18.3165 ], [ -64.9165, 18.3187 ], [ -64.9227, 18.3196 ], [ -64.9272, 18.3209 ], [ -64.9288, 18.3289 ], [ -64.9248, 18.3312 ] ] ] ] } },
{ "type": "Feature", "properties": { "GEOIDFQ": "1400000US78010990000", "NAME": "9900", "NAMELSAD": "Census Tract 9900" }, "geometry": { "type": "Polygon", "coordinates": [ [ [ -64.9564, 17.6837 ], [ -64.9545, 17.6918 ], [ -64.9518, 17.6993 ], [ -64.9479, 17.7063 ], [ -64.9435, 17.7127 ], [ -64.9389, 17.7175 ], [ -64.9437, 17.7292 ], [ -64.9454, 17.7368 ], [ -64.9468, 17.748 ], [ -64.9454, 17.7566 ], [ -64.9436, 17.7626 ], [ -64.9413, 17.7688 ], [ -64.9342, 17.7847 ], [ -64.9315, 17.789 ], [ -64.9268, 17.795 ], [ -64.9163, 17.8045 ], [ -64.9106, 17.809 ], [ -64.9059, 17.8122 ], [ -64.8993, 17.8155 ], [ -64.8827, 17.8203 ], [ -64.8725, 17.8215 ], [ -64.8616, 17.821 ], [ -64.8469, 17.8164 ], [ -64.8434, 17.8148 ], [ -64.8421, 17.8148 ], [ -64.8412, 17.8151 ], [ -64.8349, 17.8203 ], [ -64.8302, 17.823 ], [ -64.8222, 17.8269 ], [ -64.8194, 17.8281 ], [ -64.8126, 17.8297 ], [ -64.8109, 17.8298 ], [ -64.8095, 17.8294 ], [ -64.8038, 17.8317 ], [ -64.7981, 17.8331 ], [ -64.7896, 17.8342 ], [ -64.7831, 17.8345 ], [ -64.7749, 17.8341 ], [ -64.7677, 17.8326 ], [ -64.7651, 17.8331 ], [ -64.7626, 17.8331 ], [ -64.7496, 17.8352 ], [ -64.7471, 17.8352 ], [ -64.7335, 17.8328 ], [ -64.7244, 17.8292 ], [ -64.7185, 17.8259 ], [ -64.7138, 17.8226 ], [ -64.7088, 17.8182 ], [ -64.7005, 17.8092 ], [ -64.6975, 17.8088 ], [ -64.69, 17.8132 ], [ -64.6862, 17.8151 ], [ -64.6854, 17.8177 ], [ -64.682, 17.8227 ], [ -64.679, 17.8263 ], [ -64.6733, 17.8315 ], [ -64.6681, 17.8352 ], [ -64.6523, 17.8424 ], [ -64.6471, 17.8437 ], [ -64.6389, 17.8449 ], [ -64.6323, 17.845 ], [ -64.6152, 17.844 ], [ -64.6121, 17.8435 ], [ -64.6022, 17.8409 ], [ -64.5923, 17.8373 ], [ -64.5835, 17.8331 ], [ -64.58, 17.8309 ], [ -64.5671, 17.8228 ], [ -64.5588, 17.8144 ], [ -64.5562, 17.8106 ], [ -64.5389, 17.7998 ], [ -64.5298, 17.793 ], [ -64.5269, 17.79 ], [ -64.5231, 17.785 ], [ -64.5201, 17.7796 ], [ -64.516, 17.7714 ], [ -64.5132, 17.7604 ], [ -64.5127, 17.7571 ], [ -64.5127, 17.7524 ], [ -64.5136, 17.748 ], [ -64.5203, 17.7299 ], [ -64.5247, 17.7227 ], [ -64.531, 17.7159 ], [ -64.5398, 17.7087 ], [ -64.5487, 17.703 ], [ -64.561, 17.698 ], [ -64.5713, 17.6953 ], [ -64.577, 17.6945 ], [ -64.5792, 17.6927 ], [ -64.585, 17.6894 ], [ -64.5936, 17.6854 ], [ -64.6068, 17.6771 ], [ -64.6183, 17.6729 ], [ -64.6223, 17.6702 ], [ -64.628, 17.6678 ], [ -64.6337, 17.6646 ], [ -64.6468, 17.6602 ], [ -64.6547, 17.6595 ], [ -64.6612, 17.6593 ], [ -64.6701, 17.657 ], [ -64.6878, 17.6508 ], [ -64.7081, 17.6475 ], [ -64.7111, 17.6467 ], [ -64.7166, 17.6435 ], [ -64.728, 17.6399 ], [ -64.7342, 17.6384 ], [ -64.7375, 17.6381 ], [ -64.7403, 17.6363 ], [ -64.7496, 17.6337 ], [ -64.7564, 17.6306 ], [ -64.7676, 17.6299 ], [ -64.7727, 17.63 ], [ -64.7889, 17.6258 ], [ -64.7946, 17.625 ], [ -64.8017, 17.6247 ], [ -64.8115, 17.6257 ], [ -64.8176, 17.6278 ], [ -64.8257, 17.6315 ], [ -64.8301, 17.6307 ], [ -64.8358, 17.6301 ], [ -64.8438, 17.6301 ], [ -64.8513, 17.6312 ], [ -64.8599, 17.6338 ], [ -64.8626, 17.6351 ], [ -64.8656, 17.6353 ], [ -64.8693, 17.6342 ], [ -64.8768, 17.6294 ], [ -64.8854, 17.626 ], [ -64.8925, 17.6242 ], [ -64.9004, 17.6235 ], [ -64.908, 17.624 ], [ -64.9159, 17.6252 ], [ -64.9258, 17.629 ], [ -64.9352, 17.6352 ], [ -64.9436, 17.6441 ], [ -64.9497, 17.6533 ], [ -64.9532, 17.661 ], [ -64.9565, 17.6723 ], [ -64.9567, 17.679 ], [ -64.9564, 17.6837 ] ], [ [ -64.9028, 17.6769 ], [ -64.9004, 17.6739 ], [ -64.8993, 17.6756 ], [ -64.8975, 17.6771 ], [ -64.8933, 17.6793 ], [ -64.8889, 17.6829 ], [ -64.8843, 17.6857 ], [ -64.8831, 17.6858 ], [ -64.8817, 17.6848 ], [ -64.8797, 17.6849 ], [ -64.8785, 17.684 ], [ -64.8774, 17.6845 ], [ -64.8757, 17.6845 ], [ -64.8732, 17.6858 ], [ -64.8724, 17.6858 ], [ -64.8715, 17.6852 ], [ -64.8689, 17.6863 ], [ -64.8646, 17.6863 ], [ -64.8629, 17.6854 ], [ -64.8616, 17.6857 ], [ -64.8606, 17.6853 ], [ -64.8586, 17.686 ], [ -64.8566, 17.6858 ], [ -64.8557, 17.6864 ], [ -64.854, 17.6868 ], [ -64.8391, 17.6797 ], [ -64.8374, 17.6802 ], [ -64.8347, 17.6825 ], [ -64.8338, 17.6825 ], [ -64.8337, 17.682 ], [ -64.8331, 17.682 ], [ -64.8302, 17.6836 ], [ -64.8221, 17.6862 ], [ -64.8222, 17.6868 ], [ -64.8195, 17.6885 ], [ -64.8157, 17.6889 ], [ -64.8149, 17.6894 ], [ -64.8138, 17.6892 ], [ -64.8113, 17.6905 ], [ -64.811, 17.691 ], [ -64.8073, 17.6922 ], [ -64.7973, 17.6934 ], [ -64.7939, 17.6933 ], [ -64.7915, 17.695 ], [ -64.7894, 17.6959 ], [ -64.7812, 17.6934 ], [ -64.7711, 17.6916 ], [ -64.7663, 17.6898 ], [ -64.7641, 17.6862 ], [ -64.7636, 17.6833 ], [ -64.7613, 17.6824 ], [ -64.7599, 17.6829 ], [ -64.7594, 17.6836 ], [ -64.7404, 17.6877 ], [ -64.7176, 17.6984 ], [ -64.7166, 17.7002 ], [ -64.7147, 17.7011 ], [ -64.7012, 17.7033 ], [ -64.6863, 17.7068 ], [ -64.6774, 17.7122 ], [ -64.6728, 17.7135 ], [ -64.6688, 17.7129 ], [ -64.6666, 17.7133 ], [ -64.6378, 17.7221 ], [ -64.6238, 17.7309 ], [ -64.6099, 17.7328 ], [ -64.5982, 17.7452 ], [ -64.5859, 17.7449 ], [ -64.5779, 17.7455 ], [ -64.5758, 17.7463 ], [ -64.5681, 17.7513 ], [ -64.5652, 17.7551 ], [ -64.5664, 17.7569 ], [ -64.5692, 17.7574 ], [ -64.5698, 17.7571 ], [ -64.5714, 17.7576 ], [ -64.5745, 17.7603 ], [ -64.583, 17.7619 ], [ -64.5882, 17.758 ], [ -64.5972, 17.7565 ], [ -64.612, 17.7611 ], [ -64.6165, 17.7614 ], [ -64.6246, 17.7597 ], [ -64.6307, 17.7612 ], [ -64.6312, 17.7607 ], [ -64.6313, 17.7593 ], [ -64.6325, 17.7588 ], [ -64.6358, 17.7593 ], [ -64.6373, 17.7603 ], [ -64.6408, 17.7595 ], [ -64.6472, 17.7619 ], [ -64.6549, 17.7658 ], [ -64.6552, 17.7655 ], [ -64.6553, 17.7659 ], [ -64.6558, 17.7649 ], [ -64.6552, 17.7638 ], [ -64.656, 17.7632 ], [ -64.6568, 17.7634 ], [ -64.6573, 17.7626 ], [ -64.6583, 17.7621 ], [ -64.6688, 17.7609 ], [ -64.6691, 17.7605 ], [ -64.6726, 17.7621 ], [ -64.6797, 17.7608 ], [ -64.6806, 17.7598 ], [ -64.682, 17.7603 ], [ -64.6945, 17.7553 ], [ -64.6937, 17.7537 ], [ -64.6938, 17.7532 ], [ -64.696, 17.7497 ], [ -64.6976, 17.7493 ], [ -64.698, 17.7478 ], [ -64.7027, 17.7472 ], [ -64.7066, 17.7473 ], [ -64.7073, 17.7469 ], [ -64.708, 17.7475 ], [ -64.7088, 17.7469 ], [ -64.7133, 17.7502 ], [ -64.7142, 17.7514 ], [ -64.7136, 17.752 ], [ -64.7144, 17.7517 ], [ -64.717, 17.7532 ], [ -64.7175, 17.7528 ], [ -64.7188, 17.7533 ], [ -64.7199, 17.7541 ], [ -64.7208, 17.7554 ], [ -64.723, 17.7568 ], [ -64.7247, 17.7594 ], [ -64.7299, 17.7625 ], [ -64.7317, 17.7626 ], [ -64.7324, 17.7637 ], [ -64.736, 17.7666 ], [ -64.7372, 17.7695 ], [ -64.7374, 17.7713 ], [ -64.738, 17.7718 ], [ -64.7387, 17.7717 ], [ -64.7396, 17.7726 ], [ -64.7396, 17.7731 ], [ -64.7385, 17.7733 ], [ -64.7384, 17.774 ], [ -64.7396, 17.775 ], [ -64.741, 17.7743 ], [ -64.742, 17.775 ], [ -64.7465, 17.7804 ], [ -64.7473, 17.7823 ], [ -64.7485, 17.7836 ], [ -64.7616, 17.7812 ], [ -64.7659, 17.7809 ], [ -64.7675, 17.7802 ], [ -64.7717, 17.781 ], [ -64.7731, 17.7821 ], [ -64.7748, 17.7823 ], [ -64.7759, 17.7831 ], [ -64.7784, 17.7838 ], [ -64.7823, 17.7838 ], [ -64.7847, 17.7828 ], [ -64.79, 17.7816 ], [ -64.7913, 17.78 ], [ -64.7921, 17.7796 ], [ -64.7966, 17.7787 ], [ -64.8004, 17.7784 ], [ -64.8049, 17.7791 ], [ -64.8083, 17.7775 ], [ -64.8166, 17.7694 ], [ -64.8189, 17.7682 ], [ -64.8195, 17.7674 ], [ -64.8296, 17.7642 ], [ -64.831, 17.7636 ], [ -64.8314, 17.7629 ], [ -64.8338, 17.7619 ], [ -64.8344, 17.7623 ], [ -64.8365, 17.7616 ], [ -64.8398, 17.7616 ], [ -64.8411, 17.762 ], [ -64.8422, 17.7626 ], [ -64.8429, 17.7641 ], [ -64.8434, 17.7633 ], [ -64.8447, 17.7628 ], [ -64.8459, 17.7642 ], [ -64.8473, 17.764 ], [ -64.8483, 17.7649 ], [ -64.852, 17.764 ], [ -64.8547, 17.7647 ], [ -64.8562, 17.7645 ], [ -64.8581, 17.7656 ], [ -64.8605, 17.7659 ], [ -64.8615, 17.7668 ], [ -64.8648, 17.7671 ], [ -64.8671, 17.7684 ], [ -64.8673, 17.7696 ], [ -64.8721, 17.7712 ], [ -64.8736, 17.7708 ], [ -64.8749, 17.7693 ], [ -64.8766, 17.7701 ], [ -64.8779, 17.7699 ], [ -64.8816, 17.7676 ], [ -64.8817, 17.7648 ], [ -64.8823, 17.764 ], [ -64.8842, 17.7639 ], [ -64.8885, 17.7609 ], [ -64.891, 17.7539 ], [ -64.894, 17.7474 ], [ -64.8943, 17.7452 ], [ -64.8936, 17.7426 ], [ -64.8898, 17.7353 ], [ -64.8893, 17.7326 ], [ -64.8879, 17.7297 ], [ -64.8875, 17.7273 ], [ -64.8852, 17.7212 ], [ -64.8884, 17.7142 ], [ -64.8904, 17.714 ], [ -64.8903, 17.7133 ], [ -64.8887, 17.7134 ], [ -64.9038, 17.6797 ], [ -64.9028, 17.6769 ] ], [ [ -64.7027, 17.7486 ], [ -64.7019, 17.7506 ], [ -64.7032, 17.7506 ], [ -64.7035, 17.7493 ], [ -64.7027, 17.7486 ] ], [ [ -64.6665, 17.7645 ], [ -64.6657, 17.7648 ], [ -64.6642, 17.7691 ], [ -64.6659, 17.7683 ], [ -64.6658, 17.7671 ], [ -64.6668, 17.7661 ], [ -64.6671, 17.765 ], [ -64.6665, 17.7645 ] ], [ [ -64.6267, 17.7861 ], [ -64.6242, 17.7853 ], [ -64.623, 17.784 ], [ -64.6219, 17.7836 ], [ -64.6202, 17.7848 ], [ -64.6173, 17.7851 ], [ -64.6112, 17.7872 ], [ -64.6137, 17.7884 ], [ -64.6171, 17.7885 ], [ -64.6214, 17.7896 ], [ -64.6224, 17.7895 ], [ -64.6239, 17.7901 ], [ -64.6256, 17.79 ], [ -64.6284, 17.7888 ], [ -64.6267, 17.7861 ] ] ] } },
{ "type": "Feature", "properties": { "GEOIDFQ": "1400000US78010970300", "NAME": "9703", "NAMELSAD": "Census Tract 9703" }, "geometry": { "type": "Polygon", "coordinates": [ [ [ -64.7396, 17.7571 ], [ -64.7423, 17.7655 ], [ -64.7363, 17.7675 ], [ -64.736, 17.7666 ], [ -64.7324, 17.7637 ], [ -64.7315, 17.7625 ], [ -64.7299, 17.7625 ], [ -64.7247, 17.7594 ], [ -64.7233, 17.7571 ], [ -64.7208, 17.7554 ], [ -64.7191, 17.7535 ], [ -64.7176, 17.7528 ], [ -64.717, 17.7532 ], [ -64.7144, 17.7517 ], [ -64.7136, 17.752 ], [ -64.7141, 17.7511 ], [ -64.7114, 17.7488 ], [ -64.7156, 17.7454 ], [ -64.7136, 17.744 ], [ -64.7139, 17.743 ], [ -64.7126, 17.742 ], [ -64.7134, 17.7397 ], [ -64.7136, 17.7394 ], [ -64.7167, 17.7404 ], [ -64.7202, 17.7396 ], [ -64.7196, 17.7405 ], [ -64.7213, 17.7401 ], [ -64.7228, 17.7443 ], [ -64.7255, 17.7434 ], [ -64.7257, 17.7443 ], [ -64.7273, 17.7442 ], [ -64.7306, 17.7464 ], [ -64.7306, 17.7489 ], [ -64.7312, 17.7508 ], [ -64.7424, 17.7473 ], [ -64.7452, 17.7554 ], [ -64.7396, 17.7571 ] ] ] } },
{ "type": "Feature", "properties": { "GEOIDFQ": "1400000US78010970800", "NAME": "9708", "NAMELSAD": "Census Tract 9708" }, "geometry": { "type": "Polygon", "coordinates": [ [ [ -64.7913, 17.7592 ], [ -64.7888, 17.751 ], [ -64.7935, 17.7495 ], [ -64.7908, 17.7413 ], [ -64.7725, 17.747 ], [ -64.7765, 17.7368 ], [ -64.771, 17.7204 ], [ -64.7767, 17.7186 ], [ -64.7757, 17.7156 ], [ -64.781, 17.7138 ], [ -64.7834, 17.7107 ], [ -64.7852, 17.7158 ], [ -64.7938, 17.7134 ], [ -64.7966, 17.7215 ], [ -64.8022, 17.7198 ], [ -64.8132, 17.7525 ], [ -64.7913, 17.7592 ] ] ] } },
{ "type": "Feature", "properties": { "GEOIDFQ": "1400000US78010971200", "NAME": "9712", "NAMELSAD": "Census Tract 9712" }, "geometry": { "type": "Polygon", "coordinates": [ [ [ -64.8592, 17.7023 ], [ -64.8619, 17.7103 ], [ -64.8564, 17.7121 ], [ -64.8508, 17.6958 ], [ -64.8451, 17.6976 ], [ -64.8415, 17.6865 ], [ -64.8396, 17.6846 ], [ -64.8389, 17.6827 ], [ -64.8396, 17.6811 ], [ -64.8391, 17.6799 ], [ -64.854, 17.6868 ], [ -64.8557, 17.6864 ], [ -64.8566, 17.6858 ], [ -64.8586, 17.686 ], [ -64.8606, 17.6853 ], [ -64.8616, 17.6857 ], [ -64.8629, 17.6854 ], [ -64.8646, 17.6863 ], [ -64.8689, 17.6863 ], [ -64.8715, 17.6852 ], [ -64.8731, 17.6858 ], [ -64.8757, 17.6845 ], [ -64.8783, 17.6841 ], [ -64.882, 17.6951 ], [ -64.8592, 17.7023 ] ] ] } },
{ "type": "Feature", "properties": { "GEOIDFQ": "1400000US78010971400", "NAME": "9714", "NAMELSAD": "Census Tract 9714" }, "geometry": { "type": "Polygon", "coordinates": [ [ [ -64.7966, 17.7215 ], [ -64.7938, 17.7134 ], [ -64.7852, 17.7158 ], [ -64.7834, 17.7107 ], [ -64.781, 17.7138 ], [ -64.7757, 17.7156 ], [ -64.7767, 17.7186 ], [ -64.7655, 17.7222 ], [ -64.7639, 17.718 ], [ -64.7583, 17.7194 ], [ -64.7571, 17.7154 ], [ -64.7455, 17.7189 ], [ -64.7396, 17.701 ], [ -64.7381, 17.7024 ], [ -64.7352, 17.7041 ], [ -64.7323, 17.7045 ], [ -64.7313, 17.704 ], [ -64.7274, 17.7036 ], [ -64.7232, 17.7012 ], [ -64.7216, 17.7008 ], [ -64.7182, 17.6984 ], [ -64.7176, 17.6984 ], [ -64.7404, 17.6877 ], [ -64.7594, 17.6836 ], [ -64.7599, 17.6829 ], [ -64.7613, 17.6824 ], [ -64.7636, 17.6833 ], [ -64.7641, 17.6862 ], [ -64.7663, 17.6898 ], [ -64.7711, 17.6916 ], [ -64.7812, 17.6934 ], [ -64.7893, 17.6959 ], [ -64.7915, 17.695 ], [ -64.7944, 17.6932 ], [ -64.795, 17.6935 ], [ -64.8041, 17.6928 ], [ -64.8088, 17.6919 ], [ -64.809, 17.6915 ], [ -64.811, 17.691 ], [ -64.8113, 17.6905 ], [ -64.8138, 17.6892 ], [ -64.8149, 17.6894 ], [ -64.8157, 17.6889 ], [ -64.8195, 17.6885 ], [ -64.8222, 17.6868 ], [ -64.8279, 17.7029 ], [ -64.8336, 17.7012 ], [ -64.8364, 17.7094 ], [ -64.7966, 17.7215 ] ] ] } },
{ "type": "Feature", "properties": { "GEOIDFQ": "1400000US78010971300", "NAME": "9713", "NAMELSAD": "Census Tract 9713" }, "geometry": { "type": "Polygon", "coordinates": [ [ [ -64.8476, 17.7241 ], [ -64.8474, 17.7236 ], [ -64.8419, 17.7255 ], [ -64.8336, 17.7012 ], [ -64.8279, 17.7029 ], [ -64.8221, 17.6862 ], [ -64.8302, 17.6836 ], [ -64.8331, 17.682 ], [ -64.8337, 17.682 ], [ -64.8338, 17.6825 ], [ -64.8347, 17.6825 ], [ -64.8374, 17.6802 ], [ -64.8392, 17.6798 ], [ -64.8396, 17.6811 ], [ -64.8389, 17.6827 ], [ -64.8396, 17.6846 ], [ -64.8415, 17.6865 ], [ -64.8451, 17.6976 ], [ -64.8508, 17.6958 ], [ -64.8592, 17.7203 ], [ -64.8476, 17.7241 ] ] ] } },
{ "type": "Feature", "properties": { "GEOIDFQ": "1400000US78010970200", "NAME": "9702", "NAMELSAD": "Census Tract 9702" }, "geometry": { "type": "MultiPolygon", "coordinates": [ [ [ [ -64.7032, 17.7506 ], [ -64.7019, 17.7506 ], [ -64.7027, 17.7486 ], [ -64.7035, 17.7494 ], [ -64.7032, 17.7506 ] ] ], [ [ [ -64.7114, 17.7488 ], [ -64.7088, 17.7469 ], [ -64.708, 17.7475 ], [ -64.7073, 17.7469 ], [ -64.7066, 17.7473 ], [ -64.6983, 17.7477 ], [ -64.6979, 17.7479 ], [ -64.6975, 17.7494 ], [ -64.696, 17.7497 ], [ -64.6954, 17.7502 ], [ -64.6943, 17.75 ], [ -64.6933, 17.7509 ], [ -64.6923, 17.7537 ], [ -64.6904, 17.7532 ], [ -64.6895, 17.752 ], [ -64.6891, 17.7524 ], [ -64.6865, 17.7523 ], [ -64.6834, 17.7535 ], [ -64.6827, 17.7534 ], [ -64.6829, 17.7522 ], [ -64.6822, 17.7517 ], [ -64.6807, 17.7516 ], [ -64.6796, 17.7522 ], [ -64.6797, 17.7485 ], [ -64.6805, 17.7483 ], [ -64.6816, 17.7487 ], [ -64.6836, 17.7473 ], [ -64.6833, 17.7483 ], [ -64.6836, 17.7488 ], [ -64.6845, 17.7487 ], [ -64.6868, 17.7502 ], [ -64.6801, 17.7316 ], [ -64.6914, 17.7279 ], [ -64.6924, 17.731 ], [ -64.695, 17.7302 ], [ -64.696, 17.7335 ], [ -64.7007, 17.7332 ], [ -64.7021, 17.7372 ], [ -64.7097, 17.7349 ], [ -64.7133, 17.7365 ], [ -64.7142, 17.7396 ], [ -64.7136, 17.7394 ], [ -64.7126, 17.742 ], [ -64.7139, 17.743 ], [ -64.7136, 17.744 ], [ -64.7156, 17.7454 ], [ -64.7114, 17.7488 ] ] ] ] } },
{ "type": "Feature", "properties": { "GEOIDFQ": "1400000US78010971100", "NAME": "9711", "NAMELSAD": "Census Tract 9711" }, "geometry": { "type": "Polygon", "coordinates": [ [ [ -64.8887, 17.7134 ], [ -64.8903, 17.7133 ], [ -64.8904, 17.714 ], [ -64.8884, 17.7142 ], [ -64.8852, 17.7213 ], [ -64.8677, 17.7269 ], [ -64.8648, 17.7185 ], [ -64.8592, 17.7203 ], [ -64.8564, 17.7121 ], [ -64.8619, 17.7103 ], [ -64.8592, 17.7023 ], [ -64.882, 17.6951 ], [ -64.8783, 17.6841 ], [ -64.8797, 17.6849 ], [ -64.8817, 17.6848 ], [ -64.8831, 17.6858 ], [ -64.8849, 17.6855 ], [ -64.8889, 17.6829 ], [ -64.8931, 17.6794 ], [ -64.8978, 17.6769 ], [ -64.8996, 17.6753 ], [ -64.9004, 17.6739 ], [ -64.9028, 17.6769 ], [ -64.9038, 17.6797 ], [ -64.8887, 17.7134 ] ] ] } },
{ "type": "Feature", "properties": { "GEOIDFQ": "1400000US78010971000", "NAME": "9710", "NAMELSAD": "Census Tract 9710" }, "geometry": { "type": "Polygon", "coordinates": [ [ [ -64.894, 17.7475 ], [ -64.891, 17.7539 ], [ -64.8886, 17.7608 ], [ -64.8842, 17.7639 ], [ -64.8823, 17.764 ], [ -64.8817, 17.7648 ], [ -64.8816, 17.7668 ], [ -64.8818, 17.7674 ], [ -64.8779, 17.7699 ], [ -64.8766, 17.7701 ], [ -64.8749, 17.7693 ], [ -64.8736, 17.7708 ], [ -64.8718, 17.7712 ], [ -64.8673, 17.7696 ], [ -64.8671, 17.7684 ], [ -64.8648, 17.7671 ], [ -64.8615, 17.7668 ], [ -64.8605, 17.7659 ], [ -64.8581, 17.7656 ], [ -64.8562, 17.7645 ], [ -64.8547, 17.7647 ], [ -64.852, 17.764 ], [ -64.8483, 17.7649 ], [ -64.8473, 17.764 ], [ -64.8459, 17.7642 ], [ -64.8447, 17.7628 ], [ -64.8434, 17.7633 ], [ -64.8429, 17.7641 ], [ -64.8422, 17.7626 ], [ -64.8411, 17.762 ], [ -64.8398, 17.7616 ], [ -64.8366, 17.7616 ], [ -64.8344, 17.7623 ], [ -64.8338, 17.7619 ], [ -64.8314, 17.7629 ], [ -64.831, 17.7636 ], [ -64.8296, 17.7642 ], [ -64.8199, 17.7672 ], [ -64.8168, 17.7694 ], [ -64.8159, 17.7665 ], [ -64.8168, 17.766 ], [ -64.8143, 17.7612 ], [ -64.8206, 17.7592 ], [ -64.8179, 17.7511 ], [ -64.8132, 17.7524 ], [ -64.8049, 17.728 ], [ -64.8276, 17.721 ], [ -64.8327, 17.7378 ], [ -64.8391, 17.736 ], [ -64.8384, 17.7338 ], [ -64.8448, 17.7319 ], [ -64.8425, 17.7252 ], [ -64.8474, 17.7236 ], [ -64.8476, 17.7241 ], [ -64.8648, 17.7185 ], [ -64.8677, 17.7269 ], [ -64.8852, 17.7213 ], [ -64.8875, 17.7273 ], [ -64.8879, 17.7297 ], [ -64.8893, 17.7326 ], [ -64.8898, 17.7353 ], [ -64.8926, 17.7401 ], [ -64.8943, 17.7453 ], [ -64.894, 17.7475 ] ] ] } },
{ "type": "Feature", "properties": { "GEOIDFQ": "1400000US78030960600", "NAME": "9606", "NAMELSAD": "Census Tract 9606" }, "geometry": { "type": "Polygon", "coordinates": [ [ [ -64.9618, 18.3541 ], [ -64.9575, 18.352 ], [ -64.9549, 18.3522 ], [ -64.9549, 18.3572 ], [ -64.9543, 18.3605 ], [ -64.9533, 18.3601 ], [ -64.9509, 18.3615 ], [ -64.9509, 18.3568 ], [ -64.946, 18.3548 ], [ -64.9452, 18.3547 ], [ -64.9445, 18.3552 ], [ -64.9437, 18.3546 ], [ -64.942, 18.3544 ], [ -64.9411, 18.3506 ], [ -64.9393, 18.3471 ], [ -64.9386, 18.3441 ], [ -64.9428, 18.3444 ], [ -64.9461, 18.3452 ], [ -64.9481, 18.3451 ], [ -64.9474, 18.3378 ], [ -64.9531, 18.3371 ], [ -64.9529, 18.3378 ], [ -64.9547, 18.341 ], [ -64.9545, 18.3427 ], [ -64.9561, 18.3448 ], [ -64.9551, 18.3452 ], [ -64.9561, 18.3458 ], [ -64.9572, 18.3476 ], [ -64.9585, 18.3478 ], [ -64.9609, 18.3509 ], [ -64.9623, 18.3513 ], [ -64.9628, 18.3518 ], [ -64.9639, 18.3516 ], [ -64.9641, 18.3546 ], [ -64.9618, 18.3541 ] ] ] } },
{ "type": "Feature", "properties": { "GEOIDFQ": "1400000US78010970900", "NAME": "9709", "NAMELSAD": "Census Tract 9709" }, "geometry": { "type": "Polygon", "coordinates": [ [ [ -64.8384, 17.7338 ], [ -64.8391, 17.736 ], [ -64.8327, 17.7378 ], [ -64.8276, 17.721 ], [ -64.8049, 17.728 ], [ -64.8022, 17.7198 ], [ -64.8364, 17.7094 ], [ -64.8419, 17.7255 ], [ -64.8425, 17.7252 ], [ -64.8448, 17.7319 ], [ -64.8384, 17.7338 ] ] ] } },
{ "type": "Feature", "properties": { "GEOIDFQ": "1400000US78010970500", "NAME": "9705", "NAMELSAD": "Census Tract 9705" }, "geometry": { "type": "Polygon", "coordinates": [ [ [ -64.7538, 17.7437 ], [ -64.7572, 17.7541 ], [ -64.756, 17.7545 ], [ -64.7516, 17.7558 ], [ -64.7511, 17.7543 ], [ -64.7505, 17.7539 ], [ -64.7452, 17.7554 ], [ -64.7424, 17.7473 ], [ -64.7312, 17.7508 ], [ -64.7306, 17.7489 ], [ -64.7306, 17.7464 ], [ -64.7269, 17.7441 ], [ -64.7293, 17.7436 ], [ -64.7293, 17.7432 ], [ -64.73, 17.743 ], [ -64.7299, 17.7426 ], [ -64.7343, 17.7413 ], [ -64.7341, 17.7408 ], [ -64.7397, 17.739 ], [ -64.7369, 17.7307 ], [ -64.7342, 17.7316 ], [ -64.7314, 17.7234 ], [ -64.7512, 17.7171 ], [ -64.7594, 17.742 ], [ -64.7538, 17.7437 ] ] ] } },
{ "type": "Feature", "properties": { "GEOIDFQ": "1400000US78010970700", "NAME": "9707", "NAMELSAD": "Census Tract 9707" }, "geometry": { "type": "Polygon", "coordinates": [ [ [ -64.8143, 17.7612 ], [ -64.8168, 17.766 ], [ -64.8159, 17.7665 ], [ -64.8168, 17.7694 ], [ -64.8083, 17.7775 ], [ -64.8067, 17.7785 ], [ -64.8045, 17.7792 ], [ -64.8004, 17.7784 ], [ -64.7969, 17.7786 ], [ -64.792, 17.7797 ], [ -64.7898, 17.7817 ], [ -64.7847, 17.7828 ], [ -64.7823, 17.7838 ], [ -64.7785, 17.7838 ], [ -64.7759, 17.7831 ], [ -64.7752, 17.7824 ], [ -64.7669, 17.7579 ], [ -64.7707, 17.7567 ], [ -64.7679, 17.7484 ], [ -64.7713, 17.7474 ], [ -64.7717, 17.747 ], [ -64.7724, 17.7473 ], [ -64.7725, 17.747 ], [ -64.7908, 17.7413 ], [ -64.7935, 17.7495 ], [ -64.7888, 17.751 ], [ -64.7913, 17.7592 ], [ -64.8179, 17.7511 ], [ -64.8206, 17.7592 ], [ -64.8143, 17.7612 ] ] ] } },
{ "type": "Feature", "properties": { "GEOIDFQ": "1400000US78010970100", "NAME": "9701", "NAMELSAD": "Census Tract 9701" }, "geometry": { "type": "MultiPolygon", "coordinates": [ [ [ [ -64.6256, 17.79 ], [ -64.6239, 17.7901 ], [ -64.6224, 17.7895 ], [ -64.6214, 17.7896 ], [ -64.6171, 17.7885 ], [ -64.6137, 17.7884 ], [ -64.6112, 17.7872 ], [ -64.6173, 17.7851 ], [ -64.6202, 17.7848 ], [ -64.6219, 17.7836 ], [ -64.623, 17.784 ], [ -64.6242, 17.7853 ], [ -64.6267, 17.7861 ], [ -64.6284, 17.7889 ], [ -64.6256, 17.79 ] ] ], [ [ [ -64.6658, 17.7671 ], [ -64.6659, 17.7683 ], [ -64.6642, 17.7691 ], [ -64.6657, 17.7648 ], [ -64.6665, 17.7645 ], [ -64.6671, 17.7652 ], [ -64.6658, 17.7671 ] ] ], [ [ [ -64.6937, 17.7535 ], [ -64.6945, 17.7553 ], [ -64.682, 17.7603 ], [ -64.6806, 17.7598 ], [ -64.6797, 17.7608 ], [ -64.6726, 17.7621 ], [ -64.6691, 17.7605 ], [ -64.6688, 17.7609 ], [ -64.6583, 17.7621 ], [ -64.6573, 17.7626 ], [ -64.6568, 17.7634 ], [ -64.656, 17.7632 ], [ -64.6552, 17.7638 ], [ -64.6558, 17.7649 ], [ -64.6553, 17.7659 ], [ -64.6552, 17.7655 ], [ -64.6549, 17.7658 ], [ -64.6472, 17.7619 ], [ -64.6408, 17.7595 ], [ -64.6373, 17.7603 ], [ -64.6358, 17.7593 ], [ -64.6325, 17.7588 ], [ -64.6313, 17.7593 ], [ -64.6312, 17.7607 ], [ -64.6307, 17.7612 ], [ -64.6246, 17.7597 ], [ -64.6165, 17.7614 ], [ -64.612, 17.7611 ], [ -64.5972, 17.7565 ], [ -64.5882, 17.758 ], [ -64.583, 17.7619 ], [ -64.5745, 17.7603 ], [ -64.5714, 17.7576 ], [ -64.5698, 17.7571 ], [ -64.5692, 17.7574 ], [ -64.5664, 17.7569 ], [ -64.5652, 17.7551 ], [ -64.5681, 17.7513 ], [ -64.5758, 17.7463 ], [ -64.5779, 17.7455 ], [ -64.5859, 17.7449 ], [ -64.5982, 17.7452 ], [ -64.6099, 17.7328 ], [ -64.6238, 17.7309 ], [ -64.6344, 17.7239 ], [ -64.6391, 17.7218 ], [ -64.6466, 17.742 ], [ -64.6492, 17.7412 ], [ -64.6519, 17.7495 ], [ -64.6602, 17.7469 ], [ -64.6564, 17.7347 ], [ -64.6589, 17.7334 ], [ -64.6618, 17.733 ], [ -64.6677, 17.7311 ], [ -64.6695, 17.7367 ], [ -64.6691, 17.7375 ], [ -64.6701, 17.7382 ], [ -64.6699, 17.7395 ], [ -64.6716, 17.7434 ], [ -64.6833, 17.7398 ], [ -64.6868, 17.7502 ], [ -64.6845, 17.7487 ], [ -64.6836, 17.7488 ], [ -64.6833, 17.7483 ], [ -64.6836, 17.7473 ], [ -64.6816, 17.7487 ], [ -64.6805, 17.7483 ], [ -64.6797, 17.7485 ], [ -64.6796, 17.7522 ], [ -64.6807, 17.7516 ], [ -64.6822, 17.7517 ], [ -64.6829, 17.7522 ], [ -64.6827, 17.7534 ], [ -64.6834, 17.7535 ], [ -64.6865, 17.7523 ], [ -64.6891, 17.7524 ], [ -64.6895, 17.752 ], [ -64.6904, 17.7532 ], [ -64.6923, 17.7537 ], [ -64.6933, 17.7509 ], [ -64.6943, 17.75 ], [ -64.6954, 17.7502 ], [ -64.6959, 17.7498 ], [ -64.6937, 17.7535 ] ] ] ] } },
{ "type": "Feature", "properties": { "GEOIDFQ": "1400000US78010970600", "NAME": "9706", "NAMELSAD": "Census Tract 9706" }, "geometry": { "type": "MultiPolygon", "coordinates": [ [ [ [ -64.7493, 17.7872 ], [ -64.7492, 17.7871 ], [ -64.7493, 17.787 ], [ -64.7493, 17.7872 ] ] ], [ [ [ -64.7724, 17.7473 ], [ -64.7717, 17.747 ], [ -64.7713, 17.7474 ], [ -64.7679, 17.7484 ], [ -64.7707, 17.7567 ], [ -64.7669, 17.7579 ], [ -64.7752, 17.7824 ], [ -64.7731, 17.7821 ], [ -64.7715, 17.7809 ], [ -64.7675, 17.7802 ], [ -64.7659, 17.7809 ], [ -64.7616, 17.7812 ], [ -64.7484, 17.7836 ], [ -64.7465, 17.7804 ], [ -64.742, 17.775 ], [ -64.741, 17.7743 ], [ -64.7396, 17.775 ], [ -64.7384, 17.774 ], [ -64.7385, 17.7733 ], [ -64.7396, 17.7731 ], [ -64.7396, 17.7726 ], [ -64.7387, 17.7717 ], [ -64.738, 17.7718 ], [ -64.7374, 17.7713 ], [ -64.7372, 17.7695 ], [ -64.7363, 17.7675 ], [ -64.7423, 17.7655 ], [ -64.7396, 17.7571 ], [ -64.7505, 17.7539 ], [ -64.7511, 17.7543 ], [ -64.7516, 17.7558 ], [ -64.7572, 17.7541 ], [ -64.7538, 17.7437 ], [ -64.7765, 17.7367 ], [ -64.7724, 17.7473 ] ] ] ] } },
{ "type": "Feature", "properties": { "GEOIDFQ": "1400000US78010971500", "NAME": "9715", "NAMELSAD": "Census Tract 9715" }, "geometry": { "type": "Polygon", "coordinates": [ [ [ -64.7595, 17.7419 ], [ -64.7512, 17.7171 ], [ -64.7571, 17.7154 ], [ -64.7583, 17.7194 ], [ -64.7639, 17.718 ], [ -64.7655, 17.7222 ], [ -64.771, 17.7204 ], [ -64.7765, 17.7367 ], [ -64.7595, 17.7419 ] ] ] } },
{ "type": "Feature", "properties": { "GEOIDFQ": "1400000US78010970400", "NAME": "9704", "NAMELSAD": "Census Tract 9704" }, "geometry": { "type": "Polygon", "coordinates": [ [ [ -64.7314, 17.7234 ], [ -64.7342, 17.7316 ], [ -64.7369, 17.7307 ], [ -64.7397, 17.739 ], [ -64.7341, 17.7408 ], [ -64.7343, 17.7413 ], [ -64.7299, 17.7426 ], [ -64.73, 17.743 ], [ -64.7293, 17.7432 ], [ -64.7293, 17.7436 ], [ -64.7257, 17.7443 ], [ -64.7255, 17.7434 ], [ -64.7228, 17.7443 ], [ -64.7213, 17.7401 ], [ -64.7196, 17.7405 ], [ -64.7202, 17.7396 ], [ -64.7167, 17.7404 ], [ -64.7142, 17.7396 ], [ -64.7133, 17.7365 ], [ -64.7097, 17.7349 ], [ -64.7021, 17.7372 ], [ -64.7007, 17.7332 ], [ -64.696, 17.7335 ], [ -64.695, 17.7302 ], [ -64.6924, 17.731 ], [ -64.6914, 17.7279 ], [ -64.6801, 17.7316 ], [ -64.6812, 17.7351 ], [ -64.6833, 17.7398 ], [ -64.6716, 17.7434 ], [ -64.6699, 17.7395 ], [ -64.6701, 17.7382 ], [ -64.6691, 17.7375 ], [ -64.6695, 17.7367 ], [ -64.6677, 17.7311 ], [ -64.6618, 17.733 ], [ -64.6589, 17.7334 ], [ -64.6564, 17.7347 ], [ -64.6602, 17.7469 ], [ -64.6519, 17.7495 ], [ -64.6492, 17.7412 ], [ -64.6466, 17.742 ], [ -64.6391, 17.7218 ], [ -64.6666, 17.7133 ], [ -64.6688, 17.7129 ], [ -64.6728, 17.7135 ], [ -64.6774, 17.7122 ], [ -64.6863, 17.7068 ], [ -64.7012, 17.7033 ], [ -64.7137, 17.7014 ], [ -64.7166, 17.7002 ], [ -64.7178, 17.6983 ], [ -64.7216, 17.7008 ], [ -64.7232, 17.7012 ], [ -64.7274, 17.7036 ], [ -64.7313, 17.704 ], [ -64.7323, 17.7045 ], [ -64.7352, 17.7041 ], [ -64.7381, 17.7024 ], [ -64.7396, 17.701 ], [ -64.7455, 17.7189 ], [ -64.7314, 17.7234 ] ] ] } },
{ "type": "Feature", "properties": { "GEOIDFQ": "1400000US78020950200", "NAME": "9502", "NAMELSAD": "Census Tract 9502" }, "geometry": { "type": "MultiPolygon", "coordinates": [ [ [ [ -64.7988, 18.3302 ], [ -64.7988, 18.3332 ], [ -64.7947, 18.3333 ], [ -64.794, 18.3326 ], [ -64.7934, 18.3328 ], [ -64.7931, 18.3323 ], [ -64.793, 18.3329 ], [ -64.7882, 18.3334 ], [ -64.7872, 18.3367 ], [ -64.7848, 18.3364 ], [ -64.7839, 18.3359 ], [ -64.7761, 18.3365 ], [ -64.7733, 18.3372 ], [ -64.773, 18.3363 ], [ -64.7733, 18.3347 ], [ -64.7726, 18.3348 ], [ -64.7724, 18.3339 ], [ -64.7718, 18.3336 ], [ -64.7703, 18.3336 ], [ -64.7703, 18.3327 ], [ -64.7694, 18.3308 ], [ -64.7678, 18.331 ], [ -64.7646, 18.3297 ], [ -64.7643, 18.329 ], [ -64.7599, 18.3263 ], [ -64.7563, 18.3262 ], [ -64.7563, 18.3166 ], [ -64.7655, 18.3114 ], [ -64.766, 18.3105 ], [ -64.78, 18.3109 ], [ -64.7815, 18.3105 ], [ -64.7825, 18.3113 ], [ -64.783, 18.3112 ], [ -64.7847, 18.3134 ], [ -64.7891, 18.3146 ], [ -64.7912, 18.3144 ], [ -64.7919, 18.3166 ], [ -64.7947, 18.3202 ], [ -64.7944, 18.3212 ], [ -64.7955, 18.3225 ], [ -64.7959, 18.3246 ], [ -64.7992, 18.326 ], [ -64.7998, 18.3266 ], [ -64.7988, 18.3302 ] ] ], [ [ [ -64.8072, 18.3311 ], [ -64.8068, 18.3286 ], [ -64.8075, 18.3294 ], [ -64.808, 18.3312 ], [ -64.8072, 18.3311 ] ] ] ] } },
{ "type": "Feature", "properties": { "GEOIDFQ": "1400000US78020950100", "NAME": "9501", "NAMELSAD": "Census Tract 9501" }, "geometry": { "type": "MultiPolygon", "coordinates": [ [ [ [ -64.6513, 18.327 ], [ -64.6512, 18.328 ], [ -64.6495, 18.3286 ], [ -64.6487, 18.3282 ], [ -64.6488, 18.3272 ], [ -64.6491, 18.3269 ], [ -64.6494, 18.3271 ], [ -64.6502, 18.324 ], [ -64.6518, 18.3258 ], [ -64.6513, 18.327 ] ] ], [ [ [ -64.7096, 18.3024 ], [ -64.7098, 18.3019 ], [ -64.7099, 18.3019 ], [ -64.7101, 18.3024 ], [ -64.7096, 18.3024 ] ] ], [ [ [ -64.7599, 18.3701 ], [ -64.7593, 18.3698 ], [ -64.7583, 18.3703 ], [ -64.7574, 18.3712 ], [ -64.755, 18.3707 ], [ -64.7551, 18.3699 ], [ -64.7558, 18.3692 ], [ -64.7604, 18.3696 ], [ -64.7599, 18.3701 ] ] ], [ [ [ -64.7768, 18.3544 ], [ -64.7767, 18.354 ], [ -64.777, 18.3537 ], [ -64.7774, 18.3541 ], [ -64.7768, 18.3544 ] ] ], [ [ [ -64.7892, 18.3558 ], [ -64.7887, 18.3546 ], [ -64.7893, 18.3544 ], [ -64.7902, 18.3555 ], [ -64.7892, 18.3558 ] ] ], [ [ [ -64.793, 18.3545 ], [ -64.7922, 18.3539 ], [ -64.7916, 18.3521 ], [ -64.7923, 18.3519 ], [ -64.7945, 18.3532 ], [ -64.793, 18.3545 ] ] ], [ [ [ -64.7941, 18.3699 ], [ -64.7938, 18.3698 ], [ -64.7944, 18.3695 ], [ -64.7947, 18.3695 ], [ -64.7941, 18.3699 ] ] ], [ [ [ -64.7966, 18.3564 ], [ -64.7964, 18.3564 ], [ -64.7968, 18.3555 ], [ -64.7972, 18.3559 ], [ -64.7966, 18.3564 ] ] ], [ [ [ -64.797, 18.3375 ], [ -64.7956, 18.3386 ], [ -64.7942, 18.3386 ], [ -64.7902, 18.3416 ], [ -64.789, 18.3459 ], [ -64.788, 18.3463 ], [ -64.787, 18.3476 ], [ -64.7871, 18.3491 ], [ -64.7877, 18.3497 ], [ -64.7882, 18.3496 ], [ -64.7885, 18.3507 ], [ -64.7869, 18.3529 ], [ -64.7854, 18.353 ], [ -64.785, 18.3537 ], [ -64.7852, 18.354 ], [ -64.7736, 18.3534 ], [ -64.7705, 18.3516 ], [ -64.7684, 18.3541 ], [ -64.7691, 18.3551 ], [ -64.7687, 18.3558 ], [ -64.7681, 18.3544 ], [ -64.7526, 18.3706 ], [ -64.7515, 18.3723 ], [ -64.7488, 18.373 ], [ -64.7417, 18.3725 ], [ -64.7387, 18.3719 ], [ -64.7367, 18.371 ], [ -64.7358, 18.3711 ], [ -64.7204, 18.3678 ], [ -64.7116, 18.3671 ], [ -64.7101, 18.3658 ], [ -64.7079, 18.3652 ], [ -64.7011, 18.3611 ], [ -64.6991, 18.3619 ], [ -64.6943, 18.3621 ], [ -64.691, 18.3612 ], [ -64.6904, 18.3605 ], [ -64.6741, 18.3503 ], [ -64.673, 18.3498 ], [ -64.6719, 18.3498 ], [ -64.6713, 18.3486 ], [ -64.6691, 18.3487 ], [ -64.6652, 18.3456 ], [ -64.6624, 18.345 ], [ -64.6618, 18.3439 ], [ -64.6606, 18.3434 ], [ -64.6614, 18.3417 ], [ -64.6605, 18.3398 ], [ -64.6621, 18.3336 ], [ -64.7016, 18.2988 ], [ -64.7026, 18.2987 ], [ -64.7029, 18.2982 ], [ -64.7036, 18.2986 ], [ -64.7033, 18.2989 ], [ -64.7036, 18.2992 ], [ -64.7031, 18.3031 ], [ -64.7039, 18.3042 ], [ -64.7046, 18.3044 ], [ -64.7054, 18.304 ], [ -64.7118, 18.3063 ], [ -64.7202, 18.3075 ], [ -64.7213, 18.3072 ], [ -64.7217, 18.3079 ], [ -64.7322, 18.314 ], [ -64.7325, 18.3151 ], [ -64.7337, 18.3149 ], [ -64.7351, 18.3162 ], [ -64.7372, 18.3168 ], [ -64.7376, 18.3164 ], [ -64.7563, 18.3166 ], [ -64.7563, 18.3262 ], [ -64.7599, 18.3263 ], [ -64.7643, 18.329 ], [ -64.7646, 18.3297 ], [ -64.7678, 18.331 ], [ -64.7694, 18.3308 ], [ -64.7703, 18.3327 ], [ -64.7703, 18.3336 ], [ -64.7718, 18.3336 ], [ -64.7724, 18.3339 ], [ -64.7726, 18.3348 ], [ -64.7733, 18.3347 ], [ -64.773, 18.3363 ], [ -64.7733, 18.3372 ], [ -64.7761, 18.3365 ], [ -64.7839, 18.3359 ], [ -64.7848, 18.3364 ], [ -64.7872, 18.3367 ], [ -64.7882, 18.3334 ], [ -64.793, 18.3329 ], [ -64.7931, 18.3323 ], [ -64.7934, 18.3328 ], [ -64.794, 18.3326 ], [ -64.7947, 18.3333 ], [ -64.7988, 18.3332 ], [ -64.7982, 18.3356 ], [ -64.799, 18.3367 ], [ -64.797, 18.3375 ] ] ], [ [ [ -64.8025, 18.3597 ], [ -64.8025, 18.3596 ], [ -64.8027, 18.3596 ], [ -64.8025, 18.3597 ] ] ], [ [ [ -64.8019, 18.3688 ], [ -64.7976, 18.3691 ], [ -64.8041, 18.3668 ], [ -64.8082, 18.367 ], [ -64.8019, 18.3688 ] ] ], [ [ [ -64.8123, 18.3625 ], [ -64.8079, 18.3624 ], [ -64.8053, 18.3637 ], [ -64.8035, 18.3636 ], [ -64.8017, 18.3655 ], [ -64.7992, 18.365 ], [ -64.7978, 18.3636 ], [ -64.8008, 18.3614 ], [ -64.8016, 18.3603 ], [ -64.8036, 18.361 ], [ -64.8068, 18.3609 ], [ -64.8097, 18.3585 ], [ -64.8106, 18.3597 ], [ -64.8134, 18.3616 ], [ -64.8123, 18.3625 ] ] ], [ [ [ -64.8169, 18.3436 ], [ -64.8167, 18.3435 ], [ -64.817, 18.3433 ], [ -64.8169, 18.3436 ] ] ], [ [ [ -64.8174, 18.3427 ], [ -64.8172, 18.343 ], [ -64.8172, 18.3426 ], [ -64.8174, 18.3427 ] ] ], [ [ [ -64.8232, 18.3611 ], [ -64.8207, 18.3604 ], [ -64.8155, 18.3605 ], [ -64.815, 18.3593 ], [ -64.8157, 18.3584 ], [ -64.8166, 18.3581 ], [ -64.8206, 18.3591 ], [ -64.8228, 18.3589 ], [ -64.825, 18.3597 ], [ -64.8254, 18.3603 ], [ -64.8232, 18.3611 ] ] ], [ [ [ -64.8393, 18.3577 ], [ -64.837, 18.3578 ], [ -64.8359, 18.3593 ], [ -64.8347, 18.3592 ], [ -64.8342, 18.3598 ], [ -64.8327, 18.36 ], [ -64.832, 18.3596 ], [ -64.8279, 18.3606 ], [ -64.8262, 18.3603 ], [ -64.8265, 18.3597 ], [ -64.8288, 18.3589 ], [ -64.832, 18.3585 ], [ -64.8342, 18.357 ], [ -64.8345, 18.3575 ], [ -64.8358, 18.3577 ], [ -64.839, 18.3566 ], [ -64.8399, 18.3569 ], [ -64.8393, 18.3577 ] ] ] ] } },
{ "type": "Feature", "properties": { "GEOIDFQ": "1400000US78030961200", "NAME": "9612", "NAMELSAD": "Census Tract 9612" }, "geometry": { "type": "Polygon", "coordinates": [ [ [ -64.9305, 18.3397 ], [ -64.9303, 18.3401 ], [ -64.9312, 18.3405 ], [ -64.9313, 18.3458 ], [ -64.9292, 18.3448 ], [ -64.9286, 18.3515 ], [ -64.9258, 18.3512 ], [ -64.9247, 18.3506 ], [ -64.9214, 18.3504 ], [ -64.923, 18.343 ], [ -64.9235, 18.3433 ], [ -64.9236, 18.3423 ], [ -64.9213, 18.3415 ], [ -64.9213, 18.3399 ], [ -64.9227, 18.3374 ], [ -64.9212, 18.3367 ], [ -64.9194, 18.3346 ], [ -64.9288, 18.3289 ], [ -64.9305, 18.3396 ], [ -64.9314, 18.3397 ], [ -64.9305, 18.3397 ] ] ] } },
{ "type": "Feature", "properties": { "GEOIDFQ": "1400000US78030960800", "NAME": "9608", "NAMELSAD": "Census Tract 9608" }, "geometry": { "type": "MultiPolygon", "coordinates": [ [ [ [ -64.9574, 18.3062 ], [ -64.9574, 18.3061 ], [ -64.9576, 18.3061 ], [ -64.9574, 18.3062 ] ] ], [ [ [ -64.9854, 18.3451 ], [ -64.985, 18.346 ], [ -64.984, 18.3462 ], [ -64.9813, 18.3458 ], [ -64.9802, 18.3453 ], [ -64.9771, 18.3495 ], [ -64.9756, 18.3483 ], [ -64.9758, 18.3478 ], [ -64.9729, 18.3466 ], [ -64.9711, 18.3468 ], [ -64.9711, 18.3535 ], [ -64.9705, 18.355 ], [ -64.9708, 18.357 ], [ -64.9681, 18.3554 ], [ -64.9641, 18.3546 ], [ -64.9639, 18.3516 ], [ -64.9628, 18.3518 ], [ -64.9623, 18.3513 ], [ -64.9609, 18.3509 ], [ -64.9585, 18.3478 ], [ -64.9572, 18.3476 ], [ -64.9561, 18.3458 ], [ -64.9551, 18.3452 ], [ -64.9561, 18.3448 ], [ -64.9545, 18.3427 ], [ -64.9547, 18.341 ], [ -64.9529, 18.3378 ], [ -64.9531, 18.3371 ], [ -64.9451, 18.338 ], [ -64.9444, 18.3359 ], [ -64.9448, 18.3352 ], [ -64.9447, 18.3349 ], [ -64.944, 18.3347 ], [ -64.9434, 18.3343 ], [ -64.9434, 18.3342 ], [ -64.9444, 18.3342 ], [ -64.9448, 18.3338 ], [ -64.9443, 18.3298 ], [ -64.9418, 18.3271 ], [ -64.942, 18.3266 ], [ -64.9418, 18.3265 ], [ -64.9425, 18.3257 ], [ -64.9419, 18.3251 ], [ -64.9413, 18.321 ], [ -64.9401, 18.3174 ], [ -64.9406, 18.3172 ], [ -64.9426, 18.3174 ], [ -64.9512, 18.3171 ], [ -64.952, 18.3126 ], [ -64.953, 18.3107 ], [ -64.9529, 18.309 ], [ -64.9536, 18.3075 ], [ -64.9548, 18.3073 ], [ -64.9557, 18.3063 ], [ -64.9566, 18.3065 ], [ -64.9577, 18.3062 ], [ -64.9585, 18.3073 ], [ -64.9602, 18.3076 ], [ -64.9599, 18.3091 ], [ -64.9604, 18.3097 ], [ -64.9612, 18.3137 ], [ -64.9606, 18.3143 ], [ -64.9588, 18.3185 ], [ -64.9638, 18.3247 ], [ -64.9647, 18.3248 ], [ -64.9724, 18.3293 ], [ -64.9748, 18.3353 ], [ -64.983, 18.3353 ], [ -64.9839, 18.3356 ], [ -64.9858, 18.3452 ], [ -64.9854, 18.3451 ] ] ] ] } },
{ "type": "Feature", "properties": { "GEOIDFQ": "1400000US78030960100", "NAME": "9601", "NAMELSAD": "Census Tract 9601" }, "geometry": { "type": "MultiPolygon", "coordinates": [ [ [ [ -64.8447, 18.3376 ], [ -64.8441, 18.3376 ], [ -64.8444, 18.3372 ], [ -64.8453, 18.337 ], [ -64.8447, 18.3376 ] ] ], [ [ [ -64.8584, 18.3466 ], [ -64.8583, 18.3465 ], [ -64.8584, 18.3464 ], [ -64.8584, 18.3466 ] ] ], [ [ [ -64.8761, 18.3609 ], [ -64.8758, 18.3608 ], [ -64.8763, 18.3605 ], [ -64.8761, 18.3609 ] ] ], [ [ [ -64.8865, 18.3582 ], [ -64.8837, 18.3558 ], [ -64.8834, 18.355 ], [ -64.8817, 18.3552 ], [ -64.8797, 18.3546 ], [ -64.8759, 18.3606 ], [ -64.8751, 18.3609 ], [ -64.8719, 18.3606 ], [ -64.8706, 18.361 ], [ -64.8701, 18.3618 ], [ -64.8708, 18.3634 ], [ -64.869, 18.3627 ], [ -64.8692, 18.3619 ], [ -64.8659, 18.361 ], [ -64.8652, 18.3604 ], [ -64.8643, 18.3607 ], [ -64.8599, 18.3599 ], [ -64.8581, 18.3603 ], [ -64.8571, 18.3597 ], [ -64.8538, 18.3606 ], [ -64.8543, 18.3616 ], [ -64.8537, 18.362 ], [ -64.8537, 18.363 ], [ -64.8526, 18.3613 ], [ -64.853, 18.3605 ], [ -64.8521, 18.3604 ], [ -64.8513, 18.3611 ], [ -64.8495, 18.3606 ], [ -64.8482, 18.3591 ], [ -64.8484, 18.3579 ], [ -64.8474, 18.3575 ], [ -64.8626, 18.3494 ], [ -64.8616, 18.3444 ], [ -64.8602, 18.3421 ], [ -64.8574, 18.3399 ], [ -64.8535, 18.3395 ], [ -64.8521, 18.3397 ], [ -64.8514, 18.3404 ], [ -64.85, 18.3394 ], [ -64.8481, 18.3355 ], [ -64.8475, 18.3332 ], [ -64.8453, 18.3313 ], [ -64.8449, 18.3295 ], [ -64.846, 18.3284 ], [ -64.8483, 18.3278 ], [ -64.8487, 18.3265 ], [ -64.8492, 18.3266 ], [ -64.8499, 18.3259 ], [ -64.85, 18.3262 ], [ -64.8507, 18.326 ], [ -64.8529, 18.3246 ], [ -64.8527, 18.3288 ], [ -64.8616, 18.3296 ], [ -64.8613, 18.3346 ], [ -64.8693, 18.3339 ], [ -64.8715, 18.3351 ], [ -64.8718, 18.3374 ], [ -64.8745, 18.339 ], [ -64.8775, 18.3398 ], [ -64.8785, 18.3442 ], [ -64.8791, 18.3434 ], [ -64.8806, 18.344 ], [ -64.8809, 18.3431 ], [ -64.8814, 18.3428 ], [ -64.8812, 18.3441 ], [ -64.8799, 18.3446 ], [ -64.882, 18.3481 ], [ -64.8848, 18.3499 ], [ -64.8884, 18.3498 ], [ -64.8886, 18.3547 ], [ -64.8894, 18.3545 ], [ -64.8865, 18.3582 ] ] ] ] } },
{ "type": "Feature", "properties": { "GEOIDFQ": "1400000US78030990000", "NAME": "9900", "NAMELSAD": "Census Tract 9900" }, "geometry": { "type": "Polygon", "coordinates": [ [ [ -65.1536, 18.2931 ], [ -65.1507, 18.3028 ], [ -65.1448, 18.3129 ], [ -65.1377, 18.3206 ], [ -65.1394, 18.3284 ], [ -65.1399, 18.3363 ], [ -65.1351, 18.3509 ], [ -65.1303, 18.3615 ], [ -65.1246, 18.3693 ], [ -65.1229, 18.373 ], [ -65.1174, 18.3802 ], [ -65.1163, 18.3866 ], [ -65.1149, 18.3914 ], [ -65.1131, 18.3958 ], [ -65.1138, 18.4069 ], [ -65.1122, 18.4188 ], [ -65.1073, 18.4286 ], [ -65.1004, 18.4395 ], [ -65.0918, 18.4471 ], [ -65.0806, 18.4528 ], [ -65.0607, 18.4597 ], [ -65.0415, 18.4591 ], [ -65.0304, 18.4554 ], [ -65.0173, 18.4493 ], [ -65.0078, 18.4407 ], [ -65.0025, 18.4442 ], [ -64.9996, 18.4455 ], [ -64.9875, 18.4497 ], [ -64.9824, 18.4507 ], [ -64.9749, 18.4513 ], [ -64.9692, 18.4509 ], [ -64.9596, 18.4491 ], [ -64.9505, 18.4463 ], [ -64.9461, 18.4513 ], [ -64.9427, 18.4542 ], [ -64.9385, 18.4568 ], [ -64.933, 18.4596 ], [ -64.9276, 18.4619 ], [ -64.9211, 18.4638 ], [ -64.9076, 18.465 ], [ -64.8999, 18.4645 ], [ -64.891, 18.4622 ], [ -64.8746, 18.4107 ], [ -64.8739, 18.4063 ], [ -64.865, 18.3959 ], [ -64.8599, 18.3942 ], [ -64.8437, 18.3937 ], [ -64.8437, 18.3495 ], [ -64.7999, 18.3168 ], [ -64.7683, 18.2603 ], [ -64.7734, 18.2605 ], [ -64.7788, 18.2555 ], [ -64.7829, 18.2527 ], [ -64.7925, 18.248 ], [ -64.8013, 18.2451 ], [ -64.7995, 18.2365 ], [ -64.7993, 18.2293 ], [ -64.8, 18.2226 ], [ -64.8028, 18.2134 ], [ -64.8069, 18.2052 ], [ -64.8118, 18.1987 ], [ -64.8185, 18.1921 ], [ -64.8249, 18.188 ], [ -64.8334, 18.1835 ], [ -64.8417, 18.1809 ], [ -64.8496, 18.1797 ], [ -64.858, 18.1796 ], [ -64.865, 18.1809 ], [ -64.8725, 18.1835 ], [ -64.8864, 18.1914 ], [ -64.8898, 18.1942 ], [ -64.8955, 18.2005 ], [ -64.8998, 18.2065 ], [ -64.9052, 18.2185 ], [ -64.9062, 18.2242 ], [ -64.9132, 18.2259 ], [ -64.921, 18.2288 ], [ -64.9269, 18.2326 ], [ -64.9337, 18.238 ], [ -64.9396, 18.2446 ], [ -64.9421, 18.248 ], [ -64.9465, 18.2572 ], [ -64.9543, 18.2561 ], [ -64.961, 18.2561 ], [ -64.9674, 18.2567 ], [ -64.9739, 18.2561 ], [ -64.978, 18.2564 ], [ -64.9804, 18.2569 ], [ -64.9892, 18.2552 ], [ -64.9979, 18.2525 ], [ -64.9996, 18.2527 ], [ -65.0086, 18.2516 ], [ -65.0198, 18.2524 ], [ -65.0316, 18.2563 ], [ -65.0486, 18.2668 ], [ -65.0502, 18.2691 ], [ -65.0509, 18.2664 ], [ -65.0528, 18.2624 ], [ -65.0577, 18.2542 ], [ -65.0677, 18.2439 ], [ -65.0768, 18.2382 ], [ -65.081, 18.2365 ], [ -65.0843, 18.2354 ], [ -65.1008, 18.2326 ], [ -65.1173, 18.2348 ], [ -65.1312, 18.2418 ], [ -65.1426, 18.2508 ], [ -65.1477, 18.2591 ], [ -65.1519, 18.2689 ], [ -65.1541, 18.2774 ], [ -65.1536, 18.2931 ] ], [ [ -65.1006, 18.2828 ], [ -65.1002, 18.2829 ], [ -65.1004, 18.2835 ], [ -65.1013, 18.2833 ], [ -65.1006, 18.2828 ] ], [ [ -65.0847, 18.335 ], [ -65.0839, 18.3358 ], [ -65.0803, 18.337 ], [ -65.0793, 18.3369 ], [ -65.0787, 18.3361 ], [ -65.0777, 18.3363 ], [ -65.0771, 18.3371 ], [ -65.0774, 18.3378 ], [ -65.0768, 18.3391 ], [ -65.0759, 18.3394 ], [ -65.075, 18.3388 ], [ -65.0742, 18.3396 ], [ -65.0746, 18.3407 ], [ -65.0737, 18.3418 ], [ -65.0746, 18.3434 ], [ -65.0754, 18.344 ], [ -65.0745, 18.3456 ], [ -65.075, 18.3468 ], [ -65.0759, 18.3468 ], [ -65.0762, 18.3459 ], [ -65.0772, 18.3456 ], [ -65.0776, 18.3446 ], [ -65.0783, 18.3446 ], [ -65.0792, 18.344 ], [ -65.0798, 18.3433 ], [ -65.0797, 18.3426 ], [ -65.0807, 18.343 ], [ -65.0812, 18.3424 ], [ -65.0811, 18.3419 ], [ -65.0817, 18.342 ], [ -65.0823, 18.3415 ], [ -65.0816, 18.3402 ], [ -65.0821, 18.339 ], [ -65.0837, 18.3385 ], [ -65.0847, 18.3391 ], [ -65.0846, 18.3379 ], [ -65.0854, 18.3369 ], [ -65.0854, 18.3355 ], [ -65.0847, 18.335 ] ], [ [ -65.0715, 18.3412 ], [ -65.0716, 18.3415 ], [ -65.0717, 18.3414 ], [ -65.0715, 18.3412 ] ], [ [ -65.0707, 18.3412 ], [ -65.0707, 18.3414 ], [ -65.0708, 18.3414 ], [ -65.0712, 18.3409 ], [ -65.0707, 18.3412 ] ], [ [ -65.064, 18.3778 ], [ -65.0638, 18.3782 ], [ -65.0641, 18.3782 ], [ -65.0644, 18.3779 ], [ -65.064, 18.3778 ] ], [ [ -65.0633, 18.3784 ], [ -65.0612, 18.3781 ], [ -65.0605, 18.3786 ], [ -65.0602, 18.3803 ], [ -65.0592, 18.3811 ], [ -65.0598, 18.3818 ], [ -65.0612, 18.3817 ], [ -65.062, 18.3814 ], [ -65.0622, 18.3809 ], [ -65.0639, 18.3805 ], [ -65.0643, 18.3799 ], [ -65.0633, 18.3784 ] ], [ [ -65.0614, 18.4032 ], [ -65.0605, 18.403 ], [ -65.0589, 18.4036 ], [ -65.0586, 18.4031 ], [ -65.0574, 18.4033 ], [ -65.0584, 18.4041 ], [ -65.0583, 18.4049 ], [ -65.0593, 18.4062 ], [ -65.0595, 18.4053 ], [ -65.0601, 18.4049 ], [ -65.0612, 18.4053 ], [ -65.0616, 18.4045 ], [ -65.0619, 18.4043 ], [ -65.0622, 18.4046 ], [ -65.0625, 18.4042 ], [ -65.0614, 18.4032 ] ], [ [ -65.0578, 18.3495 ], [ -65.0572, 18.3495 ], [ -65.0578, 18.3516 ], [ -65.0582, 18.3516 ], [ -65.0578, 18.3495 ] ], [ [ -65.0541, 18.361 ], [ -65.0536, 18.361 ], [ -65.0521, 18.359 ], [ -65.0456, 18.3563 ], [ -65.0449, 18.3563 ], [ -65.0419, 18.3523 ], [ -65.041, 18.3527 ], [ -65.0403, 18.3523 ], [ -65.0403, 18.3518 ], [ -65.0408, 18.3514 ], [ -65.0402, 18.3515 ], [ -65.0399, 18.3508 ], [ -65.0394, 18.351 ], [ -65.0382, 18.3495 ], [ -65.0374, 18.3492 ], [ -65.0372, 18.3484 ], [ -65.0359, 18.3483 ], [ -65.0344, 18.3466 ], [ -65.0267, 18.3411 ], [ -65.0114, 18.3422 ], [ -65.0107, 18.3426 ], [ -65.0097, 18.344 ], [ -65.005, 18.345 ], [ -65.0047, 18.3455 ], [ -65.0028, 18.3462 ], [ -65.0021, 18.3461 ], [ -65.0021, 18.3458 ], [ -65.0013, 18.3461 ], [ -64.986, 18.3452 ], [ -64.9839, 18.3356 ], [ -64.983, 18.3353 ], [ -64.9748, 18.3353 ], [ -64.9724, 18.3293 ], [ -64.9647, 18.3248 ], [ -64.9638, 18.3247 ], [ -64.9588, 18.3185 ], [ -64.9612, 18.3134 ], [ -64.9604, 18.3097 ], [ -64.9599, 18.3091 ], [ -64.9602, 18.3077 ], [ -64.9585, 18.3073 ], [ -64.9577, 18.3062 ], [ -64.9566, 18.3065 ], [ -64.9557, 18.3063 ], [ -64.9548, 18.3073 ], [ -64.9536, 18.3076 ], [ -64.9529, 18.309 ], [ -64.953, 18.3107 ], [ -64.952, 18.3126 ], [ -64.9512, 18.3171 ], [ -64.9405, 18.3172 ], [ -64.9329, 18.3225 ], [ -64.9227, 18.3196 ], [ -64.9165, 18.3187 ], [ -64.9132, 18.3165 ], [ -64.9127, 18.3167 ], [ -64.9116, 18.3162 ], [ -64.9113, 18.3153 ], [ -64.9103, 18.315 ], [ -64.9061, 18.3109 ], [ -64.8983, 18.3097 ], [ -64.8947, 18.3116 ], [ -64.8876, 18.3107 ], [ -64.887, 18.3103 ], [ -64.8865, 18.3091 ], [ -64.8857, 18.3091 ], [ -64.8852, 18.3083 ], [ -64.8843, 18.3087 ], [ -64.8837, 18.308 ], [ -64.8794, 18.306 ], [ -64.8786, 18.305 ], [ -64.8789, 18.3029 ], [ -64.8785, 18.3027 ], [ -64.8763, 18.3035 ], [ -64.8757, 18.3042 ], [ -64.8749, 18.3038 ], [ -64.8699, 18.3043 ], [ -64.8645, 18.3068 ], [ -64.8629, 18.3067 ], [ -64.8459, 18.3116 ], [ -64.8364, 18.3026 ], [ -64.8292, 18.2978 ], [ -64.8221, 18.297 ], [ -64.8177, 18.2951 ], [ -64.8163, 18.2936 ], [ -64.812, 18.2946 ], [ -64.8144, 18.296 ], [ -64.821, 18.3063 ], [ -64.8229, 18.3134 ], [ -64.8261, 18.3168 ], [ -64.8318, 18.3248 ], [ -64.8333, 18.326 ], [ -64.8332, 18.3265 ], [ -64.8449, 18.3305 ], [ -64.8475, 18.3332 ], [ -64.8481, 18.3355 ], [ -64.85, 18.3394 ], [ -64.8511, 18.3403 ], [ -64.8535, 18.3395 ], [ -64.8574, 18.3399 ], [ -64.8592, 18.3411 ], [ -64.8613, 18.3436 ], [ -64.8626, 18.3494 ], [ -64.8515, 18.3551 ], [ -64.8496, 18.3564 ], [ -64.8476, 18.3571 ], [ -64.8474, 18.3575 ], [ -64.8484, 18.3579 ], [ -64.8482, 18.3591 ], [ -64.8494, 18.3606 ], [ -64.8513, 18.3611 ], [ -64.8521, 18.3604 ], [ -64.853, 18.3605 ], [ -64.8526, 18.3613 ], [ -64.8537, 18.3631 ], [ -64.8537, 18.362 ], [ -64.8543, 18.3616 ], [ -64.8538, 18.3606 ], [ -64.8543, 18.3603 ], [ -64.8571, 18.3597 ], [ -64.8581, 18.3603 ], [ -64.8599, 18.3599 ], [ -64.8643, 18.3607 ], [ -64.8652, 18.3604 ], [ -64.8659, 18.361 ], [ -64.8692, 18.3619 ], [ -64.869, 18.3627 ], [ -64.8708, 18.3634 ], [ -64.8701, 18.3618 ], [ -64.8706, 18.361 ], [ -64.8719, 18.3606 ], [ -64.8751, 18.3609 ], [ -64.8759, 18.3606 ], [ -64.8797, 18.3546 ], [ -64.8817, 18.3552 ], [ -64.8834, 18.355 ], [ -64.8837, 18.3558 ], [ -64.8918, 18.3626 ], [ -64.8927, 18.363 ], [ -64.8999, 18.3631 ], [ -64.9006, 18.3638 ], [ -64.9021, 18.364 ], [ -64.9028, 18.3649 ], [ -64.9035, 18.3648 ], [ -64.9038, 18.3653 ], [ -64.9059, 18.3654 ], [ -64.9062, 18.3651 ], [ -64.9085, 18.366 ], [ -64.9116, 18.3658 ], [ -64.9158, 18.3685 ], [ -64.9171, 18.3688 ], [ -64.9174, 18.3686 ], [ -64.9186, 18.37 ], [ -64.9196, 18.3699 ], [ -64.9207, 18.3705 ], [ -64.9214, 18.3703 ], [ -64.9226, 18.3717 ], [ -64.9232, 18.3716 ], [ -64.9232, 18.3729 ], [ -64.9246, 18.3735 ], [ -64.9246, 18.3741 ], [ -64.9256, 18.375 ], [ -64.9272, 18.375 ], [ -64.9286, 18.3767 ], [ -64.9291, 18.3769 ], [ -64.9291, 18.3764 ], [ -64.9298, 18.377 ], [ -64.9303, 18.3767 ], [ -64.9308, 18.3776 ], [ -64.9329, 18.3785 ], [ -64.9335, 18.3782 ], [ -64.9355, 18.3792 ], [ -64.937, 18.3804 ], [ -64.9378, 18.3818 ], [ -64.9406, 18.3833 ], [ -64.9529, 18.377 ], [ -64.9601, 18.3714 ], [ -64.9656, 18.3767 ], [ -64.9656, 18.3779 ], [ -64.9665, 18.3787 ], [ -64.9665, 18.3799 ], [ -64.9681, 18.3811 ], [ -64.9682, 18.3816 ], [ -64.9673, 18.3827 ], [ -64.9677, 18.3833 ], [ -64.9673, 18.3844 ], [ -64.9674, 18.3926 ], [ -64.967, 18.3932 ], [ -64.9676, 18.3928 ], [ -64.9674, 18.3936 ], [ -64.9681, 18.3938 ], [ -64.9686, 18.395 ], [ -64.9714, 18.3973 ], [ -64.9714, 18.3985 ], [ -64.9719, 18.3984 ], [ -64.9728, 18.4004 ], [ -64.9754, 18.4019 ], [ -64.9746, 18.3994 ], [ -64.9749, 18.3994 ], [ -64.9761, 18.3857 ], [ -64.9823, 18.3726 ], [ -64.9908, 18.372 ], [ -65.0061, 18.3682 ], [ -65.0064, 18.3678 ], [ -65.0067, 18.3681 ], [ -65.011, 18.3628 ], [ -65.0139, 18.3617 ], [ -65.0148, 18.3615 ], [ -65.0156, 18.3618 ], [ -65.0158, 18.3614 ], [ -65.0179, 18.3611 ], [ -65.0207, 18.3616 ], [ -65.0209, 18.3612 ], [ -65.0227, 18.3614 ], [ -65.0238, 18.3617 ], [ -65.0238, 18.3622 ], [ -65.0241, 18.3616 ], [ -65.0252, 18.3614 ], [ -65.026, 18.3621 ], [ -65.0274, 18.3619 ], [ -65.0272, 18.3615 ], [ -65.0279, 18.3608 ], [ -65.028, 18.36 ], [ -65.0292, 18.3603 ], [ -65.0296, 18.3599 ], [ -65.0305, 18.3605 ], [ -65.0328, 18.36 ], [ -65.0469, 18.361 ], [ -65.0514, 18.3641 ], [ -65.0516, 18.3626 ], [ -65.0529, 18.3631 ], [ -65.0536, 18.3628 ], [ -65.0542, 18.364 ], [ -65.0561, 18.364 ], [ -65.0569, 18.3632 ], [ -65.0541, 18.361 ] ], [ [ -65.0497, 18.4089 ], [ -65.0499, 18.4076 ], [ -65.0496, 18.4074 ], [ -65.0491, 18.4091 ], [ -65.0502, 18.4093 ], [ -65.0497, 18.4089 ] ], [ [ -65.0023, 18.3036 ], [ -65.0014, 18.304 ], [ -65.0005, 18.3036 ], [ -65.0007, 18.304 ], [ -64.9996, 18.3043 ], [ -64.9995, 18.3047 ], [ -64.999, 18.3044 ], [ -64.998, 18.3051 ], [ -64.9997, 18.3087 ], [ -65.0003, 18.3092 ], [ -65.0012, 18.3089 ], [ -65.0028, 18.3045 ], [ -65.0023, 18.3036 ] ], [ [ -64.99, 18.3849 ], [ -64.9898, 18.3851 ], [ -64.9906, 18.3858 ], [ -64.9914, 18.3853 ], [ -64.99, 18.3849 ] ], [ [ -64.9896, 18.3156 ], [ -64.9886, 18.3178 ], [ -64.9902, 18.3173 ], [ -64.9904, 18.3169 ], [ -64.9896, 18.3156 ] ], [ [ -64.9537, 18.3769 ], [ -64.9536, 18.3768 ], [ -64.9537, 18.3773 ], [ -64.9537, 18.3769 ] ], [ [ -64.9161, 18.4035 ], [ -64.9158, 18.4017 ], [ -64.914, 18.4014 ], [ -64.9125, 18.4001 ], [ -64.9124, 18.3993 ], [ -64.9134, 18.3969 ], [ -64.9133, 18.3959 ], [ -64.9123, 18.3938 ], [ -64.9112, 18.3933 ], [ -64.9108, 18.3912 ], [ -64.9086, 18.3903 ], [ -64.9085, 18.3886 ], [ -64.9076, 18.3874 ], [ -64.9063, 18.3873 ], [ -64.9052, 18.3878 ], [ -64.8994, 18.3924 ], [ -64.8992, 18.3937 ], [ -64.9001, 18.3945 ], [ -64.9012, 18.3971 ], [ -64.9057, 18.4031 ], [ -64.9123, 18.4057 ], [ -64.9134, 18.4053 ], [ -64.9144, 18.406 ], [ -64.9163, 18.4056 ], [ -64.9175, 18.4043 ], [ -64.9161, 18.4035 ] ], [ [ -64.909, 18.4078 ], [ -64.9068, 18.4065 ], [ -64.9046, 18.406 ], [ -64.9028, 18.4078 ], [ -64.9027, 18.4096 ], [ -64.9036, 18.4105 ], [ -64.9044, 18.4105 ], [ -64.9048, 18.411 ], [ -64.9043, 18.4116 ], [ -64.9047, 18.4119 ], [ -64.9075, 18.4127 ], [ -64.909, 18.4126 ], [ -64.9104, 18.4111 ], [ -64.909, 18.4078 ] ], [ [ -64.9096, 18.4144 ], [ -64.9082, 18.4137 ], [ -64.908, 18.415 ], [ -64.9087, 18.4146 ], [ -64.9091, 18.4154 ], [ -64.9091, 18.415 ], [ -64.9097, 18.4149 ], [ -64.9096, 18.4144 ] ], [ [ -64.9081, 18.3096 ], [ -64.9079, 18.3102 ], [ -64.9083, 18.3101 ], [ -64.9081, 18.3096 ] ], [ [ -64.9081, 18.3092 ], [ -64.9078, 18.3094 ], [ -64.908, 18.3094 ], [ -64.9081, 18.3092 ] ], [ [ -64.9047, 18.4126 ], [ -64.9041, 18.4132 ], [ -64.905, 18.4133 ], [ -64.9054, 18.4128 ], [ -64.9047, 18.4126 ] ], [ [ -64.9027, 18.4098 ], [ -64.9025, 18.4098 ], [ -64.9028, 18.4101 ], [ -64.9027, 18.4098 ] ], [ [ -64.9008, 18.3842 ], [ -64.9007, 18.3843 ], [ -64.9011, 18.385 ], [ -64.9013, 18.3846 ], [ -64.9008, 18.3842 ] ], [ [ -64.8964, 18.2742 ], [ -64.8867, 18.274 ], [ -64.8856, 18.2763 ], [ -64.8937, 18.2798 ], [ -64.8989, 18.277 ], [ -64.8964, 18.2742 ] ], [ [ -64.8583, 18.3465 ], [ -64.8585, 18.3465 ], [ -64.8584, 18.3464 ], [ -64.8583, 18.3465 ] ], [ [ -64.8528, 18.2308 ], [ -64.8508, 18.2305 ], [ -64.851, 18.2314 ], [ -64.8519, 18.2325 ], [ -64.8528, 18.2327 ], [ -64.8537, 18.2322 ], [ -64.8528, 18.2308 ] ], [ [ -64.8444, 18.3372 ], [ -64.8441, 18.3376 ], [ -64.8447, 18.3376 ], [ -64.8452, 18.3369 ], [ -64.8444, 18.3372 ] ], [ [ -64.8759, 18.3609 ], [ -64.8765, 18.3608 ], [ -64.8763, 18.3605 ], [ -64.8759, 18.3609 ] ], [ [ -64.9576, 18.3061 ], [ -64.9574, 18.3061 ], [ -64.9574, 18.3062 ], [ -64.9576, 18.3061 ] ] ] } },
{ "type": "Feature", "properties": { "GEOIDFQ": "1400000US78030960400", "NAME": "9604", "NAMELSAD": "Census Tract 9604" }, "geometry": { "type": "MultiPolygon", "coordinates": [ [ [ [ -64.9011, 18.385 ], [ -64.9007, 18.3843 ], [ -64.9013, 18.3846 ], [ -64.9011, 18.385 ] ] ], [ [ [ -64.9025, 18.41 ], [ -64.9025, 18.4098 ], [ -64.9027, 18.4098 ], [ -64.9029, 18.4101 ], [ -64.9025, 18.41 ] ] ], [ [ [ -64.905, 18.4133 ], [ -64.9041, 18.4132 ], [ -64.9047, 18.4126 ], [ -64.9054, 18.4129 ], [ -64.905, 18.4133 ] ] ], [ [ [ -64.9091, 18.415 ], [ -64.9091, 18.4154 ], [ -64.9087, 18.4146 ], [ -64.908, 18.415 ], [ -64.9082, 18.4137 ], [ -64.9096, 18.4144 ], [ -64.9097, 18.415 ], [ -64.9091, 18.415 ] ] ], [ [ [ -64.909, 18.4126 ], [ -64.9075, 18.4127 ], [ -64.9047, 18.4119 ], [ -64.9043, 18.4116 ], [ -64.9048, 18.411 ], [ -64.9044, 18.4105 ], [ -64.9036, 18.4105 ], [ -64.9027, 18.4096 ], [ -64.9028, 18.4078 ], [ -64.9046, 18.406 ], [ -64.9068, 18.4065 ], [ -64.909, 18.4078 ], [ -64.9104, 18.4112 ], [ -64.909, 18.4126 ] ] ], [ [ [ -64.9163, 18.4056 ], [ -64.9144, 18.406 ], [ -64.9134, 18.4053 ], [ -64.9123, 18.4057 ], [ -64.9057, 18.4031 ], [ -64.9012, 18.3971 ], [ -64.9001, 18.3945 ], [ -64.8992, 18.3937 ], [ -64.8994, 18.3924 ], [ -64.9052, 18.3878 ], [ -64.9063, 18.3873 ], [ -64.9076, 18.3874 ], [ -64.9085, 18.3886 ], [ -64.9086, 18.3903 ], [ -64.9108, 18.3912 ], [ -64.9112, 18.3933 ], [ -64.9123, 18.3938 ], [ -64.9133, 18.3959 ], [ -64.9134, 18.3969 ], [ -64.9124, 18.3993 ], [ -64.9125, 18.4001 ], [ -64.914, 18.4014 ], [ -64.9158, 18.4017 ], [ -64.9161, 18.4035 ], [ -64.9175, 18.4043 ], [ -64.9163, 18.4056 ] ] ], [ [ [ -64.9388, 18.3529 ], [ -64.9389, 18.3541 ], [ -64.936, 18.3533 ], [ -64.9346, 18.3539 ], [ -64.9327, 18.3534 ], [ -64.9312, 18.352 ], [ -64.9308, 18.3528 ], [ -64.9314, 18.3533 ], [ -64.9297, 18.3561 ], [ -64.9298, 18.3568 ], [ -64.9332, 18.3574 ], [ -64.9319, 18.3602 ], [ -64.9312, 18.36 ], [ -64.9299, 18.3603 ], [ -64.9281, 18.3589 ], [ -64.9268, 18.3591 ], [ -64.9245, 18.3613 ], [ -64.922, 18.3661 ], [ -64.925, 18.3695 ], [ -64.935, 18.3765 ], [ -64.9365, 18.378 ], [ -64.9377, 18.3803 ], [ -64.9409, 18.3827 ], [ -64.9406, 18.3833 ], [ -64.9378, 18.3818 ], [ -64.937, 18.3804 ], [ -64.9355, 18.3792 ], [ -64.9335, 18.3782 ], [ -64.9329, 18.3785 ], [ -64.9308, 18.3776 ], [ -64.9303, 18.3767 ], [ -64.9298, 18.377 ], [ -64.9291, 18.3764 ], [ -64.9291, 18.3769 ], [ -64.9286, 18.3767 ], [ -64.9272, 18.375 ], [ -64.9256, 18.375 ], [ -64.9246, 18.3741 ], [ -64.9246, 18.3735 ], [ -64.9232, 18.3729 ], [ -64.9232, 18.3716 ], [ -64.9226, 18.3717 ], [ -64.9214, 18.3703 ], [ -64.9207, 18.3705 ], [ -64.9196, 18.3699 ], [ -64.9186, 18.37 ], [ -64.9174, 18.3686 ], [ -64.9171, 18.3688 ], [ -64.9158, 18.3685 ], [ -64.9114, 18.3658 ], [ -64.9094, 18.3661 ], [ -64.9077, 18.3658 ], [ -64.9062, 18.3651 ], [ -64.9059, 18.3654 ], [ -64.9038, 18.3653 ], [ -64.9035, 18.3648 ], [ -64.9028, 18.3649 ], [ -64.9023, 18.3646 ], [ -64.9021, 18.364 ], [ -64.9006, 18.3638 ], [ -64.8996, 18.3631 ], [ -64.8926, 18.363 ], [ -64.8907, 18.362 ], [ -64.8865, 18.3582 ], [ -64.8894, 18.3545 ], [ -64.8886, 18.3547 ], [ -64.8884, 18.3498 ], [ -64.8942, 18.3506 ], [ -64.8981, 18.3497 ], [ -64.8986, 18.3481 ], [ -64.8981, 18.3475 ], [ -64.9001, 18.3469 ], [ -64.9019, 18.347 ], [ -64.9017, 18.3461 ], [ -64.9028, 18.345 ], [ -64.9007, 18.3442 ], [ -64.9009, 18.3435 ], [ -64.9082, 18.3442 ], [ -64.9097, 18.3446 ], [ -64.91, 18.3465 ], [ -64.915, 18.3471 ], [ -64.9182, 18.3493 ], [ -64.9205, 18.3501 ], [ -64.9247, 18.3506 ], [ -64.9258, 18.3512 ], [ -64.9286, 18.3515 ], [ -64.9292, 18.3448 ], [ -64.9322, 18.3468 ], [ -64.9338, 18.3455 ], [ -64.9343, 18.3462 ], [ -64.9361, 18.3457 ], [ -64.9365, 18.3452 ], [ -64.9372, 18.3456 ], [ -64.9389, 18.3454 ], [ -64.9411, 18.3506 ], [ -64.9415, 18.353 ], [ -64.9388, 18.3529 ] ] ] ] } },
{ "type": "Feature", "properties": { "GEOIDFQ": "1400000US78030961000", "NAME": "9610", "NAMELSAD": "Census Tract 9610" }, "geometry": { "type": "Polygon", "coordinates": [ [ [ -64.9386, 18.3441 ], [ -64.9389, 18.3454 ], [ -64.9372, 18.3456 ], [ -64.9365, 18.3452 ], [ -64.9361, 18.3457 ], [ -64.9343, 18.3462 ], [ -64.9338, 18.3455 ], [ -64.9322, 18.3468 ], [ -64.9311, 18.3463 ], [ -64.9312, 18.3405 ], [ -64.9303, 18.3401 ], [ -64.9305, 18.3397 ], [ -64.9314, 18.3396 ], [ -64.9305, 18.3396 ], [ -64.9272, 18.3209 ], [ -64.9329, 18.3225 ], [ -64.9402, 18.3176 ], [ -64.9419, 18.3251 ], [ -64.9425, 18.3257 ], [ -64.9418, 18.3265 ], [ -64.942, 18.3266 ], [ -64.9418, 18.3271 ], [ -64.9443, 18.3298 ], [ -64.9448, 18.3338 ], [ -64.9434, 18.3343 ], [ -64.9448, 18.3352 ], [ -64.9444, 18.3359 ], [ -64.9451, 18.338 ], [ -64.9474, 18.3378 ], [ -64.948, 18.3452 ], [ -64.9386, 18.3441 ] ] ] } },
{ "type": "Feature", "properties": { "GEOIDFQ": "1400000US78030960500", "NAME": "9605", "NAMELSAD": "Census Tract 9605" }, "geometry": { "type": "MultiPolygon", "coordinates": [ [ [ [ -64.9535, 18.3771 ], [ -64.9536, 18.3768 ], [ -64.9537, 18.3769 ], [ -64.9535, 18.3771 ] ] ], [ [ [ -64.9889, 18.3179 ], [ -64.9886, 18.3178 ], [ -64.9896, 18.3156 ], [ -64.9904, 18.317 ], [ -64.9889, 18.3179 ] ] ], [ [ [ -64.9906, 18.3858 ], [ -64.9898, 18.3851 ], [ -64.9913, 18.3852 ], [ -64.9906, 18.3858 ] ] ], [ [ [ -65.0012, 18.3089 ], [ -65.0003, 18.3092 ], [ -64.9997, 18.3087 ], [ -64.998, 18.3051 ], [ -64.999, 18.3044 ], [ -64.9995, 18.3047 ], [ -64.9996, 18.3043 ], [ -65.0007, 18.304 ], [ -65.0005, 18.3036 ], [ -65.0014, 18.304 ], [ -65.0023, 18.3036 ], [ -65.0029, 18.3046 ], [ -65.0012, 18.3089 ] ] ], [ [ [ -65.0491, 18.4091 ], [ -65.0496, 18.4074 ], [ -65.0499, 18.4076 ], [ -65.0497, 18.4089 ], [ -65.0502, 18.4093 ], [ -65.0491, 18.4091 ] ] ], [ [ [ -65.0561, 18.364 ], [ -65.0542, 18.364 ], [ -65.0536, 18.3628 ], [ -65.0529, 18.3631 ], [ -65.0516, 18.3626 ], [ -65.0514, 18.3641 ], [ -65.0469, 18.361 ], [ -65.0328, 18.36 ], [ -65.0305, 18.3605 ], [ -65.0296, 18.3599 ], [ -65.0292, 18.3603 ], [ -65.028, 18.36 ], [ -65.0279, 18.3608 ], [ -65.0272, 18.3615 ], [ -65.0274, 18.3619 ], [ -65.026, 18.3621 ], [ -65.0252, 18.3614 ], [ -65.0241, 18.3616 ], [ -65.0238, 18.3622 ], [ -65.0238, 18.3617 ], [ -65.0227, 18.3614 ], [ -65.0209, 18.3612 ], [ -65.0207, 18.3616 ], [ -65.0179, 18.3611 ], [ -65.0158, 18.3614 ], [ -65.0156, 18.3618 ], [ -65.0148, 18.3615 ], [ -65.0139, 18.3617 ], [ -65.011, 18.3628 ], [ -65.0067, 18.3681 ], [ -65.0064, 18.3678 ], [ -65.0061, 18.3682 ], [ -64.9908, 18.372 ], [ -64.9823, 18.3726 ], [ -64.9761, 18.3857 ], [ -64.9749, 18.3994 ], [ -64.9746, 18.3994 ], [ -64.9754, 18.4019 ], [ -64.9728, 18.4004 ], [ -64.9719, 18.3984 ], [ -64.9714, 18.3985 ], [ -64.9714, 18.3973 ], [ -64.9686, 18.395 ], [ -64.9681, 18.3938 ], [ -64.9674, 18.3936 ], [ -64.9676, 18.3928 ], [ -64.967, 18.3932 ], [ -64.9674, 18.3926 ], [ -64.9673, 18.3844 ], [ -64.9677, 18.3833 ], [ -64.9673, 18.3827 ], [ -64.9682, 18.3816 ], [ -64.9681, 18.3811 ], [ -64.9665, 18.3799 ], [ -64.9665, 18.3787 ], [ -64.9656, 18.3779 ], [ -64.9656, 18.3767 ], [ -64.9601, 18.3714 ], [ -64.9529, 18.377 ], [ -64.9409, 18.3832 ], [ -64.9407, 18.3824 ], [ -64.9377, 18.3803 ], [ -64.9365, 18.378 ], [ -64.935, 18.3765 ], [ -64.925, 18.3695 ], [ -64.922, 18.3661 ], [ -64.9245, 18.3613 ], [ -64.9268, 18.3591 ], [ -64.9281, 18.3589 ], [ -64.9299, 18.3603 ], [ -64.9312, 18.36 ], [ -64.9319, 18.3602 ], [ -64.9332, 18.3574 ], [ -64.9298, 18.3568 ], [ -64.9297, 18.3561 ], [ -64.9314, 18.3533 ], [ -64.9308, 18.3528 ], [ -64.9312, 18.352 ], [ -64.9327, 18.3534 ], [ -64.9346, 18.3539 ], [ -64.936, 18.3533 ], [ -64.9389, 18.3541 ], [ -64.9388, 18.3529 ], [ -64.9415, 18.353 ], [ -64.942, 18.3544 ], [ -64.9437, 18.3546 ], [ -64.9445, 18.3552 ], [ -64.9452, 18.3547 ], [ -64.946, 18.3548 ], [ -64.9506, 18.3566 ], [ -64.9511, 18.3615 ], [ -64.9533, 18.3601 ], [ -64.9543, 18.3605 ], [ -64.9549, 18.3572 ], [ -64.9549, 18.3522 ], [ -64.9579, 18.3521 ], [ -64.9618, 18.3541 ], [ -64.9681, 18.3554 ], [ -64.9708, 18.357 ], [ -64.9705, 18.355 ], [ -64.9711, 18.3535 ], [ -64.9711, 18.3468 ], [ -64.9729, 18.3466 ], [ -64.9758, 18.3478 ], [ -64.9756, 18.3483 ], [ -64.9771, 18.3495 ], [ -64.9802, 18.3453 ], [ -64.9836, 18.3462 ], [ -64.985, 18.346 ], [ -64.9855, 18.3451 ], [ -65.0013, 18.3461 ], [ -65.0021, 18.3458 ], [ -65.0021, 18.3461 ], [ -65.0028, 18.3462 ], [ -65.0047, 18.3455 ], [ -65.005, 18.345 ], [ -65.0097, 18.344 ], [ -65.0107, 18.3426 ], [ -65.0114, 18.3422 ], [ -65.0235, 18.3412 ], [ -65.0247, 18.3414 ], [ -65.0267, 18.3411 ], [ -65.0286, 18.3422 ], [ -65.0344, 18.3466 ], [ -65.0359, 18.3483 ], [ -65.0372, 18.3484 ], [ -65.0374, 18.3492 ], [ -65.0382, 18.3495 ], [ -65.0392, 18.3508 ], [ -65.0399, 18.3508 ], [ -65.0402, 18.3515 ], [ -65.0408, 18.3514 ], [ -65.0403, 18.3518 ], [ -65.0403, 18.3523 ], [ -65.041, 18.3527 ], [ -65.0419, 18.3523 ], [ -65.0449, 18.3563 ], [ -65.0456, 18.3563 ], [ -65.0521, 18.359 ], [ -65.0536, 18.361 ], [ -65.0555, 18.3619 ], [ -65.0569, 18.3632 ], [ -65.0561, 18.364 ] ] ], [ [ [ -65.0582, 18.3516 ], [ -65.0578, 18.3516 ], [ -65.0571, 18.3499 ], [ -65.0572, 18.3495 ], [ -65.0578, 18.3495 ], [ -65.0582, 18.3516 ] ] ], [ [ [ -65.0622, 18.4046 ], [ -65.0619, 18.4043 ], [ -65.0616, 18.4045 ], [ -65.0612, 18.4053 ], [ -65.0601, 18.4049 ], [ -65.0595, 18.4053 ], [ -65.0593, 18.4062 ], [ -65.0583, 18.4049 ], [ -65.0584, 18.4041 ], [ -65.0574, 18.4033 ], [ -65.0586, 18.4031 ], [ -65.0589, 18.4036 ], [ -65.0605, 18.403 ], [ -65.0614, 18.4032 ], [ -65.0625, 18.4043 ], [ -65.0622, 18.4046 ] ] ], [ [ [ -65.0639, 18.3805 ], [ -65.0622, 18.3809 ], [ -65.062, 18.3814 ], [ -65.0612, 18.3817 ], [ -65.0598, 18.3818 ], [ -65.0592, 18.3811 ], [ -65.0602, 18.3803 ], [ -65.0605, 18.3786 ], [ -65.0612, 18.3781 ], [ -65.0633, 18.3784 ], [ -65.0643, 18.38 ], [ -65.0639, 18.3805 ] ] ], [ [ [ -65.0638, 18.3782 ], [ -65.0638, 18.3779 ], [ -65.0643, 18.3778 ], [ -65.0643, 18.3781 ], [ -65.0638, 18.3782 ] ] ], [ [ [ -65.0708, 18.3414 ], [ -65.0707, 18.3414 ], [ -65.0707, 18.3412 ], [ -65.0712, 18.341 ], [ -65.0708, 18.3414 ] ] ], [ [ [ -65.0716, 18.3415 ], [ -65.0715, 18.3412 ], [ -65.0717, 18.3412 ], [ -65.0716, 18.3415 ] ] ], [ [ [ -65.0854, 18.3369 ], [ -65.0846, 18.3379 ], [ -65.0847, 18.3391 ], [ -65.0837, 18.3385 ], [ -65.0821, 18.339 ], [ -65.0816, 18.3402 ], [ -65.0823, 18.3415 ], [ -65.0817, 18.342 ], [ -65.0811, 18.3419 ], [ -65.0812, 18.3424 ], [ -65.0807, 18.343 ], [ -65.0797, 18.3426 ], [ -65.0798, 18.3433 ], [ -65.0792, 18.344 ], [ -65.0783, 18.3446 ], [ -65.0776, 18.3446 ], [ -65.0772, 18.3456 ], [ -65.0762, 18.3459 ], [ -65.0759, 18.3468 ], [ -65.075, 18.3468 ], [ -65.0745, 18.3456 ], [ -65.0754, 18.344 ], [ -65.0746, 18.3434 ], [ -65.0737, 18.3418 ], [ -65.0746, 18.3407 ], [ -65.0742, 18.3396 ], [ -65.075, 18.3388 ], [ -65.0759, 18.3394 ], [ -65.0768, 18.3391 ], [ -65.0774, 18.3378 ], [ -65.0771, 18.3371 ], [ -65.0777, 18.3363 ], [ -65.0787, 18.3361 ], [ -65.0793, 18.3369 ], [ -65.0803, 18.337 ], [ -65.0839, 18.3358 ], [ -65.0847, 18.335 ], [ -65.0855, 18.3355 ], [ -65.0854, 18.3369 ] ] ], [ [ [ -65.1004, 18.2835 ], [ -65.1002, 18.2829 ], [ -65.1006, 18.2828 ], [ -65.1013, 18.2834 ], [ -65.1004, 18.2835 ] ] ] ] } },
{ "type": "Feature", "properties": { "GEOIDFQ": "1400000US78030960300", "NAME": "9603", "NAMELSAD": "Census Tract 9603" }, "geometry": { "type": "Polygon", "coordinates": [ [ [ -64.9019, 18.347 ], [ -64.9016, 18.3471 ], [ -64.9001, 18.3469 ], [ -64.8981, 18.3475 ], [ -64.8986, 18.3481 ], [ -64.8981, 18.3497 ], [ -64.8939, 18.3506 ], [ -64.8874, 18.3496 ], [ -64.8847, 18.3499 ], [ -64.8821, 18.3483 ], [ -64.8799, 18.3445 ], [ -64.8812, 18.3441 ], [ -64.8814, 18.3428 ], [ -64.8867, 18.3401 ], [ -64.8875, 18.34 ], [ -64.8882, 18.3414 ], [ -64.8948, 18.342 ], [ -64.8991, 18.3445 ], [ -64.9002, 18.3448 ], [ -64.9007, 18.3442 ], [ -64.9028, 18.345 ], [ -64.9017, 18.3461 ], [ -64.9019, 18.347 ] ] ] } }
]
}
