{
"type": "FeatureCollection",
"name": "state_66_tracts_simplified",
"crs": { "type": "name", "properties": { "name": "urn:ogc:def:crs:OGC:1.3:CRS84" } },
"features": [
{ "type": "Feature", "properties": { "GEOIDFQ": "1400000US66010950701", "NAME": "9507.01", "NAMELSAD": "Census Tract 9507.01" }, "geometry": { "type": "Polygon", "coordinates": [ [ [ 144.8456, 13.5231 ], [ 144.8492, 13.5304 ], [ 144.8573, 13.5304 ], [ 144.8595, 13.5317 ], [ 144.865, 13.5327 ], [ 144.8637, 13.5173 ], [ 144.8563, 13.515 ], [ 144.8437, 13.5143 ], [ 144.8456, 13.5231 ] ] ] } },
{ "type": "Feature", "properties": { "GEOIDFQ": "1400000US66010980100", "NAME": "9801", "NAMELSAD": "Census Tract 9801" }, "geometry": { "type": "Polygon", "coordinates": [ [ [ 144.6711, 13.3824 ], [ 144.6734, 13.3833 ], [ 144.6738, 13.383 ], [ 144.6766, 13.3846 ], [ 144.6771, 13.3855 ], [ 144.6769, 13.3872 ], [ 144.6787, 13.3869 ], [ 144.6793, 13.3884 ], [ 144.6825, 13.3878 ], [ 144.684, 13.3884 ], [ 144.6842, 13.3889 ], [ 144.6867, 13.3882 ], [ 144.6884, 13.3922 ], [ 144.6896, 13.3913 ], [ 144.6922, 13.3941 ], [ 144.7095, 13.3939 ], [ 144.7096, 13.388 ], [ 144.7223, 13.3877 ], [ 144.7221, 13.3576 ], [ 144.7213, 13.3574 ], [ 144.7207, 13.3588 ], [ 144.7203, 13.359 ], [ 144.7178, 13.3579 ], [ 144.7166, 13.3588 ], [ 144.7153, 13.3581 ], [ 144.7146, 13.358 ], [ 144.7139, 13.3584 ], [ 144.712, 13.3578 ], [ 144.7111, 13.3586 ], [ 144.7083, 13.3584 ], [ 144.7066, 13.358 ], [ 144.7065, 13.3535 ], [ 144.7036, 13.3518 ], [ 144.7022, 13.3524 ], [ 144.6997, 13.3552 ], [ 144.6929, 13.3612 ], [ 144.6852, 13.3671 ], [ 144.6695, 13.3812 ], [ 144.6711, 13.3824 ] ] ] } },
{ "type": "Feature", "properties": { "GEOIDFQ": "1400000US66010980300", "NAME": "9803", "NAMELSAD": "Census Tract 9803" }, "geometry": { "type": "Polygon", "coordinates": [ [ [ 144.6811, 13.3332 ], [ 144.7022, 13.3439 ], [ 144.7052, 13.345 ], [ 144.7065, 13.3435 ], [ 144.7088, 13.3419 ], [ 144.709, 13.3402 ], [ 144.7054, 13.3354 ], [ 144.7038, 13.3356 ], [ 144.7024, 13.3334 ], [ 144.7004, 13.3322 ], [ 144.7005, 13.3299 ], [ 144.6907, 13.3188 ], [ 144.6843, 13.3155 ], [ 144.6729, 13.3271 ], [ 144.6715, 13.3291 ], [ 144.6811, 13.3332 ] ] ] } },
{ "type": "Feature", "properties": { "GEOIDFQ": "1400000US66010980400", "NAME": "9804", "NAMELSAD": "Census Tract 9804" }, "geometry": { "type": "Polygon", "coordinates": [ [ [ 144.8458, 13.5145 ], [ 144.857, 13.5151 ], [ 144.8708, 13.5196 ], [ 144.8708, 13.4997 ], [ 144.8569, 13.4996 ], [ 144.8571, 13.5039 ], [ 144.8536, 13.5039 ], [ 144.8535, 13.5021 ], [ 144.8507, 13.502 ], [ 144.8507, 13.5038 ], [ 144.8459, 13.5039 ], [ 144.8458, 13.5145 ] ] ] } },
{ "type": "Feature", "properties": { "GEOIDFQ": "1400000US66010954000", "NAME": "9540", "NAMELSAD": "Census Tract 9540" }, "geometry": { "type": "Polygon", "coordinates": [ [ [ 144.7186, 13.3961 ], [ 144.7201, 13.3962 ], [ 144.7196, 13.3971 ], [ 144.7201, 13.3978 ], [ 144.7229, 13.3974 ], [ 144.7268, 13.3986 ], [ 144.727, 13.3991 ], [ 144.7294, 13.398 ], [ 144.7301, 13.3987 ], [ 144.7318, 13.3982 ], [ 144.7323, 13.3989 ], [ 144.7338, 13.3989 ], [ 144.7343, 13.3995 ], [ 144.7351, 13.399 ], [ 144.7348, 13.398 ], [ 144.736, 13.3969 ], [ 144.7356, 13.3951 ], [ 144.7365, 13.3948 ], [ 144.7369, 13.3934 ], [ 144.7389, 13.3915 ], [ 144.7394, 13.3893 ], [ 144.7403, 13.3886 ], [ 144.74, 13.3877 ], [ 144.7426, 13.3872 ], [ 144.7447, 13.3882 ], [ 144.7463, 13.3882 ], [ 144.747, 13.3879 ], [ 144.7465, 13.3871 ], [ 144.7468, 13.3867 ], [ 144.7483, 13.3868 ], [ 144.7488, 13.3877 ], [ 144.7512, 13.3893 ], [ 144.7514, 13.3908 ], [ 144.7527, 13.3909 ], [ 144.7531, 13.3924 ], [ 144.7543, 13.3929 ], [ 144.7538, 13.3937 ], [ 144.7528, 13.3936 ], [ 144.7524, 13.3952 ], [ 144.7528, 13.3957 ], [ 144.7524, 13.3958 ], [ 144.7513, 13.3973 ], [ 144.7515, 13.3983 ], [ 144.7532, 13.4004 ], [ 144.7538, 13.4006 ], [ 144.7542, 13.4001 ], [ 144.755, 13.4 ], [ 144.7552, 13.3992 ], [ 144.7579, 13.3964 ], [ 144.7585, 13.395 ], [ 144.76, 13.3944 ], [ 144.7607, 13.3933 ], [ 144.7605, 13.3926 ], [ 144.7624, 13.3913 ], [ 144.764, 13.3918 ], [ 144.7646, 13.3943 ], [ 144.7669, 13.3942 ], [ 144.7683, 13.3933 ], [ 144.7703, 13.3939 ], [ 144.7738, 13.3918 ], [ 144.7747, 13.3892 ], [ 144.7753, 13.3898 ], [ 144.7759, 13.3892 ], [ 144.776, 13.3879 ], [ 144.7773, 13.388 ], [ 144.7779, 13.3876 ], [ 144.7759, 13.3873 ], [ 144.7754, 13.3866 ], [ 144.7757, 13.3858 ], [ 144.7748, 13.3846 ], [ 144.7748, 13.3827 ], [ 144.7744, 13.3819 ], [ 144.7746, 13.3813 ], [ 144.7731, 13.3783 ], [ 144.7732, 13.3774 ], [ 144.7726, 13.3769 ], [ 144.7725, 13.3714 ], [ 144.7704, 13.369 ], [ 144.7696, 13.367 ], [ 144.7703, 13.3657 ], [ 144.7687, 13.3661 ], [ 144.7679, 13.3657 ], [ 144.7674, 13.3665 ], [ 144.7666, 13.3668 ], [ 144.7652, 13.3681 ], [ 144.7654, 13.3697 ], [ 144.765, 13.3703 ], [ 144.7629, 13.3698 ], [ 144.7622, 13.3703 ], [ 144.7612, 13.3698 ], [ 144.7603, 13.3706 ], [ 144.7591, 13.3708 ], [ 144.7583, 13.3722 ], [ 144.7571, 13.3718 ], [ 144.7553, 13.372 ], [ 144.7546, 13.3715 ], [ 144.7548, 13.3709 ], [ 144.7543, 13.3699 ], [ 144.7545, 13.3696 ], [ 144.7536, 13.3684 ], [ 144.7322, 13.3701 ], [ 144.7221, 13.3681 ], [ 144.7223, 13.3877 ], [ 144.7207, 13.3894 ], [ 144.7213, 13.3898 ], [ 144.7178, 13.3948 ], [ 144.7186, 13.3961 ] ] ] } },
{ "type": "Feature", "properties": { "GEOIDFQ": "1400000US66010955200", "NAME": "9552", "NAMELSAD": "Census Tract 9552" }, "geometry": { "type": "MultiPolygon", "coordinates": [ [ [ [ 144.7448, 13.2693 ], [ 144.7456, 13.2686 ], [ 144.7448, 13.2684 ], [ 144.7444, 13.2692 ], [ 144.7448, 13.2693 ] ] ], [ [ [ 144.7319, 13.2508 ], [ 144.7323, 13.2507 ], [ 144.7319, 13.2498 ], [ 144.7314, 13.2502 ], [ 144.7319, 13.2508 ] ] ], [ [ [ 144.7254, 13.2463 ], [ 144.726, 13.248 ], [ 144.7256, 13.2462 ], [ 144.7248, 13.2461 ], [ 144.7254, 13.2463 ] ] ], [ [ [ 144.6967, 13.3046 ], [ 144.707, 13.3019 ], [ 144.7075, 13.3023 ], [ 144.7074, 13.303 ], [ 144.7084, 13.3038 ], [ 144.708, 13.3047 ], [ 144.7106, 13.3054 ], [ 144.7106, 13.3061 ], [ 144.7124, 13.3078 ], [ 144.7122, 13.3084 ], [ 144.7145, 13.3093 ], [ 144.7147, 13.3101 ], [ 144.7159, 13.3093 ], [ 144.7166, 13.3081 ], [ 144.7179, 13.3078 ], [ 144.7191, 13.3064 ], [ 144.72, 13.308 ], [ 144.7216, 13.3084 ], [ 144.7222, 13.3077 ], [ 144.7226, 13.3079 ], [ 144.7223, 13.3092 ], [ 144.7233, 13.3092 ], [ 144.7258, 13.3107 ], [ 144.7279, 13.3105 ], [ 144.7284, 13.3115 ], [ 144.7275, 13.3131 ], [ 144.7285, 13.3125 ], [ 144.7289, 13.3128 ], [ 144.7289, 13.3153 ], [ 144.731, 13.3168 ], [ 144.7309, 13.3174 ], [ 144.7315, 13.3181 ], [ 144.7318, 13.3204 ], [ 144.7341, 13.3209 ], [ 144.7333, 13.3224 ], [ 144.7345, 13.323 ], [ 144.7351, 13.3225 ], [ 144.7368, 13.323 ], [ 144.7373, 13.3244 ], [ 144.7378, 13.3243 ], [ 144.7385, 13.325 ], [ 144.7379, 13.3269 ], [ 144.7397, 13.3279 ], [ 144.7409, 13.328 ], [ 144.7428, 13.3265 ], [ 144.7434, 13.327 ], [ 144.7445, 13.3269 ], [ 144.7449, 13.3277 ], [ 144.7456, 13.3275 ], [ 144.7461, 13.3287 ], [ 144.7495, 13.3276 ], [ 144.7505, 13.3292 ], [ 144.7492, 13.3298 ], [ 144.7494, 13.3301 ], [ 144.7489, 13.3307 ], [ 144.7482, 13.3306 ], [ 144.7486, 13.3324 ], [ 144.7476, 13.3318 ], [ 144.7473, 13.3323 ], [ 144.7479, 13.3324 ], [ 144.7482, 13.3332 ], [ 144.7499, 13.3335 ], [ 144.7511, 13.3355 ], [ 144.7522, 13.3358 ], [ 144.7527, 13.3364 ], [ 144.7537, 13.3359 ], [ 144.754, 13.3366 ], [ 144.7536, 13.3366 ], [ 144.7532, 13.3371 ], [ 144.7541, 13.3372 ], [ 144.7541, 13.3379 ], [ 144.7563, 13.337 ], [ 144.7572, 13.3358 ], [ 144.7583, 13.3354 ], [ 144.7594, 13.3357 ], [ 144.7598, 13.3383 ], [ 144.7613, 13.3394 ], [ 144.7621, 13.3388 ], [ 144.7618, 13.3379 ], [ 144.7702, 13.3364 ], [ 144.7702, 13.3353 ], [ 144.7713, 13.3341 ], [ 144.7712, 13.3308 ], [ 144.7729, 13.3283 ], [ 144.7724, 13.3246 ], [ 144.7729, 13.32 ], [ 144.7716, 13.3168 ], [ 144.7713, 13.3148 ], [ 144.7719, 13.3106 ], [ 144.7716, 13.3088 ], [ 144.7724, 13.3064 ], [ 144.7724, 13.3036 ], [ 144.77, 13.2982 ], [ 144.7704, 13.2974 ], [ 144.7698, 13.2961 ], [ 144.7675, 13.2935 ], [ 144.7646, 13.2913 ], [ 144.7636, 13.2911 ], [ 144.7632, 13.289 ], [ 144.7627, 13.2886 ], [ 144.7627, 13.288 ], [ 144.7635, 13.2877 ], [ 144.7636, 13.2868 ], [ 144.7629, 13.2839 ], [ 144.761, 13.2822 ], [ 144.7598, 13.2823 ], [ 144.7597, 13.2829 ], [ 144.759, 13.2833 ], [ 144.7581, 13.2831 ], [ 144.7584, 13.2817 ], [ 144.7592, 13.2816 ], [ 144.7598, 13.2801 ], [ 144.7571, 13.2773 ], [ 144.7558, 13.2769 ], [ 144.7549, 13.2754 ], [ 144.7538, 13.275 ], [ 144.7532, 13.276 ], [ 144.752, 13.2762 ], [ 144.751, 13.2776 ], [ 144.7493, 13.2789 ], [ 144.7485, 13.2789 ], [ 144.7478, 13.2781 ], [ 144.7476, 13.2767 ], [ 144.7492, 13.275 ], [ 144.7506, 13.2747 ], [ 144.751, 13.2734 ], [ 144.7502, 13.2723 ], [ 144.7494, 13.2716 ], [ 144.7483, 13.2721 ], [ 144.7475, 13.2716 ], [ 144.7479, 13.271 ], [ 144.7471, 13.2714 ], [ 144.7454, 13.2708 ], [ 144.7429, 13.2686 ], [ 144.7392, 13.2678 ], [ 144.7383, 13.2681 ], [ 144.7384, 13.2668 ], [ 144.7414, 13.2665 ], [ 144.7426, 13.2669 ], [ 144.7428, 13.266 ], [ 144.7436, 13.2653 ], [ 144.7435, 13.2649 ], [ 144.7425, 13.2645 ], [ 144.7419, 13.2631 ], [ 144.7413, 13.2626 ], [ 144.741, 13.2633 ], [ 144.7383, 13.2631 ], [ 144.7375, 13.262 ], [ 144.7372, 13.2606 ], [ 144.7378, 13.259 ], [ 144.7365, 13.2592 ], [ 144.7353, 13.2577 ], [ 144.7346, 13.2559 ], [ 144.7341, 13.2556 ], [ 144.7331, 13.2536 ], [ 144.7332, 13.2523 ], [ 144.7315, 13.2527 ], [ 144.7307, 13.2515 ], [ 144.7315, 13.2509 ], [ 144.7298, 13.2508 ], [ 144.7268, 13.2491 ], [ 144.7273, 13.2465 ], [ 144.7263, 13.2466 ], [ 144.7261, 13.2481 ], [ 144.7247, 13.2479 ], [ 144.7244, 13.2474 ], [ 144.7253, 13.2469 ], [ 144.724, 13.2461 ], [ 144.7226, 13.2465 ], [ 144.7225, 13.2474 ], [ 144.7219, 13.2469 ], [ 144.7207, 13.248 ], [ 144.7209, 13.2495 ], [ 144.7178, 13.2519 ], [ 144.7184, 13.2531 ], [ 144.7182, 13.2539 ], [ 144.7185, 13.2547 ], [ 144.7178, 13.2567 ], [ 144.7175, 13.2566 ], [ 144.7171, 13.2579 ], [ 144.7155, 13.2588 ], [ 144.7152, 13.2594 ], [ 144.7155, 13.2597 ], [ 144.7138, 13.2604 ], [ 144.7132, 13.2621 ], [ 144.7122, 13.262 ], [ 144.7114, 13.2645 ], [ 144.7104, 13.2657 ], [ 144.7103, 13.2666 ], [ 144.7107, 13.2678 ], [ 144.7094, 13.27 ], [ 144.7078, 13.2702 ], [ 144.7072, 13.2696 ], [ 144.7063, 13.2698 ], [ 144.7056, 13.2694 ], [ 144.7057, 13.2699 ], [ 144.7036, 13.2709 ], [ 144.7034, 13.2715 ], [ 144.7024, 13.272 ], [ 144.7013, 13.2744 ], [ 144.7006, 13.2742 ], [ 144.7, 13.2745 ], [ 144.6997, 13.2756 ], [ 144.6991, 13.2761 ], [ 144.6973, 13.2763 ], [ 144.6955, 13.2776 ], [ 144.6942, 13.2771 ], [ 144.6941, 13.2781 ], [ 144.6934, 13.2779 ], [ 144.6928, 13.2789 ], [ 144.6875, 13.2995 ], [ 144.6967, 13.3046 ] ] ] ] } },
{ "type": "Feature", "properties": { "GEOIDFQ": "1400000US66010953900", "NAME": "9539", "NAMELSAD": "Census Tract 9539" }, "geometry": { "type": "Polygon", "coordinates": [ [ [ 144.7011, 13.4238 ], [ 144.7007, 13.4259 ], [ 144.7047, 13.4297 ], [ 144.7058, 13.4302 ], [ 144.7067, 13.4339 ], [ 144.7084, 13.4364 ], [ 144.7108, 13.4369 ], [ 144.7108, 13.4356 ], [ 144.7115, 13.435 ], [ 144.7124, 13.4354 ], [ 144.7138, 13.4375 ], [ 144.7164, 13.4399 ], [ 144.7192, 13.4403 ], [ 144.7201, 13.4408 ], [ 144.7205, 13.4403 ], [ 144.7239, 13.4425 ], [ 144.7246, 13.4434 ], [ 144.7267, 13.4429 ], [ 144.7274, 13.4431 ], [ 144.7275, 13.4435 ], [ 144.7286, 13.4427 ], [ 144.7289, 13.4432 ], [ 144.7281, 13.4434 ], [ 144.7284, 13.4445 ], [ 144.7288, 13.444 ], [ 144.7293, 13.4441 ], [ 144.7292, 13.4436 ], [ 144.7297, 13.443 ], [ 144.7315, 13.442 ], [ 144.7317, 13.4412 ], [ 144.733, 13.4408 ], [ 144.7331, 13.4402 ], [ 144.7349, 13.44 ], [ 144.7349, 13.4411 ], [ 144.7355, 13.4413 ], [ 144.7358, 13.4411 ], [ 144.7359, 13.4399 ], [ 144.7377, 13.4404 ], [ 144.7369, 13.4383 ], [ 144.7379, 13.438 ], [ 144.7385, 13.4367 ], [ 144.7395, 13.437 ], [ 144.7398, 13.4357 ], [ 144.7406, 13.4359 ], [ 144.7405, 13.435 ], [ 144.742, 13.4358 ], [ 144.7427, 13.4351 ], [ 144.7435, 13.4365 ], [ 144.7444, 13.4355 ], [ 144.7457, 13.436 ], [ 144.7473, 13.4357 ], [ 144.7477, 13.4345 ], [ 144.7482, 13.4349 ], [ 144.7489, 13.4345 ], [ 144.7497, 13.4348 ], [ 144.751, 13.4356 ], [ 144.751, 13.436 ], [ 144.7516, 13.4356 ], [ 144.7512, 13.4352 ], [ 144.7516, 13.4347 ], [ 144.7534, 13.4354 ], [ 144.7534, 13.4362 ], [ 144.7545, 13.4361 ], [ 144.7541, 13.437 ], [ 144.7555, 13.4371 ], [ 144.7553, 13.4366 ], [ 144.7557, 13.4364 ], [ 144.7568, 13.4374 ], [ 144.7569, 13.4361 ], [ 144.7589, 13.4356 ], [ 144.7594, 13.4346 ], [ 144.7603, 13.4342 ], [ 144.7607, 13.432 ], [ 144.7619, 13.4324 ], [ 144.7619, 13.4315 ], [ 144.7625, 13.432 ], [ 144.7623, 13.4327 ], [ 144.7627, 13.4328 ], [ 144.7629, 13.432 ], [ 144.764, 13.4312 ], [ 144.7638, 13.4296 ], [ 144.7645, 13.4302 ], [ 144.7649, 13.4299 ], [ 144.7648, 13.4291 ], [ 144.7651, 13.4286 ], [ 144.7647, 13.4278 ], [ 144.7649, 13.4272 ], [ 144.7659, 13.4269 ], [ 144.7657, 13.4265 ], [ 144.7669, 13.427 ], [ 144.769, 13.4267 ], [ 144.769, 13.4258 ], [ 144.7684, 13.4248 ], [ 144.769, 13.4251 ], [ 144.7695, 13.4242 ], [ 144.7704, 13.4244 ], [ 144.7706, 13.4239 ], [ 144.7712, 13.4241 ], [ 144.7708, 13.4247 ], [ 144.7712, 13.4246 ], [ 144.773, 13.4232 ], [ 144.7735, 13.4233 ], [ 144.7732, 13.424 ], [ 144.7742, 13.4234 ], [ 144.7749, 13.4239 ], [ 144.7751, 13.4235 ], [ 144.7747, 13.4227 ], [ 144.7765, 13.4228 ], [ 144.7767, 13.4233 ], [ 144.7771, 13.4223 ], [ 144.7767, 13.4217 ], [ 144.7775, 13.4215 ], [ 144.7781, 13.4222 ], [ 144.7784, 13.4214 ], [ 144.7778, 13.4203 ], [ 144.7784, 13.42 ], [ 144.7807, 13.4209 ], [ 144.7815, 13.4229 ], [ 144.7829, 13.4227 ], [ 144.7839, 13.4216 ], [ 144.7842, 13.4183 ], [ 144.785, 13.4174 ], [ 144.7851, 13.4166 ], [ 144.7882, 13.4155 ], [ 144.7889, 13.4135 ], [ 144.7879, 13.4129 ], [ 144.7872, 13.4117 ], [ 144.7836, 13.41 ], [ 144.7834, 13.4077 ], [ 144.7814, 13.4049 ], [ 144.7813, 13.4038 ], [ 144.7818, 13.4037 ], [ 144.7821, 13.4023 ], [ 144.7817, 13.4007 ], [ 144.7808, 13.3993 ], [ 144.7784, 13.3977 ], [ 144.7765, 13.395 ], [ 144.7753, 13.3954 ], [ 144.7739, 13.395 ], [ 144.7729, 13.3953 ], [ 144.7716, 13.3933 ], [ 144.7701, 13.394 ], [ 144.7683, 13.3933 ], [ 144.7669, 13.3942 ], [ 144.7646, 13.3943 ], [ 144.764, 13.3918 ], [ 144.7624, 13.3913 ], [ 144.7605, 13.3926 ], [ 144.7607, 13.3933 ], [ 144.76, 13.3944 ], [ 144.7585, 13.395 ], [ 144.7579, 13.3964 ], [ 144.7552, 13.3992 ], [ 144.755, 13.4 ], [ 144.7542, 13.4001 ], [ 144.7538, 13.4006 ], [ 144.7532, 13.4004 ], [ 144.7515, 13.3983 ], [ 144.7513, 13.3973 ], [ 144.7524, 13.3958 ], [ 144.7528, 13.3957 ], [ 144.7524, 13.3952 ], [ 144.7528, 13.3936 ], [ 144.7538, 13.3937 ], [ 144.7543, 13.3929 ], [ 144.7531, 13.3924 ], [ 144.7527, 13.3909 ], [ 144.7514, 13.3908 ], [ 144.7512, 13.3893 ], [ 144.7488, 13.3877 ], [ 144.7483, 13.3868 ], [ 144.7468, 13.3867 ], [ 144.7465, 13.3871 ], [ 144.747, 13.3879 ], [ 144.7463, 13.3882 ], [ 144.7447, 13.3882 ], [ 144.7426, 13.3872 ], [ 144.74, 13.3877 ], [ 144.7403, 13.3886 ], [ 144.7394, 13.3893 ], [ 144.7389, 13.3915 ], [ 144.7369, 13.3934 ], [ 144.7365, 13.3948 ], [ 144.7356, 13.3951 ], [ 144.736, 13.3969 ], [ 144.7348, 13.398 ], [ 144.7351, 13.399 ], [ 144.7343, 13.3995 ], [ 144.7338, 13.3989 ], [ 144.7323, 13.3989 ], [ 144.7318, 13.3982 ], [ 144.7301, 13.3987 ], [ 144.7294, 13.398 ], [ 144.727, 13.3991 ], [ 144.7268, 13.3986 ], [ 144.7229, 13.3974 ], [ 144.7201, 13.3978 ], [ 144.7196, 13.3971 ], [ 144.7201, 13.3962 ], [ 144.7186, 13.3961 ], [ 144.7177, 13.3946 ], [ 144.7009, 13.4187 ], [ 144.6996, 13.4222 ], [ 144.7011, 13.4238 ] ] ] } },
{ "type": "Feature", "properties": { "GEOIDFQ": "1400000US66010951100", "NAME": "9511", "NAMELSAD": "Census Tract 9511" }, "geometry": { "type": "Polygon", "coordinates": [ [ [ 144.8213, 13.5051 ], [ 144.8198, 13.5093 ], [ 144.8337, 13.5141 ], [ 144.8344, 13.5145 ], [ 144.8348, 13.5155 ], [ 144.8405, 13.5142 ], [ 144.8458, 13.5145 ], [ 144.8459, 13.5039 ], [ 144.8507, 13.5038 ], [ 144.8507, 13.502 ], [ 144.8535, 13.5021 ], [ 144.8536, 13.5039 ], [ 144.8571, 13.5039 ], [ 144.8569, 13.4996 ], [ 144.8551, 13.4988 ], [ 144.8532, 13.4991 ], [ 144.8486, 13.4976 ], [ 144.8433, 13.4988 ], [ 144.8346, 13.4979 ], [ 144.8346, 13.4997 ], [ 144.8251, 13.4992 ], [ 144.8245, 13.5013 ], [ 144.8241, 13.5014 ], [ 144.8202, 13.4985 ], [ 144.8197, 13.5018 ], [ 144.8213, 13.5051 ] ] ] } },
{ "type": "Feature", "properties": { "GEOIDFQ": "1400000US66010954400", "NAME": "9544", "NAMELSAD": "Census Tract 9544" }, "geometry": { "type": "Polygon", "coordinates": [ [ [ 144.6266, 13.4577 ], [ 144.6305, 13.4595 ], [ 144.6359, 13.4639 ], [ 144.6383, 13.4648 ], [ 144.6616, 13.4648 ], [ 144.6623, 13.4651 ], [ 144.662, 13.4657 ], [ 144.6627, 13.4659 ], [ 144.6705, 13.4637 ], [ 144.6755, 13.4631 ], [ 144.6801, 13.4651 ], [ 144.6819, 13.4665 ], [ 144.6862, 13.468 ], [ 144.6871, 13.4673 ], [ 144.6864, 13.4663 ], [ 144.6882, 13.4643 ], [ 144.6891, 13.4645 ], [ 144.6899, 13.4636 ], [ 144.6915, 13.4642 ], [ 144.6917, 13.4638 ], [ 144.6917, 13.4607 ], [ 144.6905, 13.461 ], [ 144.6894, 13.4586 ], [ 144.6926, 13.4578 ], [ 144.6977, 13.4583 ], [ 144.6955, 13.454 ], [ 144.6988, 13.4504 ], [ 144.7029, 13.4523 ], [ 144.7072, 13.4509 ], [ 144.7073, 13.4488 ], [ 144.7079, 13.4477 ], [ 144.7093, 13.4467 ], [ 144.7109, 13.4368 ], [ 144.7082, 13.4363 ], [ 144.7067, 13.4339 ], [ 144.7058, 13.4302 ], [ 144.7047, 13.4297 ], [ 144.7007, 13.4257 ], [ 144.7011, 13.4238 ], [ 144.6996, 13.4222 ], [ 144.7012, 13.4181 ], [ 144.7002, 13.4155 ], [ 144.697, 13.4131 ], [ 144.6961, 13.413 ], [ 144.6955, 13.4122 ], [ 144.6938, 13.4115 ], [ 144.6934, 13.4117 ], [ 144.6932, 13.411 ], [ 144.6929, 13.4112 ], [ 144.6923, 13.4105 ], [ 144.6893, 13.4114 ], [ 144.6893, 13.4109 ], [ 144.6888, 13.4109 ], [ 144.6882, 13.4114 ], [ 144.6883, 13.4121 ], [ 144.6874, 13.4133 ], [ 144.6856, 13.4134 ], [ 144.6845, 13.4145 ], [ 144.6829, 13.4142 ], [ 144.6826, 13.4145 ], [ 144.6809, 13.4183 ], [ 144.6808, 13.42 ], [ 144.678, 13.423 ], [ 144.6763, 13.4282 ], [ 144.667, 13.4364 ], [ 144.6668, 13.4458 ], [ 144.6274, 13.4536 ], [ 144.624, 13.4547 ], [ 144.6266, 13.4577 ] ] ] } },
{ "type": "Feature", "properties": { "GEOIDFQ": "1400000US66010950300", "NAME": "9503", "NAMELSAD": "Census Tract 9503" }, "geometry": { "type": "Polygon", "coordinates": [ [ [ 144.8097, 13.546 ], [ 144.8109, 13.5484 ], [ 144.8119, 13.5531 ], [ 144.811, 13.5547 ], [ 144.8122, 13.5556 ], [ 144.8124, 13.5552 ], [ 144.8129, 13.5552 ], [ 144.8142, 13.5564 ], [ 144.8142, 13.5574 ], [ 144.8159, 13.5577 ], [ 144.8174, 13.5589 ], [ 144.8184, 13.562 ], [ 144.8207, 13.5648 ], [ 144.8216, 13.5668 ], [ 144.8211, 13.5679 ], [ 144.8219, 13.5698 ], [ 144.823, 13.5708 ], [ 144.8235, 13.5705 ], [ 144.8241, 13.5709 ], [ 144.8234, 13.5714 ], [ 144.825, 13.5738 ], [ 144.8261, 13.5742 ], [ 144.828, 13.5761 ], [ 144.8285, 13.5761 ], [ 144.8285, 13.5768 ], [ 144.8295, 13.5763 ], [ 144.8304, 13.5764 ], [ 144.8309, 13.5771 ], [ 144.8316, 13.5788 ], [ 144.8306, 13.5796 ], [ 144.8306, 13.5801 ], [ 144.8314, 13.5833 ], [ 144.8324, 13.5851 ], [ 144.8341, 13.5867 ], [ 144.836, 13.5912 ], [ 144.8365, 13.5916 ], [ 144.8365, 13.5944 ], [ 144.8374, 13.5951 ], [ 144.8373, 13.596 ], [ 144.8377, 13.5968 ], [ 144.8366, 13.5982 ], [ 144.8363, 13.601 ], [ 144.8368, 13.6015 ], [ 144.8365, 13.6021 ], [ 144.8369, 13.6023 ], [ 144.8363, 13.6026 ], [ 144.8363, 13.6035 ], [ 144.8368, 13.6045 ], [ 144.8359, 13.6061 ], [ 144.8359, 13.6094 ], [ 144.8352, 13.6111 ], [ 144.8359, 13.6147 ], [ 144.8369, 13.6246 ], [ 144.8378, 13.6263 ], [ 144.8446, 13.6339 ], [ 144.8466, 13.6368 ], [ 144.8517, 13.6483 ], [ 144.8554, 13.6516 ], [ 144.8585, 13.654 ], [ 144.8598, 13.6544 ], [ 144.8651, 13.6238 ], [ 144.8677, 13.6132 ], [ 144.869, 13.602 ], [ 144.8718, 13.5858 ], [ 144.8666, 13.5889 ], [ 144.8646, 13.589 ], [ 144.8625, 13.5881 ], [ 144.8587, 13.5857 ], [ 144.8499, 13.5748 ], [ 144.8347, 13.5466 ], [ 144.8328, 13.5406 ], [ 144.8286, 13.5357 ], [ 144.8258, 13.5295 ], [ 144.8252, 13.5265 ], [ 144.8234, 13.5236 ], [ 144.8154, 13.5211 ], [ 144.8109, 13.5414 ], [ 144.8081, 13.5444 ], [ 144.8097, 13.546 ] ] ] } },
{ "type": "Feature", "properties": { "GEOIDFQ": "1400000US66010952300", "NAME": "9523", "NAMELSAD": "Census Tract 9523" }, "geometry": { "type": "Polygon", "coordinates": [ [ [ 144.7815, 13.5045 ], [ 144.7843, 13.5026 ], [ 144.7891, 13.5012 ], [ 144.7926, 13.5019 ], [ 144.7961, 13.5033 ], [ 144.7968, 13.5025 ], [ 144.7993, 13.5015 ], [ 144.7922, 13.4922 ], [ 144.784, 13.4875 ], [ 144.7819, 13.4966 ], [ 144.7809, 13.5036 ], [ 144.7815, 13.5045 ] ] ] } },
{ "type": "Feature", "properties": { "GEOIDFQ": "1400000US66010950200", "NAME": "9502", "NAMELSAD": "Census Tract 9502" }, "geometry": { "type": "Polygon", "coordinates": [ [ [ 144.8639, 13.654 ], [ 144.8683, 13.6526 ], [ 144.8726, 13.6499 ], [ 144.8751, 13.6476 ], [ 144.8788, 13.6457 ], [ 144.8822, 13.6421 ], [ 144.8903, 13.6309 ], [ 144.8918, 13.6294 ], [ 144.8934, 13.6285 ], [ 144.8966, 13.6246 ], [ 144.8994, 13.622 ], [ 144.8992, 13.6216 ], [ 144.9, 13.6202 ], [ 144.9023, 13.6172 ], [ 144.9044, 13.6124 ], [ 144.9055, 13.607 ], [ 144.9077, 13.6054 ], [ 144.9037, 13.6045 ], [ 144.9008, 13.6078 ], [ 144.8991, 13.6061 ], [ 144.8968, 13.6048 ], [ 144.8966, 13.6033 ], [ 144.8982, 13.602 ], [ 144.8986, 13.6006 ], [ 144.8984, 13.5985 ], [ 144.8991, 13.5945 ], [ 144.9005, 13.5941 ], [ 144.901, 13.5934 ], [ 144.9059, 13.5909 ], [ 144.9084, 13.5884 ], [ 144.9093, 13.5864 ], [ 144.911, 13.5847 ], [ 144.9092, 13.5833 ], [ 144.9088, 13.5813 ], [ 144.9123, 13.5712 ], [ 144.9174, 13.5699 ], [ 144.92, 13.5659 ], [ 144.924, 13.5636 ], [ 144.9175, 13.5599 ], [ 144.9165, 13.5568 ], [ 144.8992, 13.5634 ], [ 144.8993, 13.5652 ], [ 144.8964, 13.5732 ], [ 144.8921, 13.5791 ], [ 144.8887, 13.5828 ], [ 144.8784, 13.5854 ], [ 144.8739, 13.5849 ], [ 144.8718, 13.5858 ], [ 144.869, 13.602 ], [ 144.8677, 13.6132 ], [ 144.8651, 13.6238 ], [ 144.8599, 13.6544 ], [ 144.8639, 13.654 ] ] ] } },
{ "type": "Feature", "properties": { "GEOIDFQ": "1400000US66010954300", "NAME": "9543", "NAMELSAD": "Census Tract 9543" }, "geometry": { "type": "Polygon", "coordinates": [ [ [ 144.6905, 13.461 ], [ 144.6917, 13.4607 ], [ 144.6919, 13.4616 ], [ 144.6915, 13.4642 ], [ 144.6921, 13.4652 ], [ 144.6977, 13.4669 ], [ 144.6992, 13.4681 ], [ 144.7028, 13.4685 ], [ 144.7067, 13.4717 ], [ 144.7074, 13.4702 ], [ 144.7072, 13.4691 ], [ 144.7066, 13.4684 ], [ 144.7068, 13.4669 ], [ 144.7078, 13.4648 ], [ 144.7078, 13.464 ], [ 144.7089, 13.4632 ], [ 144.7093, 13.4621 ], [ 144.7084, 13.4604 ], [ 144.7073, 13.4597 ], [ 144.7093, 13.4467 ], [ 144.7079, 13.4477 ], [ 144.7073, 13.4488 ], [ 144.7072, 13.4509 ], [ 144.7029, 13.4523 ], [ 144.6988, 13.4504 ], [ 144.6979, 13.4512 ], [ 144.6955, 13.454 ], [ 144.6977, 13.4583 ], [ 144.6926, 13.4578 ], [ 144.6894, 13.4586 ], [ 144.6905, 13.461 ] ] ] } },
{ "type": "Feature", "properties": { "GEOIDFQ": "1400000US66010952900", "NAME": "9529", "NAMELSAD": "Census Tract 9529" }, "geometry": { "type": "Polygon", "coordinates": [ [ [ 144.7844, 13.4617 ], [ 144.7855, 13.4605 ], [ 144.7867, 13.4601 ], [ 144.7872, 13.4588 ], [ 144.7906, 13.4571 ], [ 144.7905, 13.4562 ], [ 144.793, 13.4554 ], [ 144.7941, 13.4576 ], [ 144.7966, 13.4574 ], [ 144.7968, 13.4581 ], [ 144.7991, 13.4581 ], [ 144.7993, 13.4572 ], [ 144.8002, 13.4569 ], [ 144.8016, 13.4573 ], [ 144.8076, 13.4571 ], [ 144.8074, 13.4498 ], [ 144.8185, 13.4494 ], [ 144.8217, 13.4501 ], [ 144.8259, 13.4428 ], [ 144.8239, 13.4422 ], [ 144.8221, 13.4424 ], [ 144.8212, 13.4419 ], [ 144.8199, 13.4424 ], [ 144.8187, 13.4421 ], [ 144.8166, 13.44 ], [ 144.8098, 13.4416 ], [ 144.8003, 13.4415 ], [ 144.7991, 13.44 ], [ 144.7978, 13.4391 ], [ 144.7926, 13.4379 ], [ 144.7918, 13.4391 ], [ 144.79, 13.4401 ], [ 144.7896, 13.4399 ], [ 144.7897, 13.4407 ], [ 144.7857, 13.4409 ], [ 144.7842, 13.4587 ], [ 144.7824, 13.4597 ], [ 144.7813, 13.4613 ], [ 144.7844, 13.4617 ] ] ] } },
{ "type": "Feature", "properties": { "GEOIDFQ": "1400000US66010951800", "NAME": "9518", "NAMELSAD": "Census Tract 9518" }, "geometry": { "type": "Polygon", "coordinates": [ [ [ 144.7797, 13.4817 ], [ 144.7874, 13.485 ], [ 144.7942, 13.4891 ], [ 144.8006, 13.4908 ], [ 144.8004, 13.4917 ], [ 144.8065, 13.495 ], [ 144.8085, 13.4959 ], [ 144.811, 13.4965 ], [ 144.8155, 13.4987 ], [ 144.8201, 13.4987 ], [ 144.822, 13.4956 ], [ 144.8221, 13.4946 ], [ 144.8217, 13.4946 ], [ 144.821, 13.4936 ], [ 144.8149, 13.4913 ], [ 144.8167, 13.4877 ], [ 144.8164, 13.4857 ], [ 144.8136, 13.4837 ], [ 144.8138, 13.4834 ], [ 144.8128, 13.4824 ], [ 144.809, 13.4764 ], [ 144.8039, 13.4707 ], [ 144.8026, 13.4699 ], [ 144.7997, 13.4704 ], [ 144.7932, 13.4728 ], [ 144.79, 13.4732 ], [ 144.7879, 13.4743 ], [ 144.7803, 13.4754 ], [ 144.7797, 13.4817 ] ] ] } },
{ "type": "Feature", "properties": { "GEOIDFQ": "1400000US66010952700", "NAME": "9527", "NAMELSAD": "Census Tract 9527" }, "geometry": { "type": "Polygon", "coordinates": [ [ [ 144.7879, 13.4743 ], [ 144.7899, 13.4732 ], [ 144.7932, 13.4728 ], [ 144.8014, 13.47 ], [ 144.8007, 13.4668 ], [ 144.801, 13.4646 ], [ 144.8043, 13.4591 ], [ 144.8048, 13.4571 ], [ 144.8016, 13.4573 ], [ 144.8001, 13.4569 ], [ 144.7993, 13.4573 ], [ 144.7991, 13.4581 ], [ 144.7968, 13.4581 ], [ 144.7966, 13.4574 ], [ 144.7941, 13.4576 ], [ 144.793, 13.4554 ], [ 144.7905, 13.4562 ], [ 144.7906, 13.4571 ], [ 144.7872, 13.4588 ], [ 144.7867, 13.4601 ], [ 144.7855, 13.4605 ], [ 144.7845, 13.4615 ], [ 144.7847, 13.4629 ], [ 144.7858, 13.4644 ], [ 144.7857, 13.4664 ], [ 144.7803, 13.4753 ], [ 144.7879, 13.4743 ] ] ] } },
{ "type": "Feature", "properties": { "GEOIDFQ": "1400000US66010953102", "NAME": "9531.02", "NAMELSAD": "Census Tract 9531.02" }, "geometry": { "type": "Polygon", "coordinates": [ [ [ 144.7598, 13.4543 ], [ 144.7618, 13.4542 ], [ 144.7628, 13.4526 ], [ 144.7663, 13.4517 ], [ 144.7663, 13.4529 ], [ 144.7681, 13.4552 ], [ 144.7682, 13.4568 ], [ 144.7706, 13.4575 ], [ 144.7726, 13.4604 ], [ 144.7741, 13.4603 ], [ 144.7743, 13.4611 ], [ 144.7749, 13.4611 ], [ 144.7763, 13.4603 ], [ 144.777, 13.4606 ], [ 144.7773, 13.4613 ], [ 144.7791, 13.462 ], [ 144.7804, 13.4617 ], [ 144.7813, 13.4613 ], [ 144.7824, 13.4597 ], [ 144.7842, 13.4587 ], [ 144.7857, 13.4409 ], [ 144.7897, 13.4407 ], [ 144.7896, 13.4399 ], [ 144.79, 13.4401 ], [ 144.7918, 13.4391 ], [ 144.7926, 13.4379 ], [ 144.7848, 13.4363 ], [ 144.7824, 13.4347 ], [ 144.78, 13.4342 ], [ 144.7778, 13.4358 ], [ 144.7768, 13.4401 ], [ 144.7759, 13.4414 ], [ 144.7742, 13.4423 ], [ 144.7679, 13.4435 ], [ 144.7607, 13.4482 ], [ 144.7586, 13.4509 ], [ 144.7583, 13.4521 ], [ 144.7598, 13.4543 ] ] ] } },
{ "type": "Feature", "properties": { "GEOIDFQ": "1400000US66010954500", "NAME": "9545", "NAMELSAD": "Census Tract 9545" }, "geometry": { "type": "MultiPolygon", "coordinates": [ [ [ [ 144.6465, 13.415 ], [ 144.6483, 13.4135 ], [ 144.6468, 13.4131 ], [ 144.6458, 13.4139 ], [ 144.6465, 13.415 ] ] ], [ [ [ 144.624, 13.4547 ], [ 144.6274, 13.4536 ], [ 144.6668, 13.4458 ], [ 144.667, 13.4364 ], [ 144.6763, 13.4282 ], [ 144.6768, 13.4261 ], [ 144.6777, 13.4242 ], [ 144.6757, 13.4216 ], [ 144.6774, 13.4195 ], [ 144.6784, 13.4166 ], [ 144.6765, 13.4134 ], [ 144.6761, 13.4109 ], [ 144.6728, 13.408 ], [ 144.666, 13.4042 ], [ 144.6642, 13.4008 ], [ 144.6631, 13.4011 ], [ 144.6627, 13.4021 ], [ 144.6622, 13.4022 ], [ 144.6627, 13.4027 ], [ 144.6626, 13.4034 ], [ 144.6617, 13.4035 ], [ 144.6606, 13.4045 ], [ 144.6612, 13.4049 ], [ 144.6611, 13.4082 ], [ 144.658, 13.4126 ], [ 144.6558, 13.4144 ], [ 144.654, 13.4146 ], [ 144.6529, 13.4153 ], [ 144.6513, 13.415 ], [ 144.6499, 13.4153 ], [ 144.649, 13.4146 ], [ 144.6481, 13.4145 ], [ 144.6472, 13.4154 ], [ 144.6481, 13.4163 ], [ 144.6472, 13.4181 ], [ 144.646, 13.4186 ], [ 144.6441, 13.4177 ], [ 144.6434, 13.4179 ], [ 144.6434, 13.4183 ], [ 144.6424, 13.4185 ], [ 144.6397, 13.4212 ], [ 144.6404, 13.4231 ], [ 144.6399, 13.4246 ], [ 144.6403, 13.4247 ], [ 144.6397, 13.4251 ], [ 144.6402, 13.4252 ], [ 144.6396, 13.4256 ], [ 144.6399, 13.4262 ], [ 144.639, 13.4274 ], [ 144.6385, 13.4291 ], [ 144.6389, 13.43 ], [ 144.6386, 13.4307 ], [ 144.6375, 13.4314 ], [ 144.6365, 13.4313 ], [ 144.633, 13.4344 ], [ 144.6242, 13.4377 ], [ 144.6212, 13.4406 ], [ 144.6202, 13.4426 ], [ 144.62, 13.4439 ], [ 144.6189, 13.4455 ], [ 144.6183, 13.4457 ], [ 144.6187, 13.4468 ], [ 144.6181, 13.4478 ], [ 144.624, 13.4547 ] ] ] ] } },
{ "type": "Feature", "properties": { "GEOIDFQ": "1400000US66010955400", "NAME": "9554", "NAMELSAD": "Census Tract 9554" }, "geometry": { "type": "MultiPolygon", "coordinates": [ [ [ [ 144.6554, 13.3069 ], [ 144.6554, 13.3066 ], [ 144.6553, 13.3066 ], [ 144.6551, 13.3069 ], [ 144.6554, 13.3069 ] ] ], [ [ [ 144.6709, 13.3299 ], [ 144.6746, 13.3254 ], [ 144.6875, 13.2995 ], [ 144.6928, 13.2789 ], [ 144.6788, 13.2839 ], [ 144.6789, 13.2868 ], [ 144.6756, 13.2845 ], [ 144.6728, 13.2835 ], [ 144.6722, 13.2849 ], [ 144.6702, 13.2856 ], [ 144.669, 13.2856 ], [ 144.6685, 13.2865 ], [ 144.667, 13.2863 ], [ 144.6659, 13.2857 ], [ 144.6627, 13.2856 ], [ 144.6624, 13.2849 ], [ 144.6596, 13.2865 ], [ 144.6575, 13.29 ], [ 144.6576, 13.2916 ], [ 144.6571, 13.2936 ], [ 144.6575, 13.2932 ], [ 144.658, 13.2934 ], [ 144.6582, 13.2941 ], [ 144.6577, 13.2942 ], [ 144.6602, 13.296 ], [ 144.6613, 13.2963 ], [ 144.6629, 13.2985 ], [ 144.6621, 13.2991 ], [ 144.6596, 13.2994 ], [ 144.6587, 13.2987 ], [ 144.6582, 13.2988 ], [ 144.6577, 13.3015 ], [ 144.6573, 13.3018 ], [ 144.6569, 13.3014 ], [ 144.6567, 13.3025 ], [ 144.6572, 13.3046 ], [ 144.6581, 13.3052 ], [ 144.658, 13.3064 ], [ 144.6574, 13.3069 ], [ 144.6556, 13.3068 ], [ 144.6548, 13.3077 ], [ 144.6545, 13.307 ], [ 144.6546, 13.3082 ], [ 144.6549, 13.3084 ], [ 144.6544, 13.3098 ], [ 144.6537, 13.31 ], [ 144.653, 13.3111 ], [ 144.6534, 13.3112 ], [ 144.6532, 13.3118 ], [ 144.6537, 13.3123 ], [ 144.6533, 13.3121 ], [ 144.6529, 13.3134 ], [ 144.6536, 13.314 ], [ 144.6534, 13.3143 ], [ 144.656, 13.314 ], [ 144.6574, 13.3149 ], [ 144.6577, 13.3154 ], [ 144.6574, 13.3165 ], [ 144.6562, 13.3174 ], [ 144.654, 13.3187 ], [ 144.6534, 13.3185 ], [ 144.6516, 13.3194 ], [ 144.6513, 13.3207 ], [ 144.6499, 13.3219 ], [ 144.6524, 13.327 ], [ 144.6524, 13.328 ], [ 144.6513, 13.3289 ], [ 144.6493, 13.329 ], [ 144.6501, 13.3293 ], [ 144.6493, 13.3298 ], [ 144.6495, 13.3303 ], [ 144.649, 13.3308 ], [ 144.649, 13.3322 ], [ 144.6477, 13.334 ], [ 144.647, 13.3343 ], [ 144.647, 13.3353 ], [ 144.6461, 13.3362 ], [ 144.6451, 13.3366 ], [ 144.6446, 13.3362 ], [ 144.6443, 13.3367 ], [ 144.6447, 13.3373 ], [ 144.6442, 13.3379 ], [ 144.6434, 13.3382 ], [ 144.6421, 13.3379 ], [ 144.6408, 13.3386 ], [ 144.6388, 13.3388 ], [ 144.6359, 13.3406 ], [ 144.6354, 13.3413 ], [ 144.6709, 13.3299 ] ] ] ] } },
{ "type": "Feature", "properties": { "GEOIDFQ": "1400000US66010955600", "NAME": "9556", "NAMELSAD": "Census Tract 9556" }, "geometry": { "type": "Polygon", "coordinates": [ [ [ 144.8014, 13.47 ], [ 144.8024, 13.4698 ], [ 144.8034, 13.4703 ], [ 144.8061, 13.4731 ], [ 144.8063, 13.4722 ], [ 144.8074, 13.4721 ], [ 144.8074, 13.4717 ], [ 144.8091, 13.4717 ], [ 144.8092, 13.4697 ], [ 144.8074, 13.4693 ], [ 144.8076, 13.4571 ], [ 144.8048, 13.4571 ], [ 144.8043, 13.4591 ], [ 144.8012, 13.4641 ], [ 144.8007, 13.4664 ], [ 144.8014, 13.47 ] ] ] } },
{ "type": "Feature", "properties": { "GEOIDFQ": "1400000US66010950402", "NAME": "9504.02", "NAMELSAD": "Census Tract 9504.02" }, "geometry": { "type": "Polygon", "coordinates": [ [ [ 144.8504, 13.5756 ], [ 144.8593, 13.5863 ], [ 144.8642, 13.5889 ], [ 144.8659, 13.589 ], [ 144.8674, 13.5886 ], [ 144.8718, 13.5858 ], [ 144.8734, 13.5771 ], [ 144.8759, 13.5756 ], [ 144.8757, 13.5596 ], [ 144.8691, 13.5598 ], [ 144.8688, 13.5575 ], [ 144.8642, 13.5575 ], [ 144.8643, 13.5682 ], [ 144.8593, 13.5703 ], [ 144.8535, 13.5689 ], [ 144.851, 13.57 ], [ 144.8501, 13.5715 ], [ 144.8486, 13.5725 ], [ 144.8504, 13.5756 ] ] ] } },
{ "type": "Feature", "properties": { "GEOIDFQ": "1400000US66010950802", "NAME": "9508.02", "NAMELSAD": "Census Tract 9508.02" }, "geometry": { "type": "Polygon", "coordinates": [ [ [ 144.8252, 13.5265 ], [ 144.8258, 13.5295 ], [ 144.8286, 13.5357 ], [ 144.8326, 13.5403 ], [ 144.8332, 13.5418 ], [ 144.8543, 13.5415 ], [ 144.8454, 13.5221 ], [ 144.8382, 13.5237 ], [ 144.836, 13.5237 ], [ 144.8297, 13.522 ], [ 144.8277, 13.521 ], [ 144.8235, 13.5238 ], [ 144.8252, 13.5265 ] ] ] } },
{ "type": "Feature", "properties": { "GEOIDFQ": "1400000US66010951902", "NAME": "9519.02", "NAMELSAD": "Census Tract 9519.02" }, "geometry": { "type": "Polygon", "coordinates": [ [ [ 144.7834, 13.5083 ], [ 144.786, 13.5068 ], [ 144.7868, 13.5053 ], [ 144.7876, 13.5048 ], [ 144.7905, 13.5043 ], [ 144.7977, 13.5065 ], [ 144.801, 13.5095 ], [ 144.8051, 13.5157 ], [ 144.8064, 13.5197 ], [ 144.8059, 13.5209 ], [ 144.8036, 13.5212 ], [ 144.8032, 13.5223 ], [ 144.8036, 13.5225 ], [ 144.804, 13.5255 ], [ 144.8034, 13.526 ], [ 144.803, 13.5299 ], [ 144.8034, 13.5318 ], [ 144.803, 13.5333 ], [ 144.8021, 13.5339 ], [ 144.8021, 13.5355 ], [ 144.806, 13.54 ], [ 144.8068, 13.5418 ], [ 144.8083, 13.5432 ], [ 144.8085, 13.5441 ], [ 144.8109, 13.5414 ], [ 144.8154, 13.5211 ], [ 144.8133, 13.5202 ], [ 144.8123, 13.5189 ], [ 144.8094, 13.5067 ], [ 144.8084, 13.5053 ], [ 144.8094, 13.5052 ], [ 144.8139, 13.5067 ], [ 144.8197, 13.5094 ], [ 144.8213, 13.5051 ], [ 144.8197, 13.5021 ], [ 144.8201, 13.4987 ], [ 144.8155, 13.4987 ], [ 144.811, 13.4965 ], [ 144.8081, 13.4958 ], [ 144.8005, 13.4917 ], [ 144.7984, 13.4915 ], [ 144.7942, 13.4947 ], [ 144.7993, 13.5015 ], [ 144.7968, 13.5025 ], [ 144.7961, 13.5033 ], [ 144.7926, 13.5019 ], [ 144.7892, 13.5012 ], [ 144.7852, 13.5024 ], [ 144.7824, 13.5071 ], [ 144.7822, 13.508 ], [ 144.7834, 13.5083 ] ] ] } },
{ "type": "Feature", "properties": { "GEOIDFQ": "1400000US66010950502", "NAME": "9505.02", "NAMELSAD": "Census Tract 9505.02" }, "geometry": { "type": "Polygon", "coordinates": [ [ [ 144.8778, 13.546 ], [ 144.8757, 13.5586 ], [ 144.8758, 13.5641 ], [ 144.8807, 13.5645 ], [ 144.8804, 13.5647 ], [ 144.8812, 13.5671 ], [ 144.8802, 13.569 ], [ 144.879, 13.569 ], [ 144.8789, 13.5699 ], [ 144.8797, 13.5701 ], [ 144.8804, 13.5718 ], [ 144.8824, 13.5722 ], [ 144.8889, 13.5778 ], [ 144.8918, 13.5795 ], [ 144.8965, 13.573 ], [ 144.8993, 13.5652 ], [ 144.8992, 13.5634 ], [ 144.889, 13.5377 ], [ 144.8836, 13.5258 ], [ 144.8805, 13.5229 ], [ 144.8761, 13.5213 ], [ 144.8751, 13.5238 ], [ 144.8749, 13.5304 ], [ 144.8778, 13.546 ] ] ] } },
{ "type": "Feature", "properties": { "GEOIDFQ": "1400000US66010950401", "NAME": "9504.01", "NAMELSAD": "Census Tract 9504.01" }, "geometry": { "type": "Polygon", "coordinates": [ [ [ 144.8486, 13.5725 ], [ 144.8501, 13.5715 ], [ 144.851, 13.57 ], [ 144.8535, 13.5689 ], [ 144.8593, 13.5703 ], [ 144.8644, 13.5682 ], [ 144.8642, 13.5575 ], [ 144.8408, 13.5577 ], [ 144.8486, 13.5725 ] ] ] } },
{ "type": "Feature", "properties": { "GEOIDFQ": "1400000US66010951901", "NAME": "9519.01", "NAMELSAD": "Census Tract 9519.01" }, "geometry": { "type": "Polygon", "coordinates": [ [ [ 144.8094, 13.5067 ], [ 144.8123, 13.5189 ], [ 144.8133, 13.5202 ], [ 144.8154, 13.5211 ], [ 144.8197, 13.5094 ], [ 144.8139, 13.5067 ], [ 144.8094, 13.5052 ], [ 144.8084, 13.5053 ], [ 144.8094, 13.5067 ] ] ] } },
{ "type": "Feature", "properties": { "GEOIDFQ": "1400000US66010950702", "NAME": "9507.02", "NAMELSAD": "Census Tract 9507.02" }, "geometry": { "type": "Polygon", "coordinates": [ [ [ 144.8549, 13.5433 ], [ 144.855, 13.5575 ], [ 144.8688, 13.5575 ], [ 144.8689, 13.5598 ], [ 144.8757, 13.5596 ], [ 144.8768, 13.5511 ], [ 144.8778, 13.5472 ], [ 144.8749, 13.5304 ], [ 144.8751, 13.5238 ], [ 144.8761, 13.5213 ], [ 144.8637, 13.5173 ], [ 144.865, 13.5327 ], [ 144.8595, 13.5317 ], [ 144.8573, 13.5304 ], [ 144.8493, 13.5305 ], [ 144.8549, 13.5433 ] ] ] } },
{ "type": "Feature", "properties": { "GEOIDFQ": "1400000US66010950801", "NAME": "9508.01", "NAMELSAD": "Census Tract 9508.01" }, "geometry": { "type": "Polygon", "coordinates": [ [ [ 144.8347, 13.5466 ], [ 144.8407, 13.5575 ], [ 144.855, 13.5575 ], [ 144.855, 13.5439 ], [ 144.8543, 13.5415 ], [ 144.8342, 13.5417 ], [ 144.8333, 13.542 ], [ 144.8347, 13.5466 ] ] ] } },
{ "type": "Feature", "properties": { "GEOIDFQ": "1400000US66010953101", "NAME": "9531.01", "NAMELSAD": "Census Tract 9531.01" }, "geometry": { "type": "Polygon", "coordinates": [ [ [ 144.7517, 13.4571 ], [ 144.7531, 13.4563 ], [ 144.7552, 13.4568 ], [ 144.7565, 13.4565 ], [ 144.7573, 13.4558 ], [ 144.758, 13.4562 ], [ 144.7587, 13.4559 ], [ 144.7595, 13.4554 ], [ 144.7598, 13.4543 ], [ 144.7585, 13.4528 ], [ 144.7584, 13.4514 ], [ 144.7604, 13.4485 ], [ 144.7683, 13.4433 ], [ 144.7742, 13.4423 ], [ 144.7759, 13.4414 ], [ 144.7768, 13.4401 ], [ 144.7778, 13.4358 ], [ 144.78, 13.4342 ], [ 144.7824, 13.4347 ], [ 144.7848, 13.4363 ], [ 144.7923, 13.4379 ], [ 144.7927, 13.4366 ], [ 144.7928, 13.4265 ], [ 144.7908, 13.4256 ], [ 144.7889, 13.4254 ], [ 144.7862, 13.4245 ], [ 144.7839, 13.4216 ], [ 144.7829, 13.4227 ], [ 144.7815, 13.4229 ], [ 144.7807, 13.4209 ], [ 144.7784, 13.42 ], [ 144.7778, 13.4203 ], [ 144.7784, 13.4214 ], [ 144.7781, 13.4222 ], [ 144.7775, 13.4215 ], [ 144.7767, 13.4217 ], [ 144.7771, 13.4223 ], [ 144.7767, 13.4233 ], [ 144.7765, 13.4228 ], [ 144.7747, 13.4227 ], [ 144.7751, 13.4235 ], [ 144.7749, 13.4239 ], [ 144.7742, 13.4234 ], [ 144.7732, 13.424 ], [ 144.7735, 13.4233 ], [ 144.773, 13.4232 ], [ 144.7712, 13.4246 ], [ 144.7708, 13.4247 ], [ 144.7712, 13.4241 ], [ 144.7706, 13.4239 ], [ 144.7704, 13.4244 ], [ 144.7695, 13.4242 ], [ 144.769, 13.4251 ], [ 144.7684, 13.4248 ], [ 144.769, 13.4258 ], [ 144.769, 13.4267 ], [ 144.7669, 13.427 ], [ 144.7657, 13.4265 ], [ 144.7659, 13.4269 ], [ 144.7649, 13.4272 ], [ 144.7647, 13.4278 ], [ 144.7651, 13.4286 ], [ 144.7648, 13.4291 ], [ 144.7649, 13.4299 ], [ 144.7645, 13.4302 ], [ 144.7638, 13.4296 ], [ 144.764, 13.4312 ], [ 144.7629, 13.432 ], [ 144.7627, 13.4328 ], [ 144.7623, 13.4327 ], [ 144.7625, 13.432 ], [ 144.7619, 13.4315 ], [ 144.7619, 13.4324 ], [ 144.7607, 13.432 ], [ 144.7603, 13.4342 ], [ 144.7594, 13.4346 ], [ 144.7589, 13.4356 ], [ 144.7569, 13.4361 ], [ 144.7568, 13.4374 ], [ 144.7557, 13.4364 ], [ 144.7553, 13.4366 ], [ 144.7555, 13.4371 ], [ 144.7541, 13.437 ], [ 144.7545, 13.4361 ], [ 144.7534, 13.4362 ], [ 144.7534, 13.4354 ], [ 144.7516, 13.4347 ], [ 144.7512, 13.4352 ], [ 144.7516, 13.4356 ], [ 144.7508, 13.436 ], [ 144.751, 13.4356 ], [ 144.7497, 13.4348 ], [ 144.7475, 13.4346 ], [ 144.7473, 13.4402 ], [ 144.7479, 13.4412 ], [ 144.7481, 13.4443 ], [ 144.7475, 13.4448 ], [ 144.7431, 13.445 ], [ 144.7462, 13.4469 ], [ 144.7404, 13.456 ], [ 144.7517, 13.4571 ] ] ] } },
{ "type": "Feature", "properties": { "GEOIDFQ": "1400000US66010950501", "NAME": "9505.01", "NAMELSAD": "Census Tract 9505.01" }, "geometry": { "type": "Polygon", "coordinates": [ [ [ 144.8739, 13.5849 ], [ 144.8784, 13.5854 ], [ 144.888, 13.5831 ], [ 144.8895, 13.5822 ], [ 144.8918, 13.5795 ], [ 144.8889, 13.5778 ], [ 144.8824, 13.5722 ], [ 144.8804, 13.5718 ], [ 144.8797, 13.5701 ], [ 144.8789, 13.5699 ], [ 144.879, 13.569 ], [ 144.8802, 13.569 ], [ 144.8812, 13.5671 ], [ 144.8805, 13.5643 ], [ 144.8758, 13.5641 ], [ 144.8759, 13.5756 ], [ 144.8734, 13.5771 ], [ 144.8718, 13.5858 ], [ 144.8739, 13.5849 ] ] ] } },
{ "type": "Feature", "properties": { "GEOIDFQ": "1400000US66010955800", "NAME": "9558", "NAMELSAD": "Census Tract 9558" }, "geometry": { "type": "Polygon", "coordinates": [ [ [ 144.8828, 13.5248 ], [ 144.8847, 13.5277 ], [ 144.889, 13.5377 ], [ 144.8992, 13.5634 ], [ 144.9165, 13.5568 ], [ 144.913, 13.5439 ], [ 144.9096, 13.5416 ], [ 144.9089, 13.5382 ], [ 144.907, 13.5363 ], [ 144.9026, 13.528 ], [ 144.9017, 13.5272 ], [ 144.8956, 13.5242 ], [ 144.8828, 13.5074 ], [ 144.8828, 13.5248 ] ] ] } },
{ "type": "Feature", "properties": { "GEOIDFQ": "1400000US66010955900", "NAME": "9559", "NAMELSAD": "Census Tract 9559" }, "geometry": { "type": "MultiPolygon", "coordinates": [ [ [ [ 144.77, 13.4931 ], [ 144.7711, 13.4934 ], [ 144.771, 13.4931 ], [ 144.7715, 13.4929 ], [ 144.7705, 13.4923 ], [ 144.7697, 13.4925 ], [ 144.77, 13.4931 ] ] ], [ [ [ 144.7694, 13.4811 ], [ 144.7736, 13.4868 ], [ 144.7748, 13.4889 ], [ 144.7752, 13.4909 ], [ 144.7744, 13.4944 ], [ 144.7724, 13.4952 ], [ 144.7713, 13.4949 ], [ 144.7699, 13.4954 ], [ 144.7699, 13.4977 ], [ 144.7691, 13.4997 ], [ 144.7704, 13.5024 ], [ 144.7744, 13.5064 ], [ 144.776, 13.5069 ], [ 144.7777, 13.5067 ], [ 144.7813, 13.5081 ], [ 144.7822, 13.5081 ], [ 144.7824, 13.5071 ], [ 144.7852, 13.5024 ], [ 144.7813, 13.5044 ], [ 144.7809, 13.5036 ], [ 144.7817, 13.4976 ], [ 144.7761, 13.4976 ], [ 144.7759, 13.4939 ], [ 144.7765, 13.4922 ], [ 144.7766, 13.4896 ], [ 144.7761, 13.4868 ], [ 144.777, 13.485 ], [ 144.7725, 13.4836 ], [ 144.769, 13.4805 ], [ 144.7676, 13.4798 ], [ 144.7694, 13.4811 ] ] ] ] } },
{ "type": "Feature", "properties": { "GEOIDFQ": "1400000US66010955700", "NAME": "9557", "NAMELSAD": "Census Tract 9557" }, "geometry": { "type": "Polygon", "coordinates": [ [ [ 144.8244, 13.4508 ], [ 144.8259, 13.4517 ], [ 144.8283, 13.4548 ], [ 144.831, 13.4595 ], [ 144.833, 13.4611 ], [ 144.8328, 13.4846 ], [ 144.8346, 13.4979 ], [ 144.8433, 13.4988 ], [ 144.8486, 13.4976 ], [ 144.8532, 13.4991 ], [ 144.8551, 13.4988 ], [ 144.8569, 13.4996 ], [ 144.8708, 13.4997 ], [ 144.8708, 13.4923 ], [ 144.869, 13.4905 ], [ 144.87, 13.4871 ], [ 144.8709, 13.4861 ], [ 144.8704, 13.4858 ], [ 144.8703, 13.4846 ], [ 144.8694, 13.4831 ], [ 144.8672, 13.4808 ], [ 144.8651, 13.4794 ], [ 144.8632, 13.4767 ], [ 144.8608, 13.4747 ], [ 144.8608, 13.4741 ], [ 144.8598, 13.4729 ], [ 144.8594, 13.4718 ], [ 144.8569, 13.4706 ], [ 144.8542, 13.4669 ], [ 144.8506, 13.4633 ], [ 144.8473, 13.463 ], [ 144.8468, 13.4621 ], [ 144.846, 13.4625 ], [ 144.8448, 13.462 ], [ 144.8441, 13.4606 ], [ 144.8432, 13.4602 ], [ 144.8407, 13.4603 ], [ 144.8403, 13.4598 ], [ 144.8409, 13.4595 ], [ 144.8407, 13.459 ], [ 144.8389, 13.4584 ], [ 144.8365, 13.4547 ], [ 144.8358, 13.4545 ], [ 144.8346, 13.4528 ], [ 144.8332, 13.453 ], [ 144.8338, 13.4513 ], [ 144.832, 13.4484 ], [ 144.8304, 13.4472 ], [ 144.8301, 13.4475 ], [ 144.8293, 13.4472 ], [ 144.8295, 13.4465 ], [ 144.8281, 13.4453 ], [ 144.8268, 13.4456 ], [ 144.827, 13.4444 ], [ 144.8259, 13.4428 ], [ 144.8217, 13.4501 ], [ 144.8244, 13.4508 ] ] ] } },
{ "type": "Feature", "properties": { "GEOIDFQ": "1400000US66010956000", "NAME": "9560", "NAMELSAD": "Census Tract 9560" }, "geometry": { "type": "Polygon", "coordinates": [ [ [ 144.7687, 13.4795 ], [ 144.7693, 13.4795 ], [ 144.7705, 13.4811 ], [ 144.7734, 13.4821 ], [ 144.7797, 13.4817 ], [ 144.7803, 13.475 ], [ 144.7857, 13.4661 ], [ 144.7857, 13.4642 ], [ 144.7844, 13.4617 ], [ 144.7813, 13.4613 ], [ 144.7791, 13.462 ], [ 144.7773, 13.4613 ], [ 144.777, 13.4606 ], [ 144.7763, 13.4603 ], [ 144.7749, 13.4611 ], [ 144.7743, 13.4611 ], [ 144.7741, 13.4603 ], [ 144.7726, 13.4604 ], [ 144.7732, 13.461 ], [ 144.7741, 13.4639 ], [ 144.7766, 13.4676 ], [ 144.778, 13.4686 ], [ 144.7756, 13.4687 ], [ 144.7758, 13.4704 ], [ 144.7767, 13.4719 ], [ 144.7754, 13.4736 ], [ 144.7755, 13.4758 ], [ 144.7686, 13.476 ], [ 144.7687, 13.4795 ] ] ] } },
{ "type": "Feature", "properties": { "GEOIDFQ": "1400000US66010956100", "NAME": "9561", "NAMELSAD": "Census Tract 9561" }, "geometry": { "type": "MultiPolygon", "coordinates": [ [ [ [ 144.7067, 13.4759 ], [ 144.7074, 13.4769 ], [ 144.7085, 13.4766 ], [ 144.7084, 13.4755 ], [ 144.7104, 13.4742 ], [ 144.7166, 13.4734 ], [ 144.7224, 13.4765 ], [ 144.723, 13.4774 ], [ 144.7252, 13.4783 ], [ 144.7286, 13.479 ], [ 144.7291, 13.4781 ], [ 144.7318, 13.478 ], [ 144.7311, 13.4761 ], [ 144.7323, 13.476 ], [ 144.7322, 13.4752 ], [ 144.7329, 13.4744 ], [ 144.7351, 13.4736 ], [ 144.7384, 13.4707 ], [ 144.7395, 13.4704 ], [ 144.7416, 13.4688 ], [ 144.7422, 13.4655 ], [ 144.7417, 13.4641 ], [ 144.7408, 13.4622 ], [ 144.7389, 13.4617 ], [ 144.7391, 13.4609 ], [ 144.7383, 13.4607 ], [ 144.7383, 13.4597 ], [ 144.7385, 13.4586 ], [ 144.7462, 13.4469 ], [ 144.7431, 13.445 ], [ 144.7475, 13.4448 ], [ 144.7481, 13.4443 ], [ 144.7479, 13.4412 ], [ 144.7473, 13.4402 ], [ 144.7474, 13.4356 ], [ 144.7457, 13.436 ], [ 144.7444, 13.4355 ], [ 144.7435, 13.4365 ], [ 144.7427, 13.4351 ], [ 144.742, 13.4358 ], [ 144.7405, 13.435 ], [ 144.7406, 13.4359 ], [ 144.7398, 13.4357 ], [ 144.7395, 13.437 ], [ 144.7385, 13.4367 ], [ 144.7379, 13.438 ], [ 144.7369, 13.4383 ], [ 144.7377, 13.4404 ], [ 144.7359, 13.4399 ], [ 144.7358, 13.4411 ], [ 144.7355, 13.4413 ], [ 144.7349, 13.4411 ], [ 144.7349, 13.44 ], [ 144.7331, 13.4402 ], [ 144.733, 13.4408 ], [ 144.7317, 13.4412 ], [ 144.7315, 13.442 ], [ 144.7297, 13.443 ], [ 144.7292, 13.4436 ], [ 144.7293, 13.4441 ], [ 144.7288, 13.444 ], [ 144.7284, 13.4445 ], [ 144.7281, 13.4434 ], [ 144.7289, 13.4432 ], [ 144.7286, 13.4427 ], [ 144.7275, 13.4435 ], [ 144.7274, 13.4431 ], [ 144.7267, 13.4429 ], [ 144.7246, 13.4434 ], [ 144.7239, 13.4425 ], [ 144.7205, 13.4403 ], [ 144.7201, 13.4408 ], [ 144.7192, 13.4403 ], [ 144.7165, 13.44 ], [ 144.7138, 13.4375 ], [ 144.7124, 13.4354 ], [ 144.7111, 13.4351 ], [ 144.7073, 13.4597 ], [ 144.7084, 13.4604 ], [ 144.7093, 13.4621 ], [ 144.7089, 13.4632 ], [ 144.7078, 13.464 ], [ 144.7078, 13.4648 ], [ 144.7068, 13.4669 ], [ 144.7066, 13.4684 ], [ 144.7072, 13.4691 ], [ 144.7074, 13.4702 ], [ 144.7067, 13.4717 ], [ 144.7067, 13.4759 ] ] ], [ [ [ 144.7055, 13.4805 ], [ 144.7056, 13.4801 ], [ 144.7053, 13.4801 ], [ 144.7055, 13.4805 ] ] ] ] } },
{ "type": "Feature", "properties": { "GEOIDFQ": "1400000US66010956200", "NAME": "9562", "NAMELSAD": "Census Tract 9562" }, "geometry": { "type": "Polygon", "coordinates": [ [ [ 144.666, 13.4042 ], [ 144.6728, 13.408 ], [ 144.6761, 13.4109 ], [ 144.6765, 13.4134 ], [ 144.6784, 13.4166 ], [ 144.6774, 13.4195 ], [ 144.6757, 13.4216 ], [ 144.6777, 13.4242 ], [ 144.6781, 13.4228 ], [ 144.6808, 13.4201 ], [ 144.6809, 13.4183 ], [ 144.6826, 13.4145 ], [ 144.6829, 13.4142 ], [ 144.6845, 13.4145 ], [ 144.6856, 13.4134 ], [ 144.6874, 13.4133 ], [ 144.6883, 13.4121 ], [ 144.6882, 13.4114 ], [ 144.6888, 13.4109 ], [ 144.6893, 13.4109 ], [ 144.6893, 13.4114 ], [ 144.6923, 13.4105 ], [ 144.6929, 13.4112 ], [ 144.6932, 13.411 ], [ 144.6934, 13.4117 ], [ 144.6939, 13.4116 ], [ 144.6955, 13.4122 ], [ 144.6961, 13.413 ], [ 144.697, 13.4131 ], [ 144.7002, 13.4155 ], [ 144.7012, 13.4183 ], [ 144.7213, 13.3898 ], [ 144.7207, 13.3894 ], [ 144.7222, 13.3879 ], [ 144.7096, 13.388 ], [ 144.7095, 13.3939 ], [ 144.6922, 13.3941 ], [ 144.6896, 13.3913 ], [ 144.6884, 13.3922 ], [ 144.6867, 13.3882 ], [ 144.6842, 13.3889 ], [ 144.684, 13.3884 ], [ 144.6825, 13.3878 ], [ 144.6793, 13.3884 ], [ 144.6787, 13.3869 ], [ 144.6769, 13.3872 ], [ 144.6771, 13.3855 ], [ 144.6766, 13.3846 ], [ 144.6738, 13.383 ], [ 144.6734, 13.3833 ], [ 144.6711, 13.3824 ], [ 144.6695, 13.3812 ], [ 144.6688, 13.3821 ], [ 144.6666, 13.3891 ], [ 144.667, 13.3898 ], [ 144.666, 13.3912 ], [ 144.668, 13.3921 ], [ 144.6692, 13.3918 ], [ 144.6695, 13.3924 ], [ 144.6675, 13.3936 ], [ 144.6676, 13.3944 ], [ 144.6681, 13.3946 ], [ 144.6677, 13.3958 ], [ 144.6679, 13.3972 ], [ 144.6672, 13.3981 ], [ 144.6662, 13.398 ], [ 144.6655, 13.4 ], [ 144.6643, 13.401 ], [ 144.666, 13.4042 ] ] ] } },
{ "type": "Feature", "properties": { "GEOIDFQ": "1400000US66010952400", "NAME": "9524", "NAMELSAD": "Census Tract 9524" }, "geometry": { "type": "Polygon", "coordinates": [ [ [ 144.7694, 13.4807 ], [ 144.7725, 13.4836 ], [ 144.7808, 13.4862 ], [ 144.7903, 13.4908 ], [ 144.793, 13.493 ], [ 144.7942, 13.4947 ], [ 144.7979, 13.4917 ], [ 144.8004, 13.4917 ], [ 144.8006, 13.4908 ], [ 144.7942, 13.4891 ], [ 144.789, 13.4858 ], [ 144.7805, 13.4819 ], [ 144.7734, 13.4821 ], [ 144.7705, 13.4811 ], [ 144.7693, 13.4795 ], [ 144.7676, 13.4794 ], [ 144.7676, 13.4798 ], [ 144.7694, 13.4807 ] ] ] } },
{ "type": "Feature", "properties": { "GEOIDFQ": "1400000US66010952200", "NAME": "9522", "NAMELSAD": "Census Tract 9522" }, "geometry": { "type": "Polygon", "coordinates": [ [ [ 144.7761, 13.4976 ], [ 144.7817, 13.4976 ], [ 144.784, 13.4875 ], [ 144.777, 13.485 ], [ 144.7761, 13.4868 ], [ 144.7766, 13.4896 ], [ 144.7765, 13.4922 ], [ 144.7759, 13.4939 ], [ 144.7761, 13.4976 ] ] ] } },
{ "type": "Feature", "properties": { "GEOIDFQ": "1400000US66010952800", "NAME": "9528", "NAMELSAD": "Census Tract 9528" }, "geometry": { "type": "Polygon", "coordinates": [ [ [ 144.8076, 13.4571 ], [ 144.8295, 13.4569 ], [ 144.8262, 13.452 ], [ 144.8244, 13.4508 ], [ 144.8185, 13.4494 ], [ 144.8098, 13.4494 ], [ 144.8074, 13.4499 ], [ 144.8076, 13.4571 ] ] ] } },
{ "type": "Feature", "properties": { "GEOIDFQ": "1400000US66010953600", "NAME": "9536", "NAMELSAD": "Census Tract 9536" }, "geometry": { "type": "Polygon", "coordinates": [ [ [ 144.7333, 13.4744 ], [ 144.7353, 13.4738 ], [ 144.7379, 13.472 ], [ 144.7473, 13.472 ], [ 144.7513, 13.4704 ], [ 144.7522, 13.4673 ], [ 144.752, 13.4585 ], [ 144.7523, 13.458 ], [ 144.752, 13.4571 ], [ 144.7404, 13.456 ], [ 144.7385, 13.4586 ], [ 144.7383, 13.4607 ], [ 144.7391, 13.4608 ], [ 144.7387, 13.4614 ], [ 144.7392, 13.462 ], [ 144.7406, 13.4621 ], [ 144.7411, 13.4626 ], [ 144.7422, 13.4655 ], [ 144.7417, 13.4685 ], [ 144.7351, 13.4736 ], [ 144.7337, 13.4739 ], [ 144.7322, 13.4753 ], [ 144.7333, 13.4744 ] ] ] } },
{ "type": "Feature", "properties": { "GEOIDFQ": "1400000US66010953000", "NAME": "9530", "NAMELSAD": "Census Tract 9530" }, "geometry": { "type": "Polygon", "coordinates": [ [ [ 144.7978, 13.4391 ], [ 144.7991, 13.44 ], [ 144.8003, 13.4415 ], [ 144.8098, 13.4416 ], [ 144.8166, 13.4398 ], [ 144.814, 13.4381 ], [ 144.8139, 13.4373 ], [ 144.8129, 13.4367 ], [ 144.812, 13.4351 ], [ 144.8111, 13.4345 ], [ 144.8097, 13.4323 ], [ 144.8087, 13.4288 ], [ 144.8076, 13.4274 ], [ 144.8058, 13.4265 ], [ 144.8004, 13.4267 ], [ 144.8002, 13.4273 ], [ 144.7987, 13.4276 ], [ 144.7977, 13.4286 ], [ 144.7963, 13.4281 ], [ 144.7937, 13.4264 ], [ 144.7928, 13.4265 ], [ 144.7927, 13.4366 ], [ 144.7923, 13.4379 ], [ 144.7978, 13.4391 ] ] ] } },
{ "type": "Feature", "properties": { "GEOIDFQ": "1400000US66010950900", "NAME": "9509", "NAMELSAD": "Census Tract 9509" }, "geometry": { "type": "Polygon", "coordinates": [ [ [ 144.8222, 13.5235 ], [ 144.8241, 13.5235 ], [ 144.8348, 13.5155 ], [ 144.8346, 13.5149 ], [ 144.8337, 13.5141 ], [ 144.8198, 13.5093 ], [ 144.8154, 13.5211 ], [ 144.8222, 13.5235 ] ] ] } },
{ "type": "Feature", "properties": { "GEOIDFQ": "1400000US66010953200", "NAME": "9532", "NAMELSAD": "Census Tract 9532" }, "geometry": { "type": "Polygon", "coordinates": [ [ [ 144.7523, 13.458 ], [ 144.752, 13.4585 ], [ 144.7522, 13.4673 ], [ 144.7541, 13.4675 ], [ 144.7545, 13.4663 ], [ 144.7563, 13.4646 ], [ 144.7581, 13.4636 ], [ 144.7611, 13.4658 ], [ 144.7614, 13.4666 ], [ 144.7634, 13.4674 ], [ 144.7726, 13.4604 ], [ 144.7706, 13.4575 ], [ 144.7682, 13.4568 ], [ 144.7681, 13.4552 ], [ 144.7663, 13.4529 ], [ 144.7663, 13.4517 ], [ 144.7628, 13.4526 ], [ 144.7618, 13.4542 ], [ 144.7599, 13.4542 ], [ 144.7595, 13.4554 ], [ 144.7582, 13.4562 ], [ 144.7574, 13.4558 ], [ 144.7565, 13.4565 ], [ 144.7551, 13.4568 ], [ 144.7531, 13.4563 ], [ 144.752, 13.4571 ], [ 144.7523, 13.458 ] ] ] } },
{ "type": "Feature", "properties": { "GEOIDFQ": "1400000US66010953300", "NAME": "9533", "NAMELSAD": "Census Tract 9533" }, "geometry": { "type": "Polygon", "coordinates": [ [ [ 144.7593, 13.4771 ], [ 144.7628, 13.4771 ], [ 144.7647, 13.4784 ], [ 144.7671, 13.4787 ], [ 144.7676, 13.4794 ], [ 144.7687, 13.4795 ], [ 144.7686, 13.4758 ], [ 144.7755, 13.4758 ], [ 144.7754, 13.4736 ], [ 144.7767, 13.4719 ], [ 144.7758, 13.4704 ], [ 144.7756, 13.4687 ], [ 144.778, 13.4686 ], [ 144.7766, 13.4676 ], [ 144.7748, 13.4649 ], [ 144.7739, 13.4635 ], [ 144.7732, 13.461 ], [ 144.7723, 13.4603 ], [ 144.7634, 13.4674 ], [ 144.7614, 13.4666 ], [ 144.7596, 13.4693 ], [ 144.7598, 13.4718 ], [ 144.7584, 13.4745 ], [ 144.7593, 13.4771 ] ] ] } },
{ "type": "Feature", "properties": { "GEOIDFQ": "1400000US66010955100", "NAME": "9551", "NAMELSAD": "Census Tract 9551" }, "geometry": { "type": "Polygon", "coordinates": [ [ [ 144.6843, 13.3155 ], [ 144.6907, 13.3188 ], [ 144.7005, 13.3299 ], [ 144.7004, 13.3322 ], [ 144.7024, 13.3334 ], [ 144.7038, 13.3356 ], [ 144.7054, 13.3354 ], [ 144.709, 13.3402 ], [ 144.7088, 13.3419 ], [ 144.7028, 13.3466 ], [ 144.7044, 13.3486 ], [ 144.7044, 13.3504 ], [ 144.7036, 13.3518 ], [ 144.7065, 13.3535 ], [ 144.7066, 13.358 ], [ 144.7111, 13.3586 ], [ 144.712, 13.3578 ], [ 144.7139, 13.3584 ], [ 144.7146, 13.358 ], [ 144.7166, 13.3588 ], [ 144.7178, 13.3579 ], [ 144.7203, 13.359 ], [ 144.7207, 13.3588 ], [ 144.7213, 13.3574 ], [ 144.7221, 13.3576 ], [ 144.7222, 13.3681 ], [ 144.7322, 13.3701 ], [ 144.7536, 13.3684 ], [ 144.7545, 13.3696 ], [ 144.7543, 13.3699 ], [ 144.7548, 13.3709 ], [ 144.7546, 13.3715 ], [ 144.7553, 13.372 ], [ 144.7571, 13.3718 ], [ 144.7583, 13.3722 ], [ 144.7591, 13.3708 ], [ 144.7603, 13.3706 ], [ 144.7612, 13.3698 ], [ 144.7622, 13.3703 ], [ 144.7629, 13.3698 ], [ 144.7651, 13.3702 ], [ 144.7652, 13.3681 ], [ 144.7674, 13.3665 ], [ 144.7679, 13.3657 ], [ 144.7687, 13.3661 ], [ 144.7703, 13.3657 ], [ 144.7709, 13.3638 ], [ 144.7719, 13.3624 ], [ 144.7716, 13.3553 ], [ 144.7725, 13.3523 ], [ 144.7719, 13.3509 ], [ 144.7722, 13.3468 ], [ 144.7714, 13.3449 ], [ 144.7725, 13.343 ], [ 144.7715, 13.3423 ], [ 144.7719, 13.3417 ], [ 144.7726, 13.3416 ], [ 144.7727, 13.3409 ], [ 144.7712, 13.3382 ], [ 144.7703, 13.338 ], [ 144.7702, 13.3364 ], [ 144.7618, 13.3379 ], [ 144.7621, 13.3388 ], [ 144.7613, 13.3394 ], [ 144.7598, 13.3383 ], [ 144.7594, 13.3357 ], [ 144.7581, 13.3354 ], [ 144.7572, 13.3358 ], [ 144.7563, 13.337 ], [ 144.7541, 13.3379 ], [ 144.7541, 13.3372 ], [ 144.7532, 13.3371 ], [ 144.7536, 13.3366 ], [ 144.754, 13.3366 ], [ 144.7537, 13.3359 ], [ 144.7527, 13.3364 ], [ 144.7522, 13.3358 ], [ 144.7511, 13.3355 ], [ 144.7499, 13.3335 ], [ 144.7482, 13.3332 ], [ 144.7479, 13.3324 ], [ 144.7473, 13.3323 ], [ 144.7476, 13.3318 ], [ 144.7486, 13.3324 ], [ 144.7482, 13.3306 ], [ 144.7489, 13.3307 ], [ 144.7494, 13.3301 ], [ 144.7492, 13.3298 ], [ 144.7505, 13.3292 ], [ 144.7495, 13.3276 ], [ 144.7461, 13.3287 ], [ 144.7456, 13.3275 ], [ 144.7449, 13.3277 ], [ 144.7445, 13.3269 ], [ 144.7434, 13.327 ], [ 144.7431, 13.3265 ], [ 144.7419, 13.3269 ], [ 144.7409, 13.328 ], [ 144.7397, 13.3279 ], [ 144.7379, 13.3269 ], [ 144.7385, 13.325 ], [ 144.7378, 13.3243 ], [ 144.7373, 13.3244 ], [ 144.7368, 13.323 ], [ 144.7351, 13.3225 ], [ 144.7345, 13.323 ], [ 144.7333, 13.3224 ], [ 144.7341, 13.3209 ], [ 144.7318, 13.3204 ], [ 144.7315, 13.3181 ], [ 144.7309, 13.3174 ], [ 144.731, 13.3168 ], [ 144.7289, 13.3153 ], [ 144.7289, 13.3128 ], [ 144.7285, 13.3125 ], [ 144.7275, 13.3131 ], [ 144.7284, 13.3115 ], [ 144.7279, 13.3105 ], [ 144.7258, 13.3107 ], [ 144.7233, 13.3092 ], [ 144.7223, 13.3092 ], [ 144.7226, 13.3079 ], [ 144.7222, 13.3077 ], [ 144.7216, 13.3084 ], [ 144.72, 13.308 ], [ 144.7193, 13.3064 ], [ 144.7188, 13.3064 ], [ 144.7187, 13.3071 ], [ 144.7179, 13.3078 ], [ 144.7169, 13.3078 ], [ 144.7147, 13.3101 ], [ 144.7145, 13.3093 ], [ 144.7122, 13.3084 ], [ 144.7124, 13.3078 ], [ 144.7106, 13.3061 ], [ 144.7106, 13.3054 ], [ 144.708, 13.3047 ], [ 144.7084, 13.3038 ], [ 144.7074, 13.303 ], [ 144.7075, 13.3023 ], [ 144.707, 13.3019 ], [ 144.6967, 13.3046 ], [ 144.6875, 13.2995 ], [ 144.6746, 13.3254 ], [ 144.6843, 13.3155 ] ] ] } },
{ "type": "Feature", "properties": { "GEOIDFQ": "1400000US66010953400", "NAME": "9534", "NAMELSAD": "Census Tract 9534" }, "geometry": { "type": "Polygon", "coordinates": [ [ [ 144.7287, 13.4811 ], [ 144.7295, 13.4809 ], [ 144.7309, 13.4797 ], [ 144.7309, 13.479 ], [ 144.7314, 13.4786 ], [ 144.7327, 13.479 ], [ 144.7385, 13.4792 ], [ 144.7434, 13.4777 ], [ 144.7482, 13.4776 ], [ 144.7483, 13.4802 ], [ 144.7468, 13.4803 ], [ 144.7468, 13.4815 ], [ 144.7484, 13.4816 ], [ 144.7486, 13.481 ], [ 144.7511, 13.481 ], [ 144.7515, 13.4823 ], [ 144.7529, 13.482 ], [ 144.7539, 13.4813 ], [ 144.7547, 13.4771 ], [ 144.7551, 13.478 ], [ 144.7562, 13.4777 ], [ 144.7617, 13.4782 ], [ 144.7676, 13.48 ], [ 144.7671, 13.4787 ], [ 144.7647, 13.4784 ], [ 144.7628, 13.4771 ], [ 144.7602, 13.4772 ], [ 144.759, 13.4768 ], [ 144.7584, 13.4744 ], [ 144.7593, 13.4733 ], [ 144.7598, 13.4718 ], [ 144.7596, 13.4693 ], [ 144.7614, 13.4667 ], [ 144.7611, 13.4658 ], [ 144.7581, 13.4636 ], [ 144.7563, 13.4646 ], [ 144.7545, 13.4663 ], [ 144.7541, 13.4675 ], [ 144.7523, 13.467 ], [ 144.7515, 13.4702 ], [ 144.7469, 13.4721 ], [ 144.747, 13.4733 ], [ 144.7452, 13.475 ], [ 144.7427, 13.4755 ], [ 144.7394, 13.4752 ], [ 144.7382, 13.4762 ], [ 144.733, 13.4759 ], [ 144.7327, 13.4749 ], [ 144.7323, 13.476 ], [ 144.7311, 13.4761 ], [ 144.7318, 13.478 ], [ 144.7291, 13.4781 ], [ 144.7286, 13.479 ], [ 144.729, 13.4795 ], [ 144.7284, 13.4802 ], [ 144.7287, 13.4811 ] ] ] } },
{ "type": "Feature", "properties": { "GEOIDFQ": "1400000US66010955300", "NAME": "9553", "NAMELSAD": "Census Tract 9553" }, "geometry": { "type": "MultiPolygon", "coordinates": [ [ [ [ 144.7171, 13.2488 ], [ 144.7173, 13.2489 ], [ 144.7179, 13.248 ], [ 144.7175, 13.247 ], [ 144.7163, 13.2467 ], [ 144.7171, 13.2488 ] ] ], [ [ [ 144.7081, 13.2452 ], [ 144.7086, 13.2453 ], [ 144.7089, 13.2435 ], [ 144.7085, 13.243 ], [ 144.7081, 13.2432 ], [ 144.7081, 13.2452 ] ] ], [ [ [ 144.7061, 13.2449 ], [ 144.7067, 13.2441 ], [ 144.7056, 13.2444 ], [ 144.7055, 13.2449 ], [ 144.7061, 13.2449 ] ] ], [ [ [ 144.7067, 13.2441 ], [ 144.707, 13.2442 ], [ 144.7071, 13.244 ], [ 144.7068, 13.2437 ], [ 144.7054, 13.2439 ], [ 144.7067, 13.2441 ] ] ], [ [ [ 144.7013, 13.2453 ], [ 144.7012, 13.2448 ], [ 144.7009, 13.2448 ], [ 144.7009, 13.2453 ], [ 144.7013, 13.2453 ] ] ], [ [ [ 144.6974, 13.2451 ], [ 144.6977, 13.2451 ], [ 144.6973, 13.2447 ], [ 144.6974, 13.2451 ] ] ], [ [ [ 144.6784, 13.241 ], [ 144.6785, 13.2408 ], [ 144.6753, 13.2399 ], [ 144.672, 13.2401 ], [ 144.6784, 13.241 ] ] ], [ [ [ 144.6625, 13.272 ], [ 144.6624, 13.2733 ], [ 144.6637, 13.2751 ], [ 144.6638, 13.2759 ], [ 144.6636, 13.2781 ], [ 144.662, 13.2805 ], [ 144.6619, 13.2825 ], [ 144.6627, 13.2856 ], [ 144.6659, 13.2857 ], [ 144.667, 13.2863 ], [ 144.6685, 13.2865 ], [ 144.669, 13.2856 ], [ 144.6702, 13.2856 ], [ 144.6722, 13.2849 ], [ 144.6728, 13.2835 ], [ 144.6756, 13.2845 ], [ 144.6789, 13.2868 ], [ 144.6788, 13.2839 ], [ 144.6928, 13.2789 ], [ 144.6934, 13.2779 ], [ 144.6941, 13.2781 ], [ 144.6942, 13.2771 ], [ 144.6955, 13.2776 ], [ 144.6973, 13.2763 ], [ 144.6991, 13.2761 ], [ 144.6997, 13.2756 ], [ 144.7, 13.2745 ], [ 144.7006, 13.2742 ], [ 144.7013, 13.2744 ], [ 144.7024, 13.272 ], [ 144.7034, 13.2715 ], [ 144.7036, 13.2709 ], [ 144.7057, 13.2699 ], [ 144.7056, 13.2694 ], [ 144.7063, 13.2698 ], [ 144.7072, 13.2696 ], [ 144.7078, 13.2702 ], [ 144.7094, 13.27 ], [ 144.7107, 13.2678 ], [ 144.7103, 13.2666 ], [ 144.7104, 13.2657 ], [ 144.7114, 13.2645 ], [ 144.7122, 13.262 ], [ 144.7132, 13.2621 ], [ 144.7138, 13.2604 ], [ 144.7155, 13.2597 ], [ 144.7152, 13.2594 ], [ 144.7155, 13.2588 ], [ 144.7171, 13.2579 ], [ 144.7175, 13.2566 ], [ 144.7178, 13.2567 ], [ 144.7185, 13.2547 ], [ 144.7182, 13.2539 ], [ 144.7184, 13.2531 ], [ 144.7178, 13.2519 ], [ 144.7182, 13.2513 ], [ 144.7191, 13.2511 ], [ 144.7174, 13.2505 ], [ 144.7165, 13.2494 ], [ 144.7153, 13.2488 ], [ 144.715, 13.2481 ], [ 144.7127, 13.2472 ], [ 144.7115, 13.2476 ], [ 144.7082, 13.2466 ], [ 144.7076, 13.2469 ], [ 144.7073, 13.2464 ], [ 144.7062, 13.2463 ], [ 144.6992, 13.2476 ], [ 144.6961, 13.2497 ], [ 144.6935, 13.2508 ], [ 144.6907, 13.2506 ], [ 144.6891, 13.251 ], [ 144.6875, 13.2526 ], [ 144.6875, 13.254 ], [ 144.6867, 13.2547 ], [ 144.6867, 13.2558 ], [ 144.6862, 13.2562 ], [ 144.6859, 13.2558 ], [ 144.685, 13.2558 ], [ 144.6848, 13.255 ], [ 144.6846, 13.256 ], [ 144.6843, 13.2558 ], [ 144.6846, 13.2555 ], [ 144.6847, 13.2549 ], [ 144.6843, 13.2554 ], [ 144.6836, 13.2539 ], [ 144.6814, 13.2544 ], [ 144.6775, 13.2545 ], [ 144.6747, 13.257 ], [ 144.6739, 13.2596 ], [ 144.6743, 13.2613 ], [ 144.6735, 13.2615 ], [ 144.6735, 13.2625 ], [ 144.6716, 13.2628 ], [ 144.6697, 13.2647 ], [ 144.6646, 13.2677 ], [ 144.6635, 13.2698 ], [ 144.6619, 13.2715 ], [ 144.6625, 13.272 ] ] ], [ [ [ 144.6446, 13.2361 ], [ 144.6498, 13.2382 ], [ 144.6572, 13.2426 ], [ 144.6582, 13.2424 ], [ 144.659, 13.2413 ], [ 144.659, 13.2406 ], [ 144.6561, 13.2393 ], [ 144.6498, 13.2356 ], [ 144.6456, 13.2341 ], [ 144.6435, 13.2338 ], [ 144.6433, 13.2341 ], [ 144.6446, 13.2361 ] ] ] ] } },
{ "type": "Feature", "properties": { "GEOIDFQ": "1400000US66010980200", "NAME": "9802", "NAMELSAD": "Census Tract 9802" }, "geometry": { "type": "Polygon", "coordinates": [ [ [ 144.6661, 13.3414 ], [ 144.6694, 13.3392 ], [ 144.672, 13.3452 ], [ 144.6685, 13.3496 ], [ 144.6687, 13.373 ], [ 144.6694, 13.3736 ], [ 144.6697, 13.3747 ], [ 144.669, 13.3784 ], [ 144.6695, 13.3812 ], [ 144.6852, 13.3671 ], [ 144.6929, 13.3612 ], [ 144.6997, 13.3552 ], [ 144.7022, 13.3524 ], [ 144.7036, 13.3518 ], [ 144.7044, 13.3504 ], [ 144.7044, 13.3486 ], [ 144.7028, 13.3466 ], [ 144.7052, 13.345 ], [ 144.7022, 13.3439 ], [ 144.6811, 13.3332 ], [ 144.6715, 13.3291 ], [ 144.6641, 13.3398 ], [ 144.6661, 13.3414 ] ] ] } },
{ "type": "Feature", "properties": { "GEOIDFQ": "1400000US66010950100", "NAME": "9501", "NAMELSAD": "Census Tract 9501" }, "geometry": { "type": "Polygon", "coordinates": [ [ [ 144.8971, 13.605 ], [ 144.8991, 13.6061 ], [ 144.9008, 13.6078 ], [ 144.9037, 13.6045 ], [ 144.9077, 13.6054 ], [ 144.9128, 13.604 ], [ 144.9155, 13.6027 ], [ 144.9271, 13.6 ], [ 144.9294, 13.6003 ], [ 144.9315, 13.6017 ], [ 144.9345, 13.601 ], [ 144.9356, 13.6002 ], [ 144.9362, 13.6005 ], [ 144.9386, 13.6001 ], [ 144.9404, 13.6007 ], [ 144.9452, 13.5999 ], [ 144.9493, 13.6003 ], [ 144.9511, 13.601 ], [ 144.954, 13.6005 ], [ 144.9561, 13.5994 ], [ 144.9568, 13.5981 ], [ 144.9566, 13.5961 ], [ 144.9555, 13.5943 ], [ 144.9556, 13.5938 ], [ 144.955, 13.5929 ], [ 144.9546, 13.5929 ], [ 144.9548, 13.5926 ], [ 144.9541, 13.5929 ], [ 144.9544, 13.5923 ], [ 144.954, 13.5924 ], [ 144.954, 13.5913 ], [ 144.9533, 13.591 ], [ 144.9518, 13.5875 ], [ 144.9514, 13.585 ], [ 144.9507, 13.5835 ], [ 144.9505, 13.5799 ], [ 144.9501, 13.5795 ], [ 144.9505, 13.5789 ], [ 144.9498, 13.5771 ], [ 144.9487, 13.5752 ], [ 144.9478, 13.5746 ], [ 144.9481, 13.5743 ], [ 144.9477, 13.5742 ], [ 144.9467, 13.5723 ], [ 144.9452, 13.5715 ], [ 144.9451, 13.5709 ], [ 144.944, 13.5698 ], [ 144.943, 13.5692 ], [ 144.9424, 13.5694 ], [ 144.9403, 13.568 ], [ 144.9401, 13.5661 ], [ 144.939, 13.5622 ], [ 144.9385, 13.5619 ], [ 144.9384, 13.5606 ], [ 144.9388, 13.559 ], [ 144.9382, 13.5576 ], [ 144.9398, 13.5557 ], [ 144.9397, 13.554 ], [ 144.9401, 13.5537 ], [ 144.9397, 13.5537 ], [ 144.9397, 13.5532 ], [ 144.9402, 13.5526 ], [ 144.9381, 13.5492 ], [ 144.938, 13.5482 ], [ 144.9165, 13.5568 ], [ 144.9175, 13.5599 ], [ 144.924, 13.5636 ], [ 144.92, 13.5659 ], [ 144.9174, 13.5699 ], [ 144.9123, 13.5712 ], [ 144.9088, 13.5813 ], [ 144.9092, 13.5833 ], [ 144.911, 13.5847 ], [ 144.9093, 13.5864 ], [ 144.9084, 13.5884 ], [ 144.9059, 13.5909 ], [ 144.901, 13.5934 ], [ 144.9005, 13.5941 ], [ 144.8991, 13.5945 ], [ 144.8984, 13.5985 ], [ 144.8985, 13.6014 ], [ 144.8982, 13.602 ], [ 144.8966, 13.6031 ], [ 144.8964, 13.6041 ], [ 144.8971, 13.605 ] ] ] } },
{ "type": "Feature", "properties": { "GEOIDFQ": "1400000US66010954700", "NAME": "9547", "NAMELSAD": "Census Tract 9547" }, "geometry": { "type": "MultiPolygon", "coordinates": [ [ [ [ 144.6604, 13.4022 ], [ 144.6607, 13.402 ], [ 144.6604, 13.4018 ], [ 144.6604, 13.4022 ] ] ], [ [ [ 144.6604, 13.4016 ], [ 144.6603, 13.4012 ], [ 144.66, 13.4012 ], [ 144.6599, 13.4017 ], [ 144.6604, 13.4016 ] ] ], [ [ [ 144.6545, 13.3875 ], [ 144.6557, 13.3865 ], [ 144.6554, 13.3862 ], [ 144.6539, 13.3873 ], [ 144.6545, 13.3875 ] ] ], [ [ [ 144.6559, 13.3853 ], [ 144.6557, 13.3862 ], [ 144.6581, 13.3881 ], [ 144.6591, 13.3883 ], [ 144.6606, 13.3904 ], [ 144.661, 13.3918 ], [ 144.6606, 13.3934 ], [ 144.663, 13.3985 ], [ 144.6631, 13.4011 ], [ 144.6642, 13.401 ], [ 144.6654, 13.4002 ], [ 144.6662, 13.398 ], [ 144.6672, 13.3981 ], [ 144.6679, 13.3972 ], [ 144.6677, 13.3958 ], [ 144.6681, 13.3946 ], [ 144.6676, 13.3944 ], [ 144.6675, 13.3936 ], [ 144.6695, 13.3924 ], [ 144.6692, 13.3918 ], [ 144.668, 13.3921 ], [ 144.666, 13.3912 ], [ 144.667, 13.3898 ], [ 144.6666, 13.3891 ], [ 144.6681, 13.3843 ], [ 144.6645, 13.3845 ], [ 144.6629, 13.3833 ], [ 144.6634, 13.3818 ], [ 144.6621, 13.381 ], [ 144.6613, 13.3811 ], [ 144.661, 13.3804 ], [ 144.6579, 13.3816 ], [ 144.6573, 13.3828 ], [ 144.6561, 13.3825 ], [ 144.6552, 13.3816 ], [ 144.6539, 13.3817 ], [ 144.6559, 13.3853 ] ] ] ] } },
{ "type": "Feature", "properties": { "GEOIDFQ": "1400000US66010954800", "NAME": "9548", "NAMELSAD": "Census Tract 9548" }, "geometry": { "type": "MultiPolygon", "coordinates": [ [ [ [ 144.6513, 13.38 ], [ 144.6515, 13.3797 ], [ 144.6512, 13.3795 ], [ 144.6513, 13.38 ] ] ], [ [ [ 144.6504, 13.3778 ], [ 144.651, 13.378 ], [ 144.6511, 13.3775 ], [ 144.6505, 13.3769 ], [ 144.65, 13.3773 ], [ 144.6504, 13.3778 ] ] ], [ [ [ 144.6469, 13.3813 ], [ 144.648, 13.3813 ], [ 144.647, 13.3799 ], [ 144.6466, 13.3799 ], [ 144.6469, 13.3813 ] ] ], [ [ [ 144.6368, 13.358 ], [ 144.6375, 13.3589 ], [ 144.6383, 13.3586 ], [ 144.6383, 13.358 ], [ 144.6368, 13.3566 ], [ 144.6358, 13.3569 ], [ 144.6358, 13.3576 ], [ 144.6368, 13.358 ] ] ], [ [ [ 144.6394, 13.3432 ], [ 144.6422, 13.3481 ], [ 144.6433, 13.3491 ], [ 144.6441, 13.3524 ], [ 144.6494, 13.3625 ], [ 144.6489, 13.3652 ], [ 144.6505, 13.3665 ], [ 144.6507, 13.3673 ], [ 144.6502, 13.368 ], [ 144.6505, 13.3678 ], [ 144.6507, 13.3681 ], [ 144.6507, 13.3697 ], [ 144.6514, 13.3701 ], [ 144.6524, 13.3728 ], [ 144.6522, 13.376 ], [ 144.6515, 13.3775 ], [ 144.6539, 13.3817 ], [ 144.6552, 13.3816 ], [ 144.6561, 13.3825 ], [ 144.6573, 13.3828 ], [ 144.6579, 13.3816 ], [ 144.661, 13.3804 ], [ 144.6613, 13.3811 ], [ 144.6621, 13.381 ], [ 144.6634, 13.3818 ], [ 144.6629, 13.3833 ], [ 144.6645, 13.3845 ], [ 144.6681, 13.3843 ], [ 144.6688, 13.3821 ], [ 144.6695, 13.3812 ], [ 144.669, 13.3784 ], [ 144.6697, 13.3747 ], [ 144.6694, 13.3736 ], [ 144.6687, 13.373 ], [ 144.6685, 13.3496 ], [ 144.672, 13.3452 ], [ 144.6694, 13.3392 ], [ 144.6661, 13.3414 ], [ 144.664, 13.3398 ], [ 144.6709, 13.3299 ], [ 144.6355, 13.3414 ], [ 144.6394, 13.3432 ] ] ], [ [ [ 144.6331, 13.342 ], [ 144.6335, 13.3415 ], [ 144.6325, 13.3411 ], [ 144.6321, 13.3419 ], [ 144.6331, 13.342 ] ] ] ] } },
{ "type": "Feature", "properties": { "GEOIDFQ": "1400000US66010953500", "NAME": "9535", "NAMELSAD": "Census Tract 9535" }, "geometry": { "type": "Polygon", "coordinates": [ [ [ 144.733, 13.4759 ], [ 144.7382, 13.4762 ], [ 144.7394, 13.4752 ], [ 144.7438, 13.4754 ], [ 144.7456, 13.4747 ], [ 144.747, 13.4733 ], [ 144.7469, 13.4721 ], [ 144.7473, 13.472 ], [ 144.7379, 13.472 ], [ 144.7353, 13.4738 ], [ 144.7332, 13.4744 ], [ 144.7327, 13.4751 ], [ 144.733, 13.4759 ] ] ] } },
{ "type": "Feature", "properties": { "GEOIDFQ": "1400000US66010951000", "NAME": "9510", "NAMELSAD": "Census Tract 9510" }, "geometry": { "type": "Polygon", "coordinates": [ [ [ 144.8297, 13.522 ], [ 144.836, 13.5237 ], [ 144.8382, 13.5237 ], [ 144.8454, 13.5221 ], [ 144.8437, 13.5143 ], [ 144.8398, 13.5143 ], [ 144.8351, 13.5154 ], [ 144.8277, 13.521 ], [ 144.8297, 13.522 ] ] ] } },
{ "type": "Feature", "properties": { "GEOIDFQ": "1400000US66010951600", "NAME": "9516", "NAMELSAD": "Census Tract 9516" }, "geometry": { "type": "Polygon", "coordinates": [ [ [ 144.809, 13.4764 ], [ 144.8131, 13.4828 ], [ 144.8145, 13.4837 ], [ 144.8182, 13.4843 ], [ 144.82, 13.4839 ], [ 144.8328, 13.484 ], [ 144.833, 13.4611 ], [ 144.831, 13.4595 ], [ 144.8295, 13.4569 ], [ 144.8076, 13.4571 ], [ 144.8074, 13.4693 ], [ 144.8092, 13.4697 ], [ 144.8091, 13.4717 ], [ 144.8074, 13.4717 ], [ 144.8074, 13.4721 ], [ 144.8063, 13.4722 ], [ 144.8061, 13.4731 ], [ 144.809, 13.4764 ] ] ] } },
{ "type": "Feature", "properties": { "GEOIDFQ": "1400000US66010951700", "NAME": "9517", "NAMELSAD": "Census Tract 9517" }, "geometry": { "type": "Polygon", "coordinates": [ [ [ 144.8159, 13.4851 ], [ 144.8168, 13.4866 ], [ 144.8166, 13.4881 ], [ 144.8149, 13.4913 ], [ 144.8209, 13.4936 ], [ 144.8217, 13.4946 ], [ 144.8221, 13.4946 ], [ 144.822, 13.4957 ], [ 144.8202, 13.4985 ], [ 144.8228, 13.5007 ], [ 144.8245, 13.5013 ], [ 144.8251, 13.4992 ], [ 144.8346, 13.4997 ], [ 144.8328, 13.484 ], [ 144.82, 13.4839 ], [ 144.8182, 13.4843 ], [ 144.8138, 13.4834 ], [ 144.8136, 13.4837 ], [ 144.8159, 13.4851 ] ] ] } },
{ "type": "Feature", "properties": { "GEOIDFQ": "1400000US66010990000", "NAME": "9900", "NAMELSAD": "Census Tract 9900" }, "geometry": { "type": "Polygon", "coordinates": [ [ [ 144.5636, 13.451 ], [ 144.5663, 13.4637 ], [ 144.5705, 13.4721 ], [ 144.5767, 13.4811 ], [ 144.5888, 13.4938 ], [ 144.5928, 13.4968 ], [ 144.599, 13.5 ], [ 144.6045, 13.5052 ], [ 144.6112, 13.5102 ], [ 144.6166, 13.5131 ], [ 144.625, 13.5159 ], [ 144.6374, 13.5176 ], [ 144.6438, 13.5178 ], [ 144.6576, 13.5166 ], [ 144.6631, 13.5152 ], [ 144.6667, 13.5177 ], [ 144.6767, 13.5228 ], [ 144.683, 13.5257 ], [ 144.693, 13.529 ], [ 144.7036, 13.5298 ], [ 144.7093, 13.529 ], [ 144.7163, 13.5308 ], [ 144.7255, 13.5317 ], [ 144.7325, 13.5397 ], [ 144.7375, 13.5443 ], [ 144.7425, 13.548 ], [ 144.75, 13.5519 ], [ 144.7523, 13.5558 ], [ 144.7538, 13.5598 ], [ 144.7569, 13.5647 ], [ 144.76, 13.574 ], [ 144.7647, 13.5826 ], [ 144.7695, 13.5887 ], [ 144.7738, 13.5928 ], [ 144.7757, 13.5967 ], [ 144.7774, 13.5986 ], [ 144.779, 13.6108 ], [ 144.7811, 13.6162 ], [ 144.7808, 13.6207 ], [ 144.7811, 13.625 ], [ 144.7848, 13.6404 ], [ 144.7873, 13.6487 ], [ 144.7896, 13.6533 ], [ 144.793, 13.6583 ], [ 144.8018, 13.668 ], [ 144.8061, 13.6765 ], [ 144.8119, 13.6844 ], [ 144.8164, 13.6888 ], [ 144.8271, 13.6969 ], [ 144.8385, 13.7027 ], [ 144.8453, 13.7051 ], [ 144.8536, 13.7062 ], [ 144.8604, 13.7059 ], [ 144.875, 13.7033 ], [ 144.8846, 13.7002 ], [ 144.8892, 13.6982 ], [ 144.8953, 13.6949 ], [ 144.907, 13.6874 ], [ 144.9126, 13.683 ], [ 144.9171, 13.6786 ], [ 144.9239, 13.6682 ], [ 144.9369, 13.6561 ], [ 144.9405, 13.6506 ], [ 144.9544, 13.6501 ], [ 144.9618, 13.6488 ], [ 144.968, 13.6472 ], [ 144.9756, 13.6443 ], [ 144.9816, 13.6412 ], [ 144.9874, 13.6362 ], [ 144.9956, 13.6274 ], [ 144.997, 13.625 ], [ 144.9979, 13.625 ], [ 144.9989, 13.6243 ], [ 145.0031, 13.6181 ], [ 145.0064, 13.6074 ], [ 145.0088, 13.5959 ], [ 145.0092, 13.5911 ], [ 145.0082, 13.5862 ], [ 145.0067, 13.5809 ], [ 145.0031, 13.5736 ], [ 145.0, 13.5698 ], [ 144.9994, 13.5696 ], [ 144.9993, 13.5663 ], [ 144.9986, 13.5636 ], [ 144.9959, 13.5567 ], [ 144.9936, 13.5522 ], [ 144.9895, 13.5472 ], [ 144.9871, 13.5365 ], [ 144.9848, 13.5295 ], [ 144.9837, 13.5268 ], [ 144.9792, 13.5196 ], [ 144.9758, 13.5068 ], [ 144.972, 13.5 ], [ 144.9637, 13.489 ], [ 144.958, 13.4825 ], [ 144.9541, 13.4789 ], [ 144.9442, 13.4727 ], [ 144.936, 13.4697 ], [ 144.9323, 13.4694 ], [ 144.9277, 13.4631 ], [ 144.9172, 13.4524 ], [ 144.9123, 13.4488 ], [ 144.9053, 13.4447 ], [ 144.8989, 13.4426 ], [ 144.8959, 13.4383 ], [ 144.8882, 13.43 ], [ 144.8822, 13.4249 ], [ 144.875, 13.4196 ], [ 144.8703, 13.4182 ], [ 144.8664, 13.4125 ], [ 144.8571, 13.4038 ], [ 144.8495, 13.3989 ], [ 144.8446, 13.3969 ], [ 144.8432, 13.3939 ], [ 144.8393, 13.3894 ], [ 144.8337, 13.385 ], [ 144.8266, 13.3815 ], [ 144.8269, 13.3773 ], [ 144.8248, 13.368 ], [ 144.8234, 13.3567 ], [ 144.8225, 13.3546 ], [ 144.823, 13.3513 ], [ 144.8228, 13.3404 ], [ 144.8208, 13.3337 ], [ 144.8217, 13.3204 ], [ 144.8215, 13.3154 ], [ 144.8208, 13.3132 ], [ 144.8215, 13.3109 ], [ 144.822, 13.3059 ], [ 144.8217, 13.2988 ], [ 144.8196, 13.2854 ], [ 144.818, 13.2804 ], [ 144.8116, 13.2678 ], [ 144.8075, 13.2624 ], [ 144.8047, 13.2602 ], [ 144.8041, 13.2552 ], [ 144.8027, 13.2512 ], [ 144.8018, 13.2515 ], [ 144.8007, 13.2503 ], [ 144.7992, 13.25 ], [ 144.7986, 13.2487 ], [ 144.7918, 13.2409 ], [ 144.7855, 13.2361 ], [ 144.7832, 13.2351 ], [ 144.7821, 13.2311 ], [ 144.7811, 13.2292 ], [ 144.7766, 13.2226 ], [ 144.7707, 13.2157 ], [ 144.7632, 13.2085 ], [ 144.7565, 13.2033 ], [ 144.75, 13.1995 ], [ 144.7406, 13.1952 ], [ 144.7296, 13.1927 ], [ 144.7222, 13.1928 ], [ 144.7197, 13.1934 ], [ 144.7125, 13.1916 ], [ 144.7062, 13.1907 ], [ 144.6994, 13.1904 ], [ 144.6883, 13.191 ], [ 144.6832, 13.1892 ], [ 144.675, 13.1878 ], [ 144.67, 13.1879 ], [ 144.6679, 13.1884 ], [ 144.6662, 13.1872 ], [ 144.6624, 13.1854 ], [ 144.6567, 13.1842 ], [ 144.6416, 13.1824 ], [ 144.6358, 13.1825 ], [ 144.626, 13.1841 ], [ 144.625, 13.185 ], [ 144.6203, 13.1866 ], [ 144.6152, 13.189 ], [ 144.6064, 13.1956 ], [ 144.6016, 13.2004 ], [ 144.5962, 13.2077 ], [ 144.5932, 13.2134 ], [ 144.5912, 13.2197 ], [ 144.5903, 13.2239 ], [ 144.5899, 13.2289 ], [ 144.5909, 13.2393 ], [ 144.5934, 13.25 ], [ 144.5947, 13.25 ], [ 144.6, 13.261 ], [ 144.6084, 13.2706 ], [ 144.606, 13.2753 ], [ 144.604, 13.281 ], [ 144.6025, 13.2906 ], [ 144.603, 13.2951 ], [ 144.5992, 13.297 ], [ 144.5934, 13.3016 ], [ 144.5847, 13.3125 ], [ 144.5828, 13.3156 ], [ 144.5809, 13.3199 ], [ 144.5786, 13.3286 ], [ 144.5776, 13.344 ], [ 144.5782, 13.3493 ], [ 144.5793, 13.3542 ], [ 144.582, 13.3606 ], [ 144.5821, 13.364 ], [ 144.583, 13.3695 ], [ 144.5852, 13.375 ], [ 144.5842, 13.375 ], [ 144.5846, 13.3764 ], [ 144.5867, 13.3806 ], [ 144.5913, 13.3865 ], [ 144.593, 13.3924 ], [ 144.5827, 13.4013 ], [ 144.5739, 13.4112 ], [ 144.5722, 13.4139 ], [ 144.5682, 13.4223 ], [ 144.5659, 13.4296 ], [ 144.564, 13.4389 ], [ 144.5636, 13.451 ] ], [ [ 144.6187, 13.4468 ], [ 144.6183, 13.4457 ], [ 144.6189, 13.4455 ], [ 144.62, 13.4439 ], [ 144.6202, 13.4426 ], [ 144.6212, 13.4406 ], [ 144.6242, 13.4377 ], [ 144.633, 13.4344 ], [ 144.6365, 13.4313 ], [ 144.6375, 13.4314 ], [ 144.6386, 13.4307 ], [ 144.6389, 13.43 ], [ 144.6385, 13.4291 ], [ 144.639, 13.4274 ], [ 144.6399, 13.4262 ], [ 144.6396, 13.4256 ], [ 144.6402, 13.4252 ], [ 144.6397, 13.4251 ], [ 144.6403, 13.4247 ], [ 144.6399, 13.4246 ], [ 144.6404, 13.4231 ], [ 144.6397, 13.4212 ], [ 144.6424, 13.4185 ], [ 144.6434, 13.4183 ], [ 144.6434, 13.4179 ], [ 144.6441, 13.4177 ], [ 144.646, 13.4186 ], [ 144.6472, 13.4181 ], [ 144.6481, 13.4163 ], [ 144.6472, 13.4156 ], [ 144.6472, 13.4154 ], [ 144.6481, 13.4145 ], [ 144.649, 13.4146 ], [ 144.6499, 13.4153 ], [ 144.6513, 13.415 ], [ 144.6529, 13.4153 ], [ 144.654, 13.4146 ], [ 144.6558, 13.4144 ], [ 144.658, 13.4126 ], [ 144.6611, 13.408 ], [ 144.6612, 13.4049 ], [ 144.6606, 13.4045 ], [ 144.6617, 13.4035 ], [ 144.6626, 13.4034 ], [ 144.6627, 13.4027 ], [ 144.6622, 13.4022 ], [ 144.6627, 13.4021 ], [ 144.6633, 13.4007 ], [ 144.663, 13.3985 ], [ 144.6607, 13.3935 ], [ 144.661, 13.3922 ], [ 144.6607, 13.3907 ], [ 144.6591, 13.3883 ], [ 144.6581, 13.3881 ], [ 144.6557, 13.3862 ], [ 144.6558, 13.385 ], [ 144.6515, 13.3775 ], [ 144.6522, 13.376 ], [ 144.6524, 13.3734 ], [ 144.6514, 13.3701 ], [ 144.6507, 13.3697 ], [ 144.6507, 13.3681 ], [ 144.6505, 13.3678 ], [ 144.6502, 13.368 ], [ 144.6507, 13.367 ], [ 144.649, 13.3653 ], [ 144.6494, 13.3625 ], [ 144.6441, 13.3524 ], [ 144.6431, 13.3488 ], [ 144.6422, 13.3481 ], [ 144.6394, 13.3432 ], [ 144.6354, 13.3413 ], [ 144.6359, 13.3406 ], [ 144.6388, 13.3388 ], [ 144.6408, 13.3386 ], [ 144.6421, 13.3379 ], [ 144.6439, 13.3381 ], [ 144.6447, 13.3373 ], [ 144.6443, 13.3367 ], [ 144.6446, 13.3362 ], [ 144.6459, 13.3364 ], [ 144.647, 13.3353 ], [ 144.647, 13.3343 ], [ 144.6477, 13.334 ], [ 144.649, 13.3321 ], [ 144.6493, 13.3297 ], [ 144.6501, 13.3293 ], [ 144.6493, 13.329 ], [ 144.6513, 13.3289 ], [ 144.6524, 13.328 ], [ 144.6524, 13.327 ], [ 144.6499, 13.3219 ], [ 144.6512, 13.3208 ], [ 144.6513, 13.3197 ], [ 144.652, 13.3191 ], [ 144.654, 13.3187 ], [ 144.6574, 13.3165 ], [ 144.6576, 13.3151 ], [ 144.6565, 13.3143 ], [ 144.6556, 13.314 ], [ 144.6534, 13.3143 ], [ 144.6536, 13.314 ], [ 144.6529, 13.3134 ], [ 144.6533, 13.3121 ], [ 144.6537, 13.3123 ], [ 144.6532, 13.3118 ], [ 144.6534, 13.3112 ], [ 144.653, 13.3111 ], [ 144.6537, 13.31 ], [ 144.6544, 13.3098 ], [ 144.6549, 13.3084 ], [ 144.6546, 13.3082 ], [ 144.6545, 13.307 ], [ 144.6548, 13.3077 ], [ 144.6556, 13.3068 ], [ 144.6574, 13.3069 ], [ 144.658, 13.3064 ], [ 144.6581, 13.3052 ], [ 144.6572, 13.3046 ], [ 144.6567, 13.3025 ], [ 144.6569, 13.3014 ], [ 144.6573, 13.3018 ], [ 144.6577, 13.3015 ], [ 144.6582, 13.2988 ], [ 144.6587, 13.2987 ], [ 144.6596, 13.2994 ], [ 144.6621, 13.2991 ], [ 144.6629, 13.2985 ], [ 144.6613, 13.2963 ], [ 144.6602, 13.296 ], [ 144.6577, 13.2942 ], [ 144.6582, 13.2941 ], [ 144.658, 13.2934 ], [ 144.6575, 13.2932 ], [ 144.6571, 13.2935 ], [ 144.6576, 13.2916 ], [ 144.6575, 13.29 ], [ 144.6592, 13.2868 ], [ 144.6604, 13.2857 ], [ 144.6623, 13.2852 ], [ 144.6625, 13.2846 ], [ 144.6619, 13.2825 ], [ 144.662, 13.2805 ], [ 144.6636, 13.2781 ], [ 144.6638, 13.2759 ], [ 144.6637, 13.2751 ], [ 144.6624, 13.2733 ], [ 144.6625, 13.272 ], [ 144.6619, 13.2714 ], [ 144.6635, 13.2698 ], [ 144.6646, 13.2677 ], [ 144.6697, 13.2647 ], [ 144.6716, 13.2628 ], [ 144.6735, 13.2625 ], [ 144.6735, 13.2615 ], [ 144.6743, 13.2613 ], [ 144.6739, 13.2596 ], [ 144.6747, 13.257 ], [ 144.6775, 13.2545 ], [ 144.6814, 13.2544 ], [ 144.6836, 13.2539 ], [ 144.6843, 13.2554 ], [ 144.6847, 13.2549 ], [ 144.6843, 13.2558 ], [ 144.6846, 13.256 ], [ 144.6848, 13.255 ], [ 144.685, 13.2558 ], [ 144.6859, 13.2558 ], [ 144.6862, 13.2562 ], [ 144.6867, 13.2558 ], [ 144.6867, 13.2547 ], [ 144.6875, 13.254 ], [ 144.6875, 13.2526 ], [ 144.6891, 13.251 ], [ 144.6907, 13.2506 ], [ 144.6935, 13.2508 ], [ 144.6961, 13.2497 ], [ 144.699, 13.2477 ], [ 144.7012, 13.247 ], [ 144.7043, 13.2469 ], [ 144.7063, 13.2463 ], [ 144.7073, 13.2464 ], [ 144.7076, 13.2469 ], [ 144.7082, 13.2466 ], [ 144.7113, 13.2476 ], [ 144.7127, 13.2472 ], [ 144.715, 13.2481 ], [ 144.7153, 13.2488 ], [ 144.7165, 13.2494 ], [ 144.7174, 13.2505 ], [ 144.7192, 13.2511 ], [ 144.721, 13.2494 ], [ 144.7207, 13.248 ], [ 144.7218, 13.2469 ], [ 144.7225, 13.2474 ], [ 144.7226, 13.2465 ], [ 144.7245, 13.2462 ], [ 144.7253, 13.2469 ], [ 144.7244, 13.2474 ], [ 144.7247, 13.2479 ], [ 144.7259, 13.2481 ], [ 144.726, 13.248 ], [ 144.7263, 13.2479 ], [ 144.7263, 13.2466 ], [ 144.7273, 13.2465 ], [ 144.7268, 13.2491 ], [ 144.7298, 13.2508 ], [ 144.7315, 13.2509 ], [ 144.7307, 13.2515 ], [ 144.7315, 13.2527 ], [ 144.7332, 13.2523 ], [ 144.7331, 13.2536 ], [ 144.7341, 13.2556 ], [ 144.7346, 13.2559 ], [ 144.7353, 13.2577 ], [ 144.7365, 13.2592 ], [ 144.7378, 13.259 ], [ 144.7372, 13.2606 ], [ 144.7375, 13.262 ], [ 144.7383, 13.2631 ], [ 144.741, 13.2633 ], [ 144.7413, 13.2626 ], [ 144.7419, 13.2631 ], [ 144.7425, 13.2645 ], [ 144.7435, 13.2649 ], [ 144.7436, 13.2653 ], [ 144.7428, 13.266 ], [ 144.7426, 13.2669 ], [ 144.7414, 13.2665 ], [ 144.7384, 13.2668 ], [ 144.7383, 13.2681 ], [ 144.7392, 13.2678 ], [ 144.7429, 13.2686 ], [ 144.7454, 13.2708 ], [ 144.7471, 13.2714 ], [ 144.7479, 13.271 ], [ 144.7475, 13.2716 ], [ 144.7483, 13.2721 ], [ 144.7494, 13.2716 ], [ 144.7502, 13.2723 ], [ 144.751, 13.2734 ], [ 144.7506, 13.2747 ], [ 144.7492, 13.275 ], [ 144.7476, 13.2767 ], [ 144.7478, 13.2781 ], [ 144.7485, 13.2789 ], [ 144.7493, 13.2789 ], [ 144.751, 13.2776 ], [ 144.752, 13.2762 ], [ 144.7532, 13.276 ], [ 144.7538, 13.275 ], [ 144.7549, 13.2754 ], [ 144.7554, 13.2766 ], [ 144.7571, 13.2773 ], [ 144.759, 13.2792 ], [ 144.7598, 13.2801 ], [ 144.7592, 13.2816 ], [ 144.7584, 13.2817 ], [ 144.7581, 13.2831 ], [ 144.759, 13.2833 ], [ 144.7597, 13.2829 ], [ 144.7598, 13.2823 ], [ 144.761, 13.2822 ], [ 144.7629, 13.2839 ], [ 144.7636, 13.2868 ], [ 144.7635, 13.2877 ], [ 144.7627, 13.288 ], [ 144.7627, 13.2886 ], [ 144.7632, 13.289 ], [ 144.7636, 13.2909 ], [ 144.7675, 13.2935 ], [ 144.7698, 13.2961 ], [ 144.7704, 13.2974 ], [ 144.77, 13.2982 ], [ 144.7724, 13.3033 ], [ 144.7724, 13.3064 ], [ 144.7716, 13.3088 ], [ 144.7719, 13.3106 ], [ 144.7713, 13.3148 ], [ 144.7716, 13.3168 ], [ 144.7729, 13.32 ], [ 144.7724, 13.3246 ], [ 144.7729, 13.3283 ], [ 144.7712, 13.3308 ], [ 144.7713, 13.3341 ], [ 144.7702, 13.3354 ], [ 144.7703, 13.338 ], [ 144.7712, 13.3382 ], [ 144.7727, 13.3409 ], [ 144.7726, 13.3416 ], [ 144.7719, 13.3417 ], [ 144.7715, 13.3423 ], [ 144.7725, 13.343 ], [ 144.7714, 13.3449 ], [ 144.7722, 13.3468 ], [ 144.7719, 13.3509 ], [ 144.7725, 13.3523 ], [ 144.7716, 13.3553 ], [ 144.7719, 13.3624 ], [ 144.7696, 13.367 ], [ 144.7704, 13.369 ], [ 144.7725, 13.3714 ], [ 144.7726, 13.3769 ], [ 144.7732, 13.3774 ], [ 144.7731, 13.3783 ], [ 144.7746, 13.3813 ], [ 144.7744, 13.3819 ], [ 144.7748, 13.3827 ], [ 144.7748, 13.3846 ], [ 144.7757, 13.3858 ], [ 144.7754, 13.3866 ], [ 144.7759, 13.3873 ], [ 144.7779, 13.3876 ], [ 144.7773, 13.388 ], [ 144.776, 13.3879 ], [ 144.7758, 13.3893 ], [ 144.7753, 13.3898 ], [ 144.7747, 13.3892 ], [ 144.7738, 13.3918 ], [ 144.772, 13.3927 ], [ 144.7716, 13.3934 ], [ 144.7729, 13.3953 ], [ 144.7739, 13.395 ], [ 144.7753, 13.3954 ], [ 144.7765, 13.395 ], [ 144.7784, 13.3977 ], [ 144.7808, 13.3993 ], [ 144.7821, 13.4022 ], [ 144.7818, 13.4037 ], [ 144.7813, 13.4038 ], [ 144.7814, 13.4049 ], [ 144.7834, 13.4077 ], [ 144.7836, 13.41 ], [ 144.7872, 13.4117 ], [ 144.7879, 13.4129 ], [ 144.7889, 13.4135 ], [ 144.7882, 13.4155 ], [ 144.7852, 13.4165 ], [ 144.785, 13.4174 ], [ 144.7843, 13.4181 ], [ 144.7838, 13.4215 ], [ 144.7845, 13.4226 ], [ 144.7864, 13.4246 ], [ 144.7911, 13.4257 ], [ 144.7924, 13.4265 ], [ 144.7937, 13.4264 ], [ 144.7975, 13.4286 ], [ 144.798, 13.4286 ], [ 144.7987, 13.4276 ], [ 144.8002, 13.4273 ], [ 144.8004, 13.4267 ], [ 144.8058, 13.4265 ], [ 144.8073, 13.4272 ], [ 144.809, 13.4293 ], [ 144.81, 13.4331 ], [ 144.8111, 13.4346 ], [ 144.812, 13.4351 ], [ 144.8129, 13.4367 ], [ 144.8139, 13.4373 ], [ 144.814, 13.4381 ], [ 144.8171, 13.4401 ], [ 144.8173, 13.4408 ], [ 144.8187, 13.4421 ], [ 144.8199, 13.4424 ], [ 144.8212, 13.4419 ], [ 144.8221, 13.4424 ], [ 144.8239, 13.4422 ], [ 144.8259, 13.4428 ], [ 144.827, 13.4444 ], [ 144.8268, 13.4456 ], [ 144.8281, 13.4453 ], [ 144.8295, 13.4465 ], [ 144.8293, 13.4472 ], [ 144.8301, 13.4475 ], [ 144.8304, 13.4472 ], [ 144.832, 13.4484 ], [ 144.8338, 13.4513 ], [ 144.8332, 13.453 ], [ 144.8346, 13.4528 ], [ 144.8358, 13.4545 ], [ 144.8365, 13.4547 ], [ 144.8389, 13.4584 ], [ 144.8407, 13.459 ], [ 144.8409, 13.4595 ], [ 144.8403, 13.4598 ], [ 144.8407, 13.4603 ], [ 144.8432, 13.4602 ], [ 144.8441, 13.4606 ], [ 144.8448, 13.462 ], [ 144.846, 13.4625 ], [ 144.8468, 13.4621 ], [ 144.8473, 13.463 ], [ 144.8497, 13.463 ], [ 144.8515, 13.464 ], [ 144.8542, 13.4669 ], [ 144.8569, 13.4706 ], [ 144.8594, 13.4718 ], [ 144.8598, 13.4729 ], [ 144.8608, 13.4741 ], [ 144.8608, 13.4747 ], [ 144.8632, 13.4767 ], [ 144.8651, 13.4794 ], [ 144.8672, 13.4808 ], [ 144.8694, 13.4831 ], [ 144.8706, 13.486 ], [ 144.8711, 13.486 ], [ 144.8724, 13.4872 ], [ 144.8768, 13.4897 ], [ 144.8793, 13.4904 ], [ 144.8804, 13.4904 ], [ 144.8806, 13.4909 ], [ 144.8809, 13.4906 ], [ 144.8815, 13.491 ], [ 144.8837, 13.4907 ], [ 144.8867, 13.4922 ], [ 144.8878, 13.4942 ], [ 144.8906, 13.4964 ], [ 144.892, 13.4982 ], [ 144.891, 13.5012 ], [ 144.8914, 13.5016 ], [ 144.8911, 13.5045 ], [ 144.8918, 13.5063 ], [ 144.8942, 13.5072 ], [ 144.896, 13.507 ], [ 144.8975, 13.5097 ], [ 144.899, 13.51 ], [ 144.9003, 13.5116 ], [ 144.9028, 13.513 ], [ 144.905, 13.5131 ], [ 144.9052, 13.5135 ], [ 144.9058, 13.5132 ], [ 144.9078, 13.5148 ], [ 144.911, 13.5157 ], [ 144.9121, 13.5151 ], [ 144.9136, 13.5155 ], [ 144.9145, 13.5162 ], [ 144.9153, 13.5162 ], [ 144.9154, 13.5168 ], [ 144.9176, 13.5173 ], [ 144.9197, 13.5188 ], [ 144.9223, 13.519 ], [ 144.9234, 13.5194 ], [ 144.9259, 13.5211 ], [ 144.9278, 13.5242 ], [ 144.9279, 13.5258 ], [ 144.9283, 13.5259 ], [ 144.9287, 13.5271 ], [ 144.9285, 13.5278 ], [ 144.9294, 13.5286 ], [ 144.9299, 13.5297 ], [ 144.9297, 13.5303 ], [ 144.9311, 13.5318 ], [ 144.9312, 13.5329 ], [ 144.9322, 13.5339 ], [ 144.9318, 13.5352 ], [ 144.9324, 13.5368 ], [ 144.9321, 13.5372 ], [ 144.9325, 13.5374 ], [ 144.9321, 13.5379 ], [ 144.9325, 13.5393 ], [ 144.933, 13.5396 ], [ 144.9334, 13.5411 ], [ 144.935, 13.5429 ], [ 144.9357, 13.545 ], [ 144.9364, 13.545 ], [ 144.9372, 13.5466 ], [ 144.937, 13.5469 ], [ 144.938, 13.5482 ], [ 144.9381, 13.5492 ], [ 144.9402, 13.5526 ], [ 144.9397, 13.5532 ], [ 144.9397, 13.5537 ], [ 144.9401, 13.5537 ], [ 144.9397, 13.554 ], [ 144.9398, 13.5557 ], [ 144.9382, 13.5576 ], [ 144.9388, 13.559 ], [ 144.9384, 13.5606 ], [ 144.9385, 13.5619 ], [ 144.939, 13.5622 ], [ 144.9401, 13.5661 ], [ 144.9403, 13.568 ], [ 144.9424, 13.5694 ], [ 144.943, 13.5692 ], [ 144.944, 13.5698 ], [ 144.9451, 13.5709 ], [ 144.9452, 13.5715 ], [ 144.9467, 13.5723 ], [ 144.9477, 13.5742 ], [ 144.9481, 13.5743 ], [ 144.9478, 13.5746 ], [ 144.9487, 13.5752 ], [ 144.9495, 13.5766 ], [ 144.9505, 13.5789 ], [ 144.9501, 13.5795 ], [ 144.9505, 13.5799 ], [ 144.9507, 13.5835 ], [ 144.9514, 13.585 ], [ 144.9517, 13.5873 ], [ 144.9533, 13.591 ], [ 144.954, 13.5913 ], [ 144.954, 13.5924 ], [ 144.9544, 13.5923 ], [ 144.9541, 13.5929 ], [ 144.9548, 13.5926 ], [ 144.9546, 13.5929 ], [ 144.955, 13.5929 ], [ 144.9556, 13.5938 ], [ 144.9555, 13.5943 ], [ 144.9566, 13.5961 ], [ 144.9568, 13.5981 ], [ 144.9558, 13.5997 ], [ 144.954, 13.6005 ], [ 144.9511, 13.601 ], [ 144.9493, 13.6003 ], [ 144.9452, 13.5999 ], [ 144.9404, 13.6007 ], [ 144.9386, 13.6001 ], [ 144.9362, 13.6005 ], [ 144.9356, 13.6002 ], [ 144.9345, 13.601 ], [ 144.9315, 13.6017 ], [ 144.9294, 13.6003 ], [ 144.9271, 13.6 ], [ 144.9155, 13.6027 ], [ 144.9128, 13.604 ], [ 144.9079, 13.6053 ], [ 144.9055, 13.607 ], [ 144.9044, 13.6124 ], [ 144.9023, 13.6172 ], [ 144.8993, 13.6215 ], [ 144.8994, 13.622 ], [ 144.8966, 13.6246 ], [ 144.8934, 13.6285 ], [ 144.8918, 13.6294 ], [ 144.8903, 13.6309 ], [ 144.8803, 13.6444 ], [ 144.8788, 13.6457 ], [ 144.8751, 13.6476 ], [ 144.8726, 13.6499 ], [ 144.8683, 13.6526 ], [ 144.8633, 13.6541 ], [ 144.8592, 13.6543 ], [ 144.8554, 13.6516 ], [ 144.8516, 13.6482 ], [ 144.8466, 13.6368 ], [ 144.8446, 13.6339 ], [ 144.8378, 13.6263 ], [ 144.8367, 13.6241 ], [ 144.8359, 13.6147 ], [ 144.8352, 13.6111 ], [ 144.8359, 13.6094 ], [ 144.8359, 13.6061 ], [ 144.8368, 13.6045 ], [ 144.8363, 13.6035 ], [ 144.8363, 13.6026 ], [ 144.8369, 13.6023 ], [ 144.8365, 13.6021 ], [ 144.8368, 13.6015 ], [ 144.8363, 13.601 ], [ 144.8366, 13.5982 ], [ 144.8376, 13.5974 ], [ 144.8377, 13.5966 ], [ 144.8373, 13.596 ], [ 144.8374, 13.5951 ], [ 144.8365, 13.5944 ], [ 144.8365, 13.5916 ], [ 144.836, 13.5912 ], [ 144.8343, 13.587 ], [ 144.8324, 13.5851 ], [ 144.831, 13.5821 ], [ 144.8306, 13.5796 ], [ 144.8316, 13.5788 ], [ 144.8312, 13.5777 ], [ 144.8303, 13.5764 ], [ 144.8292, 13.5763 ], [ 144.8285, 13.5768 ], [ 144.8285, 13.5761 ], [ 144.828, 13.5761 ], [ 144.8273, 13.5752 ], [ 144.8245, 13.5732 ], [ 144.8234, 13.5714 ], [ 144.8241, 13.5709 ], [ 144.8235, 13.5705 ], [ 144.823, 13.5708 ], [ 144.8219, 13.5698 ], [ 144.8211, 13.5679 ], [ 144.8216, 13.5668 ], [ 144.8207, 13.5648 ], [ 144.8184, 13.562 ], [ 144.8171, 13.5585 ], [ 144.8159, 13.5577 ], [ 144.8142, 13.5574 ], [ 144.8145, 13.5569 ], [ 144.8136, 13.5557 ], [ 144.8126, 13.5551 ], [ 144.8122, 13.5556 ], [ 144.811, 13.5547 ], [ 144.8111, 13.5542 ], [ 144.8118, 13.5539 ], [ 144.8119, 13.5529 ], [ 144.8104, 13.5472 ], [ 144.8083, 13.5447 ], [ 144.8084, 13.5434 ], [ 144.8068, 13.5418 ], [ 144.806, 13.54 ], [ 144.8021, 13.5358 ], [ 144.8021, 13.5339 ], [ 144.803, 13.5333 ], [ 144.8034, 13.5318 ], [ 144.803, 13.5299 ], [ 144.8034, 13.526 ], [ 144.804, 13.5255 ], [ 144.8036, 13.5225 ], [ 144.8032, 13.5223 ], [ 144.8036, 13.5212 ], [ 144.8059, 13.5209 ], [ 144.8063, 13.5201 ], [ 144.8051, 13.5157 ], [ 144.8009, 13.5093 ], [ 144.799, 13.5074 ], [ 144.797, 13.5062 ], [ 144.7918, 13.5045 ], [ 144.7896, 13.5042 ], [ 144.7876, 13.5048 ], [ 144.7868, 13.5053 ], [ 144.786, 13.5068 ], [ 144.7832, 13.5083 ], [ 144.7813, 13.5081 ], [ 144.7777, 13.5067 ], [ 144.7746, 13.5065 ], [ 144.7732, 13.5049 ], [ 144.7715, 13.5039 ], [ 144.7691, 13.4997 ], [ 144.7699, 13.4977 ], [ 144.7699, 13.4954 ], [ 144.7713, 13.4949 ], [ 144.7724, 13.4952 ], [ 144.7744, 13.4944 ], [ 144.7752, 13.4909 ], [ 144.7742, 13.4877 ], [ 144.7694, 13.4811 ], [ 144.7678, 13.4801 ], [ 144.7633, 13.4786 ], [ 144.7564, 13.4777 ], [ 144.7551, 13.478 ], [ 144.7547, 13.4771 ], [ 144.7539, 13.4813 ], [ 144.7529, 13.482 ], [ 144.7515, 13.4823 ], [ 144.7511, 13.481 ], [ 144.7486, 13.481 ], [ 144.7484, 13.4816 ], [ 144.7468, 13.4815 ], [ 144.7468, 13.4803 ], [ 144.7483, 13.4802 ], [ 144.7482, 13.4776 ], [ 144.7434, 13.4777 ], [ 144.7385, 13.4792 ], [ 144.7313, 13.4786 ], [ 144.7303, 13.4804 ], [ 144.7288, 13.4811 ], [ 144.7284, 13.4801 ], [ 144.729, 13.4795 ], [ 144.7286, 13.479 ], [ 144.7252, 13.4783 ], [ 144.723, 13.4774 ], [ 144.7224, 13.4765 ], [ 144.7166, 13.4734 ], [ 144.7104, 13.4742 ], [ 144.7084, 13.4755 ], [ 144.7085, 13.4766 ], [ 144.7074, 13.4769 ], [ 144.7067, 13.4759 ], [ 144.7067, 13.4717 ], [ 144.7054, 13.4704 ], [ 144.7028, 13.4685 ], [ 144.6992, 13.4681 ], [ 144.6977, 13.4669 ], [ 144.6921, 13.4652 ], [ 144.6918, 13.4645 ], [ 144.69, 13.4636 ], [ 144.6891, 13.4645 ], [ 144.6882, 13.4643 ], [ 144.6869, 13.4654 ], [ 144.6864, 13.4664 ], [ 144.6871, 13.4673 ], [ 144.6862, 13.468 ], [ 144.6819, 13.4665 ], [ 144.6801, 13.4651 ], [ 144.6755, 13.4631 ], [ 144.6705, 13.4637 ], [ 144.6627, 13.4659 ], [ 144.662, 13.4657 ], [ 144.6623, 13.4651 ], [ 144.6616, 13.4648 ], [ 144.6383, 13.4648 ], [ 144.6359, 13.4639 ], [ 144.6305, 13.4595 ], [ 144.6266, 13.4577 ], [ 144.6181, 13.4478 ], [ 144.6187, 13.4468 ] ], [ [ 144.7254, 13.2463 ], [ 144.7248, 13.2461 ], [ 144.7256, 13.2462 ], [ 144.726, 13.248 ], [ 144.7254, 13.2463 ] ], [ [ 144.6325, 13.3411 ], [ 144.6335, 13.3415 ], [ 144.6331, 13.342 ], [ 144.632, 13.3418 ], [ 144.6325, 13.3411 ] ], [ [ 144.6358, 13.3569 ], [ 144.6368, 13.3566 ], [ 144.6383, 13.358 ], [ 144.6383, 13.3586 ], [ 144.6372, 13.3588 ], [ 144.6368, 13.358 ], [ 144.6357, 13.3575 ], [ 144.6358, 13.3569 ] ], [ [ 144.6456, 13.2341 ], [ 144.6498, 13.2356 ], [ 144.6561, 13.2393 ], [ 144.659, 13.2406 ], [ 144.659, 13.2413 ], [ 144.6582, 13.2424 ], [ 144.6572, 13.2426 ], [ 144.6498, 13.2382 ], [ 144.6446, 13.2361 ], [ 144.6432, 13.2339 ], [ 144.6456, 13.2341 ] ], [ [ 144.6471, 13.4131 ], [ 144.6483, 13.4137 ], [ 144.6465, 13.415 ], [ 144.6458, 13.4137 ], [ 144.6471, 13.4131 ] ], [ [ 144.6471, 13.38 ], [ 144.648, 13.3813 ], [ 144.6473, 13.3815 ], [ 144.6467, 13.3811 ], [ 144.6466, 13.3798 ], [ 144.6471, 13.38 ] ], [ [ 144.6506, 13.377 ], [ 144.6511, 13.3775 ], [ 144.651, 13.378 ], [ 144.65, 13.3772 ], [ 144.6506, 13.377 ] ], [ [ 144.6514, 13.3796 ], [ 144.6513, 13.38 ], [ 144.6512, 13.3799 ], [ 144.6514, 13.3796 ] ], [ [ 144.6554, 13.3862 ], [ 144.6557, 13.3865 ], [ 144.6544, 13.3875 ], [ 144.6539, 13.3872 ], [ 144.6554, 13.3862 ] ], [ [ 144.6553, 13.3066 ], [ 144.6554, 13.3066 ], [ 144.6554, 13.3069 ], [ 144.6553, 13.3066 ] ], [ [ 144.6601, 13.4012 ], [ 144.6603, 13.4012 ], [ 144.6601, 13.4018 ], [ 144.6601, 13.4012 ] ], [ [ 144.6605, 13.4018 ], [ 144.6607, 13.402 ], [ 144.6603, 13.4022 ], [ 144.6602, 13.4019 ], [ 144.6605, 13.4018 ] ], [ [ 144.6768, 13.2401 ], [ 144.6785, 13.2408 ], [ 144.672, 13.2402 ], [ 144.672, 13.24 ], [ 144.6768, 13.2401 ] ], [ [ 144.6973, 13.2447 ], [ 144.6977, 13.2451 ], [ 144.6974, 13.2451 ], [ 144.6973, 13.2447 ] ], [ [ 144.7012, 13.2448 ], [ 144.7013, 13.2453 ], [ 144.701, 13.2453 ], [ 144.7009, 13.2448 ], [ 144.7012, 13.2448 ] ], [ [ 144.7053, 13.4801 ], [ 144.7056, 13.4801 ], [ 144.7055, 13.4805 ], [ 144.7053, 13.4801 ] ], [ [ 144.7068, 13.2437 ], [ 144.7071, 13.2441 ], [ 144.7063, 13.2439 ], [ 144.7055, 13.244 ], [ 144.7068, 13.2437 ] ], [ [ 144.7063, 13.244 ], [ 144.7067, 13.2441 ], [ 144.706, 13.2449 ], [ 144.7055, 13.2448 ], [ 144.7063, 13.244 ] ], [ [ 144.7081, 13.2432 ], [ 144.7085, 13.243 ], [ 144.7089, 13.2435 ], [ 144.7086, 13.2453 ], [ 144.7081, 13.2452 ], [ 144.7081, 13.2432 ] ], [ [ 144.7175, 13.247 ], [ 144.7179, 13.248 ], [ 144.7173, 13.2489 ], [ 144.7162, 13.2467 ], [ 144.7175, 13.247 ] ], [ [ 144.7319, 13.2498 ], [ 144.7323, 13.2507 ], [ 144.7317, 13.2507 ], [ 144.7314, 13.2501 ], [ 144.7319, 13.2498 ] ], [ [ 144.7449, 13.2683 ], [ 144.7456, 13.2686 ], [ 144.7448, 13.2693 ], [ 144.7444, 13.2691 ], [ 144.7449, 13.2683 ] ], [ [ 144.7705, 13.4923 ], [ 144.7715, 13.4929 ], [ 144.771, 13.4931 ], [ 144.7711, 13.4934 ], [ 144.77, 13.4931 ], [ 144.7697, 13.4924 ], [ 144.7705, 13.4923 ] ] ] } },
{ "type": "Feature", "properties": { "GEOIDFQ": "1400000US66010956300", "NAME": "9563", "NAMELSAD": "Census Tract 9563" }, "geometry": { "type": "Polygon", "coordinates": [ [ [ 144.8708, 13.4923 ], [ 144.8708, 13.5196 ], [ 144.8796, 13.5224 ], [ 144.8828, 13.5248 ], [ 144.8828, 13.5074 ], [ 144.8956, 13.5242 ], [ 144.9017, 13.5272 ], [ 144.9026, 13.528 ], [ 144.907, 13.5363 ], [ 144.9089, 13.5382 ], [ 144.9096, 13.5416 ], [ 144.913, 13.5439 ], [ 144.9165, 13.5568 ], [ 144.9378, 13.548 ], [ 144.9375, 13.5472 ], [ 144.937, 13.5469 ], [ 144.9372, 13.5466 ], [ 144.9364, 13.545 ], [ 144.9357, 13.545 ], [ 144.935, 13.5429 ], [ 144.9334, 13.5411 ], [ 144.933, 13.5396 ], [ 144.9325, 13.5393 ], [ 144.9321, 13.5379 ], [ 144.9325, 13.5374 ], [ 144.9321, 13.5372 ], [ 144.9324, 13.5368 ], [ 144.9318, 13.5352 ], [ 144.9322, 13.5339 ], [ 144.9312, 13.5329 ], [ 144.9311, 13.5318 ], [ 144.9297, 13.5303 ], [ 144.9299, 13.5297 ], [ 144.9294, 13.5286 ], [ 144.9285, 13.5277 ], [ 144.9287, 13.5271 ], [ 144.9283, 13.5259 ], [ 144.9279, 13.5258 ], [ 144.9278, 13.5242 ], [ 144.9258, 13.5211 ], [ 144.9234, 13.5194 ], [ 144.9223, 13.519 ], [ 144.9197, 13.5188 ], [ 144.9176, 13.5173 ], [ 144.9154, 13.5168 ], [ 144.9153, 13.5162 ], [ 144.9145, 13.5162 ], [ 144.9136, 13.5155 ], [ 144.9121, 13.5151 ], [ 144.911, 13.5157 ], [ 144.9078, 13.5148 ], [ 144.9058, 13.5132 ], [ 144.9052, 13.5135 ], [ 144.905, 13.5131 ], [ 144.9028, 13.513 ], [ 144.9003, 13.5116 ], [ 144.899, 13.51 ], [ 144.8975, 13.5097 ], [ 144.896, 13.507 ], [ 144.8942, 13.5072 ], [ 144.892, 13.5064 ], [ 144.8911, 13.5045 ], [ 144.8914, 13.5016 ], [ 144.891, 13.5012 ], [ 144.892, 13.4982 ], [ 144.8906, 13.4964 ], [ 144.8878, 13.4942 ], [ 144.8867, 13.4922 ], [ 144.8853, 13.4915 ], [ 144.8837, 13.4907 ], [ 144.8815, 13.491 ], [ 144.8809, 13.4906 ], [ 144.8806, 13.4909 ], [ 144.8804, 13.4904 ], [ 144.8793, 13.4904 ], [ 144.8768, 13.4897 ], [ 144.8724, 13.4872 ], [ 144.8711, 13.486 ], [ 144.87, 13.4871 ], [ 144.869, 13.4905 ], [ 144.8708, 13.4923 ] ] ] } }
]
}
