{
"type": "FeatureCollection",
"name": "state_60_tracts_simplified",
"crs": { "type": "name", "properties": { "name": "urn:ogc:def:crs:OGC:1.3:CRS84" } },
"features": [
{ "type": "Feature", "properties": { "GEOIDFQ": "1400000US60010950200", "NAME": "9502", "NAMELSAD": "Census Tract 9502" }, "geometry": { "type": "Polygon", "coordinates": [ [ [ -170.6087, -14.2808 ], [ -170.6103, -14.272 ], [ -170.6064, -14.2684 ], [ -170.6062, -14.2671 ], [ -170.6033, -14.2647 ], [ -170.6002, -14.2681 ], [ -170.5939, -14.272 ], [ -170.5906, -14.2697 ], [ -170.5865, -14.2682 ], [ -170.583, -14.2654 ], [ -170.5815, -14.2648 ], [ -170.5801, -14.2652 ], [ -170.5794, -14.2645 ], [ -170.5782, -14.2619 ], [ -170.5672, -14.268 ], [ -170.5662, -14.2705 ], [ -170.5614, -14.2755 ], [ -170.5591, -14.2754 ], [ -170.5529, -14.2763 ], [ -170.5474, -14.2782 ], [ -170.5436, -14.2827 ], [ -170.5412, -14.2879 ], [ -170.5391, -14.2949 ], [ -170.5391, -14.3121 ], [ -170.5381, -14.3361 ], [ -170.5595, -14.338 ], [ -170.5728, -14.3367 ], [ -170.5814, -14.3348 ], [ -170.5851, -14.333 ], [ -170.5865, -14.331 ], [ -170.5924, -14.3319 ], [ -170.6035, -14.3343 ], [ -170.6083, -14.3129 ], [ -170.6148, -14.2997 ], [ -170.6087, -14.2808 ] ] ] } },
{ "type": "Feature", "properties": { "GEOIDFQ": "1400000US60010950500", "NAME": "9505", "NAMELSAD": "Census Tract 9505" }, "geometry": { "type": "Polygon", "coordinates": [ [ [ -170.6883, -14.2654 ], [ -170.684, -14.264 ], [ -170.6805, -14.2633 ], [ -170.6763, -14.2633 ], [ -170.6692, -14.2642 ], [ -170.663, -14.2636 ], [ -170.6592, -14.2641 ], [ -170.6563, -14.2654 ], [ -170.6539, -14.2714 ], [ -170.6554, -14.2753 ], [ -170.659, -14.2822 ], [ -170.6618, -14.2866 ], [ -170.6687, -14.2915 ], [ -170.67, -14.2856 ], [ -170.6716, -14.2826 ], [ -170.6736, -14.281 ], [ -170.6779, -14.2802 ], [ -170.6826, -14.2728 ], [ -170.6868, -14.2743 ], [ -170.6892, -14.2743 ], [ -170.6892, -14.2681 ], [ -170.6898, -14.2648 ], [ -170.6883, -14.2654 ] ] ] } },
{ "type": "Feature", "properties": { "GEOIDFQ": "1400000US60010950600", "NAME": "9506", "NAMELSAD": "Census Tract 9506" }, "geometry": { "type": "Polygon", "coordinates": [ [ [ -170.7416, -14.2293 ], [ -170.7372, -14.2258 ], [ -170.7321, -14.2236 ], [ -170.7263, -14.2227 ], [ -170.7203, -14.2147 ], [ -170.7134, -14.2088 ], [ -170.7061, -14.205 ], [ -170.6921, -14.2457 ], [ -170.6898, -14.2586 ], [ -170.686, -14.2646 ], [ -170.6884, -14.2654 ], [ -170.6898, -14.2648 ], [ -170.6892, -14.2681 ], [ -170.6892, -14.2743 ], [ -170.69, -14.2742 ], [ -170.6906, -14.2734 ], [ -170.6937, -14.2738 ], [ -170.6954, -14.2742 ], [ -170.6962, -14.2754 ], [ -170.6966, -14.2793 ], [ -170.6972, -14.2799 ], [ -170.6978, -14.2799 ], [ -170.6985, -14.2854 ], [ -170.6964, -14.2878 ], [ -170.699, -14.2888 ], [ -170.7003, -14.2902 ], [ -170.7024, -14.2903 ], [ -170.7037, -14.2951 ], [ -170.7193, -14.2974 ], [ -170.7116, -14.2849 ], [ -170.7152, -14.2784 ], [ -170.7214, -14.273 ], [ -170.7226, -14.2727 ], [ -170.7287, -14.2661 ], [ -170.7475, -14.2366 ], [ -170.746, -14.2338 ], [ -170.7416, -14.2293 ] ] ] } },
{ "type": "Feature", "properties": { "GEOIDFQ": "1400000US60050951300", "NAME": "9513", "NAMELSAD": "Census Tract 9513" }, "geometry": { "type": "Polygon", "coordinates": [ [ [ -170.7909, -14.3462 ], [ -170.7873, -14.3458 ], [ -170.7844, -14.3475 ], [ -170.7824, -14.3449 ], [ -170.7808, -14.3484 ], [ -170.7803, -14.3486 ], [ -170.7785, -14.3515 ], [ -170.7779, -14.3516 ], [ -170.7763, -14.3504 ], [ -170.7745, -14.3504 ], [ -170.7745, -14.3493 ], [ -170.7722, -14.3477 ], [ -170.7661, -14.348 ], [ -170.7644, -14.349 ], [ -170.7644, -14.3494 ], [ -170.7618, -14.346 ], [ -170.764, -14.3453 ], [ -170.766, -14.3457 ], [ -170.767, -14.3455 ], [ -170.7675, -14.3458 ], [ -170.7711, -14.3424 ], [ -170.7709, -14.3389 ], [ -170.7678, -14.3396 ], [ -170.7661, -14.341 ], [ -170.7646, -14.3401 ], [ -170.7643, -14.3393 ], [ -170.7623, -14.3396 ], [ -170.7574, -14.3417 ], [ -170.756, -14.3447 ], [ -170.7539, -14.3467 ], [ -170.7539, -14.3501 ], [ -170.756, -14.3501 ], [ -170.756, -14.3509 ], [ -170.7558, -14.3521 ], [ -170.7538, -14.3525 ], [ -170.7436, -14.4196 ], [ -170.7599, -14.4181 ], [ -170.7743, -14.4131 ], [ -170.7811, -14.4075 ], [ -170.7844, -14.4036 ], [ -170.7859, -14.4005 ], [ -170.7925, -14.3997 ], [ -170.7947, -14.3989 ], [ -170.7909, -14.3462 ] ] ] } },
{ "type": "Feature", "properties": { "GEOIDFQ": "1400000US60020951800", "NAME": "9518", "NAMELSAD": "Census Tract 9518" }, "geometry": { "type": "Polygon", "coordinates": [ [ [ -169.7253, -14.1556 ], [ -169.7226, -14.1437 ], [ -169.7205, -14.1377 ], [ -169.7173, -14.1333 ], [ -169.7066, -14.125 ], [ -169.7023, -14.1203 ], [ -169.678, -14.1115 ], [ -169.6657, -14.1094 ], [ -169.6615, -14.1089 ], [ -169.6305, -14.1137 ], [ -169.625, -14.1105 ], [ -169.6151, -14.1068 ], [ -169.6099, -14.1059 ], [ -169.5992, -14.1054 ], [ -169.59, -14.1075 ], [ -169.5757, -14.1136 ], [ -169.5624, -14.125 ], [ -169.5575, -14.1345 ], [ -169.5547, -14.1426 ], [ -169.5543, -14.1517 ], [ -169.5491, -14.1593 ], [ -169.5476, -14.1636 ], [ -169.5483, -14.178 ], [ -169.547, -14.1843 ], [ -169.5426, -14.1798 ], [ -169.5353, -14.177 ], [ -169.5238, -14.1747 ], [ -169.5157, -14.1702 ], [ -169.5061, -14.1669 ], [ -169.5, -14.1661 ], [ -169.494, -14.1661 ], [ -169.4604, -14.1695 ], [ -169.4581, -14.1673 ], [ -169.4364, -14.17 ], [ -169.4321, -14.1713 ], [ -169.4305, -14.1713 ], [ -169.4159, -14.1686 ], [ -169.4121, -14.1686 ], [ -169.3952, -14.17 ], [ -169.3856, -14.1746 ], [ -169.3772, -14.1813 ], [ -169.3692, -14.1938 ], [ -169.3669, -14.2021 ], [ -169.3674, -14.2332 ], [ -169.367, -14.2449 ], [ -169.3675, -14.2613 ], [ -169.3691, -14.2686 ], [ -169.3694, -14.2737 ], [ -169.3707, -14.2795 ], [ -169.375, -14.2885 ], [ -169.3802, -14.2948 ], [ -169.3878, -14.3009 ], [ -169.3974, -14.3072 ], [ -169.409, -14.31 ], [ -169.4195, -14.3114 ], [ -169.4302, -14.3099 ], [ -169.4416, -14.3058 ], [ -169.446, -14.3048 ], [ -169.4538, -14.3095 ], [ -169.4732, -14.3164 ], [ -169.4827, -14.3172 ], [ -169.5, -14.313 ], [ -169.5066, -14.3101 ], [ -169.5134, -14.3078 ], [ -169.5189, -14.3018 ], [ -169.5277, -14.2817 ], [ -169.5329, -14.274 ], [ -169.5392, -14.269 ], [ -169.5534, -14.2639 ], [ -169.5589, -14.2589 ], [ -169.5638, -14.25 ], [ -169.5629, -14.25 ], [ -169.5652, -14.2418 ], [ -169.5666, -14.2299 ], [ -169.5668, -14.2215 ], [ -169.5699, -14.2236 ], [ -169.5883, -14.2338 ], [ -169.6016, -14.2371 ], [ -169.6086, -14.2379 ], [ -169.6156, -14.2377 ], [ -169.6228, -14.2357 ], [ -169.6275, -14.2323 ], [ -169.6314, -14.228 ], [ -169.6364, -14.2304 ], [ -169.6467, -14.2326 ], [ -169.6606, -14.2338 ], [ -169.6727, -14.2329 ], [ -169.6804, -14.2306 ], [ -169.6928, -14.2216 ], [ -169.7142, -14.2007 ], [ -169.7228, -14.1894 ], [ -169.7258, -14.181 ], [ -169.7259, -14.1661 ], [ -169.7253, -14.1556 ] ] ] } },
{ "type": "Feature", "properties": { "GEOIDFQ": "1400000US60050951203", "NAME": "9512.03", "NAMELSAD": "Census Tract 9512.03" }, "geometry": { "type": "Polygon", "coordinates": [ [ [ -170.7549, -14.3399 ], [ -170.7504, -14.3409 ], [ -170.7469, -14.34 ], [ -170.7467, -14.3379 ], [ -170.7438, -14.3354 ], [ -170.7436, -14.3349 ], [ -170.7386, -14.3353 ], [ -170.7377, -14.3381 ], [ -170.7332, -14.3407 ], [ -170.7302, -14.339 ], [ -170.7294, -14.3403 ], [ -170.7229, -14.3379 ], [ -170.7214, -14.3402 ], [ -170.7156, -14.3528 ], [ -170.6937, -14.3945 ], [ -170.7258, -14.4159 ], [ -170.739, -14.4199 ], [ -170.7436, -14.4196 ], [ -170.7538, -14.3525 ], [ -170.7558, -14.3521 ], [ -170.756, -14.3509 ], [ -170.756, -14.3501 ], [ -170.7539, -14.3501 ], [ -170.7539, -14.3467 ], [ -170.756, -14.3447 ], [ -170.7572, -14.3421 ], [ -170.7563, -14.3417 ], [ -170.7549, -14.3399 ] ] ] } },
{ "type": "Feature", "properties": { "GEOIDFQ": "1400000US60050951000", "NAME": "9510", "NAMELSAD": "Census Tract 9510" }, "geometry": { "type": "Polygon", "coordinates": [ [ [ -170.7442, -14.316 ], [ -170.7437, -14.3133 ], [ -170.7439, -14.3112 ], [ -170.7399, -14.3043 ], [ -170.7392, -14.3 ], [ -170.738, -14.2986 ], [ -170.7321, -14.2976 ], [ -170.7238, -14.3073 ], [ -170.7152, -14.3182 ], [ -170.7172, -14.3174 ], [ -170.7223, -14.3203 ], [ -170.7231, -14.3202 ], [ -170.7229, -14.3224 ], [ -170.7237, -14.3231 ], [ -170.7248, -14.3219 ], [ -170.7266, -14.3222 ], [ -170.728, -14.3217 ], [ -170.7278, -14.3205 ], [ -170.7304, -14.3209 ], [ -170.7311, -14.3217 ], [ -170.7319, -14.3206 ], [ -170.7332, -14.3201 ], [ -170.7342, -14.3213 ], [ -170.7349, -14.3244 ], [ -170.7389, -14.3243 ], [ -170.7391, -14.3255 ], [ -170.74, -14.3255 ], [ -170.7402, -14.3249 ], [ -170.7429, -14.3235 ], [ -170.7443, -14.3242 ], [ -170.7444, -14.3228 ], [ -170.7468, -14.3191 ], [ -170.7442, -14.316 ] ] ] } },
{ "type": "Feature", "properties": { "GEOIDFQ": "1400000US60050951202", "NAME": "9512.02", "NAMELSAD": "Census Tract 9512.02" }, "geometry": { "type": "Polygon", "coordinates": [ [ [ -170.7412, -14.3325 ], [ -170.7412, -14.3318 ], [ -170.7401, -14.3306 ], [ -170.7389, -14.3243 ], [ -170.7356, -14.3244 ], [ -170.7345, -14.3262 ], [ -170.732, -14.3244 ], [ -170.732, -14.3255 ], [ -170.7309, -14.3275 ], [ -170.7307, -14.3306 ], [ -170.7239, -14.3301 ], [ -170.7233, -14.3312 ], [ -170.7208, -14.3338 ], [ -170.7239, -14.3355 ], [ -170.7229, -14.3379 ], [ -170.7294, -14.3403 ], [ -170.7302, -14.339 ], [ -170.7332, -14.3407 ], [ -170.7377, -14.3381 ], [ -170.7386, -14.3353 ], [ -170.7429, -14.3351 ], [ -170.7436, -14.3348 ], [ -170.7412, -14.3325 ] ] ] } },
{ "type": "Feature", "properties": { "GEOIDFQ": "1400000US60050951600", "NAME": "9516", "NAMELSAD": "Census Tract 9516" }, "geometry": { "type": "Polygon", "coordinates": [ [ [ -170.8818, -14.2985 ], [ -170.875, -14.2876 ], [ -170.8625, -14.275 ], [ -170.8505, -14.2647 ], [ -170.8403, -14.258 ], [ -170.832, -14.2572 ], [ -170.8295, -14.2577 ], [ -170.8268, -14.2536 ], [ -170.823, -14.25 ], [ -170.8233, -14.25 ], [ -170.8168, -14.2477 ], [ -170.8045, -14.2463 ], [ -170.8, -14.2469 ], [ -170.7972, -14.2466 ], [ -170.7935, -14.2495 ], [ -170.7946, -14.2928 ], [ -170.7917, -14.2972 ], [ -170.7907, -14.3026 ], [ -170.7902, -14.3107 ], [ -170.7894, -14.3105 ], [ -170.7875, -14.3111 ], [ -170.7835, -14.3143 ], [ -170.768, -14.3188 ], [ -170.7754, -14.3277 ], [ -170.7775, -14.3289 ], [ -170.7749, -14.3342 ], [ -170.7766, -14.3342 ], [ -170.777, -14.3376 ], [ -170.7757, -14.3401 ], [ -170.776, -14.3411 ], [ -170.7738, -14.3408 ], [ -170.7711, -14.3413 ], [ -170.7711, -14.3424 ], [ -170.7675, -14.3458 ], [ -170.767, -14.3455 ], [ -170.766, -14.3457 ], [ -170.764, -14.3453 ], [ -170.7618, -14.346 ], [ -170.7644, -14.3494 ], [ -170.7644, -14.349 ], [ -170.7661, -14.348 ], [ -170.7722, -14.3477 ], [ -170.7745, -14.3493 ], [ -170.7745, -14.3504 ], [ -170.7763, -14.3504 ], [ -170.7779, -14.3516 ], [ -170.7785, -14.3515 ], [ -170.7803, -14.3486 ], [ -170.7808, -14.3484 ], [ -170.7824, -14.3449 ], [ -170.7844, -14.3475 ], [ -170.7873, -14.3458 ], [ -170.7909, -14.3462 ], [ -170.7947, -14.3989 ], [ -170.804, -14.3957 ], [ -170.8123, -14.3888 ], [ -170.818, -14.3806 ], [ -170.8207, -14.3775 ], [ -170.8231, -14.3718 ], [ -170.8251, -14.3711 ], [ -170.8381, -14.3702 ], [ -170.8523, -14.3664 ], [ -170.8659, -14.3586 ], [ -170.875, -14.3497 ], [ -170.8837, -14.3427 ], [ -170.8893, -14.3309 ], [ -170.8903, -14.3233 ], [ -170.8903, -14.3172 ], [ -170.8818, -14.2985 ] ] ] } },
{ "type": "Feature", "properties": { "GEOIDFQ": "1400000US60050951100", "NAME": "9511", "NAMELSAD": "Census Tract 9511" }, "geometry": { "type": "Polygon", "coordinates": [ [ [ -170.7613, -14.3197 ], [ -170.7608, -14.317 ], [ -170.7597, -14.3183 ], [ -170.7589, -14.3163 ], [ -170.7527, -14.3159 ], [ -170.7496, -14.3144 ], [ -170.7444, -14.3228 ], [ -170.7443, -14.3242 ], [ -170.7429, -14.3235 ], [ -170.7402, -14.3249 ], [ -170.74, -14.3255 ], [ -170.7391, -14.3255 ], [ -170.7401, -14.3306 ], [ -170.7412, -14.3318 ], [ -170.7412, -14.3325 ], [ -170.7435, -14.3343 ], [ -170.7438, -14.3354 ], [ -170.7467, -14.3379 ], [ -170.7469, -14.34 ], [ -170.7504, -14.3409 ], [ -170.7554, -14.3398 ], [ -170.7585, -14.3381 ], [ -170.7588, -14.3375 ], [ -170.7583, -14.3357 ], [ -170.7595, -14.3319 ], [ -170.761, -14.3321 ], [ -170.7609, -14.328 ], [ -170.7622, -14.3257 ], [ -170.7629, -14.3213 ], [ -170.7613, -14.3197 ] ] ] } },
{ "type": "Feature", "properties": { "GEOIDFQ": "1400000US60050951201", "NAME": "9512.01", "NAMELSAD": "Census Tract 9512.01" }, "geometry": { "type": "Polygon", "coordinates": [ [ [ -170.7342, -14.3213 ], [ -170.7332, -14.3201 ], [ -170.7319, -14.3206 ], [ -170.7311, -14.3217 ], [ -170.7304, -14.3209 ], [ -170.7278, -14.3205 ], [ -170.728, -14.3217 ], [ -170.7266, -14.3222 ], [ -170.7248, -14.3219 ], [ -170.7237, -14.3231 ], [ -170.7229, -14.3224 ], [ -170.7231, -14.3202 ], [ -170.7223, -14.3203 ], [ -170.7172, -14.3174 ], [ -170.7153, -14.3182 ], [ -170.7055, -14.3302 ], [ -170.6663, -14.3758 ], [ -170.6937, -14.3945 ], [ -170.7156, -14.3528 ], [ -170.7214, -14.3402 ], [ -170.7232, -14.3374 ], [ -170.7239, -14.3355 ], [ -170.7208, -14.3338 ], [ -170.7233, -14.3312 ], [ -170.7239, -14.3301 ], [ -170.7307, -14.3306 ], [ -170.7309, -14.3275 ], [ -170.732, -14.3255 ], [ -170.732, -14.3244 ], [ -170.7345, -14.3262 ], [ -170.7356, -14.3244 ], [ -170.7349, -14.3244 ], [ -170.7342, -14.3213 ] ] ] } },
{ "type": "Feature", "properties": { "GEOIDFQ": "1400000US60010950300", "NAME": "9503", "NAMELSAD": "Census Tract 9503" }, "geometry": { "type": "Polygon", "coordinates": [ [ [ -170.6693, -14.2974 ], [ -170.6685, -14.2933 ], [ -170.6687, -14.2915 ], [ -170.6618, -14.2866 ], [ -170.659, -14.2822 ], [ -170.6544, -14.2729 ], [ -170.6539, -14.2714 ], [ -170.6563, -14.2654 ], [ -170.6592, -14.2641 ], [ -170.6602, -14.2628 ], [ -170.6604, -14.2612 ], [ -170.657, -14.2579 ], [ -170.6528, -14.2485 ], [ -170.6428, -14.2415 ], [ -170.6379, -14.2371 ], [ -170.6001, -14.2 ], [ -170.5903, -14.1981 ], [ -170.5901, -14.2531 ], [ -170.5963, -14.2708 ], [ -170.6002, -14.2681 ], [ -170.6033, -14.2647 ], [ -170.6062, -14.2671 ], [ -170.6064, -14.2684 ], [ -170.6103, -14.272 ], [ -170.6087, -14.2808 ], [ -170.6148, -14.2997 ], [ -170.6083, -14.3129 ], [ -170.6035, -14.3343 ], [ -170.6164, -14.3342 ], [ -170.6319, -14.3355 ], [ -170.6375, -14.3369 ], [ -170.6428, -14.3403 ], [ -170.6482, -14.3475 ], [ -170.6519, -14.3562 ], [ -170.6585, -14.3355 ], [ -170.6693, -14.305 ], [ -170.6739, -14.2994 ], [ -170.6722, -14.2992 ], [ -170.6693, -14.2974 ] ] ] } },
{ "type": "Feature", "properties": { "GEOIDFQ": "1400000US60010950100", "NAME": "9501", "NAMELSAD": "Census Tract 9501" }, "geometry": { "type": "MultiPolygon", "coordinates": [ [ [ [ -170.5901, -14.2531 ], [ -170.5903, -14.1981 ], [ -170.5817, -14.1964 ], [ -170.5592, -14.1984 ], [ -170.5368, -14.2043 ], [ -170.5106, -14.2321 ], [ -170.5062, -14.2528 ], [ -170.5065, -14.2543 ], [ -170.5053, -14.2563 ], [ -170.4947, -14.266 ], [ -170.4903, -14.2825 ], [ -170.4915, -14.3017 ], [ -170.5, -14.3176 ], [ -170.5094, -14.3288 ], [ -170.5197, -14.3332 ], [ -170.5308, -14.3353 ], [ -170.5381, -14.3361 ], [ -170.5391, -14.3121 ], [ -170.5391, -14.2949 ], [ -170.5412, -14.2879 ], [ -170.5436, -14.2827 ], [ -170.5474, -14.2782 ], [ -170.5529, -14.2763 ], [ -170.5591, -14.2754 ], [ -170.5614, -14.2755 ], [ -170.5662, -14.2705 ], [ -170.5672, -14.268 ], [ -170.5782, -14.2619 ], [ -170.5794, -14.2645 ], [ -170.5801, -14.2652 ], [ -170.5815, -14.2648 ], [ -170.583, -14.2654 ], [ -170.5865, -14.2682 ], [ -170.5906, -14.2697 ], [ -170.5939, -14.272 ], [ -170.5962, -14.2707 ], [ -170.5901, -14.2531 ] ] ], [ [ [ -170.7028, -14.1969 ], [ -170.6871, -14.1822 ], [ -170.6766, -14.1783 ], [ -170.6652, -14.1759 ], [ -170.6553, -14.1755 ], [ -170.6417, -14.1769 ], [ -170.6366, -14.1787 ], [ -170.6281, -14.1828 ], [ -170.625, -14.1858 ], [ -170.6022, -14.2004 ], [ -170.6001, -14.2 ], [ -170.6379, -14.2371 ], [ -170.6428, -14.2415 ], [ -170.6528, -14.2485 ], [ -170.657, -14.2579 ], [ -170.6604, -14.2612 ], [ -170.6602, -14.2628 ], [ -170.6592, -14.2641 ], [ -170.6597, -14.2642 ], [ -170.6621, -14.2636 ], [ -170.6665, -14.2637 ], [ -170.6692, -14.2642 ], [ -170.6763, -14.2633 ], [ -170.6805, -14.2633 ], [ -170.686, -14.2646 ], [ -170.6898, -14.2586 ], [ -170.6921, -14.2457 ], [ -170.7061, -14.205 ], [ -170.7039, -14.2034 ], [ -170.7028, -14.1969 ] ] ] ] } },
{ "type": "Feature", "properties": { "GEOIDFQ": "1400000US60030951900", "NAME": "9519", "NAMELSAD": "Census Tract 9519" }, "geometry": { "type": "Polygon", "coordinates": [ [ [ -168.2245, -14.5245 ], [ -168.2185, -14.5118 ], [ -168.2098, -14.5001 ], [ -168.1995, -14.4901 ], [ -168.1868, -14.4832 ], [ -168.1733, -14.4797 ], [ -168.1575, -14.4779 ], [ -168.1522, -14.4778 ], [ -168.1522, -14.4782 ], [ -168.1349, -14.4846 ], [ -168.1233, -14.4917 ], [ -168.1159, -14.5002 ], [ -168.1112, -14.5081 ], [ -168.1047, -14.5248 ], [ -168.1016, -14.5379 ], [ -168.1022, -14.554 ], [ -168.1059, -14.5666 ], [ -168.1104, -14.5792 ], [ -168.1161, -14.587 ], [ -168.1291, -14.5973 ], [ -168.1358, -14.5997 ], [ -168.1579, -14.6018 ], [ -168.1735, -14.6013 ], [ -168.1951, -14.5971 ], [ -168.2068, -14.5901 ], [ -168.218, -14.5751 ], [ -168.2235, -14.5613 ], [ -168.226, -14.547 ], [ -168.2245, -14.5245 ] ] ] } },
{ "type": "Feature", "properties": { "GEOIDFQ": "1400000US60040952000", "NAME": "9520", "NAMELSAD": "Census Tract 9520" }, "geometry": { "type": "Polygon", "coordinates": [ [ [ -171.1375, -11.0301 ], [ -171.1258, -11.0156 ], [ -171.1114, -11.0038 ], [ -171.0949, -10.9978 ], [ -171.0746, -10.9972 ], [ -171.0577, -10.999 ], [ -171.0363, -11.0029 ], [ -171.0279, -11.0065 ], [ -171.0193, -11.0122 ], [ -171.0141, -11.0237 ], [ -171.0112, -11.0602 ], [ -171.0114, -11.0781 ], [ -171.0196, -11.0946 ], [ -171.0322, -11.1051 ], [ -171.0489, -11.1093 ], [ -171.0744, -11.1101 ], [ -171.0983, -11.1079 ], [ -171.1206, -11.1009 ], [ -171.1339, -11.0905 ], [ -171.1411, -11.0738 ], [ -171.1419, -11.0608 ], [ -171.1412, -11.0466 ], [ -171.1375, -11.0301 ] ] ] } },
{ "type": "Feature", "properties": { "GEOIDFQ": "1400000US60010950700", "NAME": "9507", "NAMELSAD": "Census Tract 9507" }, "geometry": { "type": "Polygon", "coordinates": [ [ [ -170.7024, -14.2903 ], [ -170.7003, -14.2902 ], [ -170.699, -14.2888 ], [ -170.6964, -14.2878 ], [ -170.6985, -14.2854 ], [ -170.6978, -14.2799 ], [ -170.6972, -14.2799 ], [ -170.6966, -14.2793 ], [ -170.6962, -14.2754 ], [ -170.6954, -14.2742 ], [ -170.6927, -14.2736 ], [ -170.6906, -14.2734 ], [ -170.6896, -14.2743 ], [ -170.6868, -14.2743 ], [ -170.6826, -14.2728 ], [ -170.6779, -14.2802 ], [ -170.6736, -14.281 ], [ -170.6716, -14.2826 ], [ -170.67, -14.2856 ], [ -170.6688, -14.2894 ], [ -170.6685, -14.2933 ], [ -170.6693, -14.2974 ], [ -170.6719, -14.2992 ], [ -170.6763, -14.299 ], [ -170.6806, -14.2975 ], [ -170.68, -14.2952 ], [ -170.6813, -14.2961 ], [ -170.6866, -14.2941 ], [ -170.6901, -14.2946 ], [ -170.6964, -14.291 ], [ -170.6986, -14.291 ], [ -170.6994, -14.2921 ], [ -170.7011, -14.2925 ], [ -170.7017, -14.2936 ], [ -170.7037, -14.295 ], [ -170.7024, -14.2903 ] ] ] } },
{ "type": "Feature", "properties": { "GEOIDFQ": "1400000US60010950900", "NAME": "9509", "NAMELSAD": "Census Tract 9509" }, "geometry": { "type": "Polygon", "coordinates": [ [ [ -170.7663, -14.244 ], [ -170.75, -14.2412 ], [ -170.7475, -14.2366 ], [ -170.728, -14.2669 ], [ -170.7226, -14.2727 ], [ -170.7214, -14.273 ], [ -170.7152, -14.2784 ], [ -170.7116, -14.2849 ], [ -170.7193, -14.2974 ], [ -170.7037, -14.2951 ], [ -170.7017, -14.2936 ], [ -170.7011, -14.2925 ], [ -170.6994, -14.2921 ], [ -170.6986, -14.291 ], [ -170.6978, -14.2908 ], [ -170.6958, -14.2912 ], [ -170.6948, -14.2921 ], [ -170.6901, -14.2946 ], [ -170.6866, -14.2941 ], [ -170.6813, -14.2961 ], [ -170.68, -14.2952 ], [ -170.6806, -14.2975 ], [ -170.6763, -14.299 ], [ -170.6739, -14.2994 ], [ -170.6693, -14.305 ], [ -170.6585, -14.3355 ], [ -170.6519, -14.3562 ], [ -170.6545, -14.3643 ], [ -170.6604, -14.3714 ], [ -170.6663, -14.3758 ], [ -170.7055, -14.3302 ], [ -170.7238, -14.3073 ], [ -170.7321, -14.2976 ], [ -170.7403, -14.2916 ], [ -170.7972, -14.2466 ], [ -170.7663, -14.244 ] ] ] } },
{ "type": "Feature", "properties": { "GEOIDFQ": "1400000US60050951500", "NAME": "9515", "NAMELSAD": "Census Tract 9515" }, "geometry": { "type": "Polygon", "coordinates": [ [ [ -170.7935, -14.2495 ], [ -170.7403, -14.2916 ], [ -170.7321, -14.2976 ], [ -170.738, -14.2986 ], [ -170.7392, -14.3 ], [ -170.7399, -14.3043 ], [ -170.7439, -14.3112 ], [ -170.7437, -14.3133 ], [ -170.7442, -14.316 ], [ -170.7468, -14.3191 ], [ -170.7496, -14.3144 ], [ -170.7527, -14.3159 ], [ -170.7589, -14.3163 ], [ -170.7597, -14.3183 ], [ -170.7608, -14.317 ], [ -170.7613, -14.3197 ], [ -170.7629, -14.3213 ], [ -170.7629, -14.3229 ], [ -170.7622, -14.3257 ], [ -170.7609, -14.328 ], [ -170.761, -14.3321 ], [ -170.7595, -14.3319 ], [ -170.7583, -14.3357 ], [ -170.7588, -14.3375 ], [ -170.758, -14.3384 ], [ -170.7549, -14.3399 ], [ -170.7563, -14.3417 ], [ -170.7572, -14.3421 ], [ -170.7574, -14.3417 ], [ -170.7586, -14.3415 ], [ -170.7603, -14.3403 ], [ -170.7643, -14.3393 ], [ -170.7646, -14.3401 ], [ -170.7663, -14.341 ], [ -170.7677, -14.3396 ], [ -170.7709, -14.3389 ], [ -170.7711, -14.3413 ], [ -170.7738, -14.3408 ], [ -170.776, -14.3411 ], [ -170.7757, -14.3401 ], [ -170.7771, -14.3369 ], [ -170.7766, -14.3342 ], [ -170.7749, -14.3342 ], [ -170.7775, -14.3289 ], [ -170.7754, -14.3277 ], [ -170.768, -14.3188 ], [ -170.7835, -14.3143 ], [ -170.7875, -14.3111 ], [ -170.7894, -14.3105 ], [ -170.7902, -14.3107 ], [ -170.7907, -14.3026 ], [ -170.7917, -14.2972 ], [ -170.7946, -14.2928 ], [ -170.7935, -14.2495 ] ] ] } }
]
}
